id,name,brewery_type,street,city,state,postal_code,website_url,phone,created_at,updated_at,country,longitude,latitude,tags
wolf-hills-brewing-co,Wolf Hills Brewing Co,micro,350 Park St SE,Abingdon,Virginia,24210-3314,http://www.wolfhillsbrewing.com,2762067562,2018-07-24 01:34:27.522092,2018-08-24 16:31:49.073321,United States,-81.966309,36.7123245,
blue-mountain-brewery,Blue Mountain Brewery,micro,9519 Critzers Shop Rd,Afton,Virginia,22920-2415,http://www.bluemountainbrewery.com,5404568020,2018-07-24 01:34:24.588091,2018-08-11 21:40:02.960016,United States,,,
brewing-tree-beer-company,Brewing Tree Beer Company,micro,9278 Rockfish Valley Hwy,Afton,Virginia,22920,,5403810990,2018-07-24 01:34:24.756701,2018-08-11 21:40:03.46372,United States,,,
quattro-goombas-brewery,Quattro Goombas Brewery,brewpub,22860 James Monroe Hwy,Aldie,Virginia,20105-1916,http://www.goombabrewery.com,7035091332,2018-07-24 01:34:26.464612,2018-08-11 21:40:08.270331,United States,,,
high-speed-low-drag-brewing-llc,High Speed Low Drag Brewing LLC,planning,,Alexandria,Virginia,22307-2001,http://www.kirklippold.com,7756849197,2018-07-24 01:34:25.625878,2018-08-11 21:40:05.87336,United States,,,
hops-grillhouse-and-brewery,Hops Grillhouse and Brewery,contract,3625 Jefferson Davis Hwy,Alexandria,Virginia,22305-3133,http://www.hopsrestaurants.com,7038379107,2018-07-24 01:34:25.710609,2018-08-24 16:29:10.373888,United States,-77.0523751,38.8399578,
nostrum-brewing,Nostrum Brewing,planning,,Alexandria,Virginia,22303-2214,,,2018-07-24 01:34:26.131985,2018-08-11 21:40:07.212862,United States,,,
port-city-brewing-co,Port City Brewing Co.,regional,3950 Wheeler Ave,Alexandria,Virginia,22304-6409,http://www.portcitybrewing.com,7037972739,2018-07-24 01:34:26.401214,2018-08-24 16:30:08.411956,United States,-77.1014922926867,38.80803165,
wheatland-spring-brewery,Wheatland Spring Brewery,planning,,Alexandria,Virginia,22314-4308,,,2018-07-24 01:34:27.469259,2018-08-11 21:40:10.850273,United States,,,
loose-shoe-brewing-company-llc,"Loose Shoe Brewing Company, LLC",micro,198 Ambriar Plz,Amherst,Virginia,24521-,http://www.looseshoebrewing.com,434946,2018-07-24 01:34:25.919364,2018-08-11 21:40:06.573662,United States,,,
krikelkay-brewing-company,Krikelkay Brewing Company,planning,,Appomattox,Virginia,24522-4034,http://www.krikelkaybrewing.com,4344263419,2018-07-24 01:34:25.81562,2018-08-11 21:40:06.340548,United States,,,
lidl-us-llc,Lidl US LLC,contract,3500 S Clark St,Arlington,Virginia,22202-4045,,,2018-07-24 01:34:25.880664,2018-08-24 16:29:25.248762,United States,-77.051863,38.842856,
new-district-brewing-company,New District Brewing Company,micro,2709 S Oakland St,Arlington,Virginia,22206-2309,http://www.newdistrictbrewing.com,7038885820,2018-07-24 01:34:26.105841,2018-08-24 16:29:46.089076,United States,-77.0896629884113,38.8442198418856,
blue-mountain-barrel-house-and-organic-brewery,Blue Mountain Barrel House and Organic Brewery,micro,495 Cooperative Way,Arrington,Virginia,22922-3305,http://www.bluemountainbarrel.com,4342634002,2018-07-24 01:34:24.57481,2018-08-11 21:40:02.920551,United States,,,
dynasty-brewing-company,Dynasty Brewing Company,planning,,Ashburn,Virginia,20147,http://www.dynastybrewing.com,7037279229,2018-07-24 01:34:25.165753,2018-08-11 21:40:04.878341,United States,,,
grey-tower-brewing,Grey Tower Brewing,planning,,Ashburn,Virginia,20147-5433,,7032093107,2018-07-24 01:34:25.484723,2018-08-11 21:40:05.540699,United States,,,
house-6-brewing,House 6 Brewing,planning,,Ashburn,Virginia,20147,http://www.house6brewing.com,5855205710,2018-07-24 01:34:25.72292,2018-08-11 21:40:06.118089,United States,,,
lost-rhino-brewing-co,Lost Rhino Brewing Co,micro,21730 Red Rum Dr Ste 142,Ashburn,Virginia,20147-5870,http://www.lostrhino.com,5712912083,2018-07-24 01:34:25.932205,2018-08-24 16:29:29.689524,United States,-77.4767343639914,39.0156440931577,
old-ox-brewery-llc,Old Ox Brewery LLC,micro,44652 Guilford Dr Ste 114,Ashburn,Virginia,20147-6006,http://www.oldoxbrewery.com,7037298375,2018-07-24 01:34:26.240621,2018-08-24 16:29:54.867745,United States,-77.4560803103224,39.0222636767808,
the-craft-of-brewing,The Craft Of Brewing,micro,"21140 Ashburn Crossing Drive, Suite 170",Ashburn,Virginia,20147,http://www.thecraftob.com,7036873932,2018-07-24 01:34:27.089152,2018-08-11 21:40:09.965786,United States,,,
center-of-the-universe-brewing-co,Center of the Universe Brewing Co,micro,11293 Air Park Rd,Ashland,Virginia,23005-3436,http://www.cotubrewing.com,8043680299,2018-07-24 01:34:24.92417,2018-08-11 21:40:04.145663,United States,,,
mountain-valley-brewing,Mountain Valley Brewing,micro,4220 Mountain Valley Rd,Axton,Virginia,24054-2985,,2768332171,2018-07-24 01:34:26.063935,2018-08-24 16:29:41.602967,United States,-79.70721,36.715687,
beales,Beale's,brewpub,510 Grove St,Bedford,Virginia,24523,http://www.bealesbeer.com,,2018-07-24 01:34:24.336281,2018-08-24 16:27:23.383103,United States,-79.51785,37.33585,
bull-and-bones-brewhaus-and-grill,Bull & Bones Brewhaus & Grill,brewpub,1470 S Main St Ste 120,Blacksburg,Virginia,24060-5571,http://www.bullandbones.com,5409532855,2018-07-24 01:34:24.822121,2018-08-11 21:40:03.7441,United States,,,
right-mind-brewing,Right Mind Brewing,brewpub,1410 S Main St,Blacksburg,Virginia,24060-5528,http://www.rightmindbrewing.com,5405527000,2018-07-24 01:34:26.599395,2018-08-24 16:30:25.015954,United States,-80.4010083,37.2152422,
rising-silo-brewery,Rising Silo Brewery,brewpub,2351 Glade Rd,Blacksburg,Virginia,24060-1928,http://www.risingsilobrewery.com,5407500796,2018-07-24 01:34:26.674287,2018-08-24 16:30:29.551585,United States,-80.4630874,37.2361304,
bear-chase-brewing-company,Bear Chase Brewing Company,planning,,Bluemont,Virginia,20135,,,2018-07-24 01:34:24.349802,2018-08-11 21:40:02.350271,United States,,,
dirt-farm-brewing,Dirt Farm Brewing,brewpub,18701 Foggy Bottom Rd,Bluemont,Virginia,20135-1858,http://www.dirtfarmbrewing.com,5405542337,2018-07-24 01:34:25.11698,2018-08-11 21:40:04.740719,United States,,,
hammer-and-forge-brewing-company,Hammer & Forge Brewing Company,micro,70 Main Street,Boones Mill,Virginia,24064,http://www.hammerandforgebrewing.com,5406133913,2018-07-24 01:34:25.545314,2018-08-24 16:28:58.358802,United States,-79.9543862595471,37.115167300867,
old-trade-brewery,Old Trade Brewery,micro,13270 Alanthus Rd,Brandy Station,Virginia,22714-1905,http://www.oldtradebrewery.com,7742188645,2018-07-24 01:34:26.256535,2018-08-24 16:29:56.346553,United States,-77.910796,38.523145,
studio-brew,Studio Brew,brewpub,221 Moore St,Bristol,Virginia,24201-4302,http://www.studiobrew.beer,4233603258,2018-07-24 01:34:26.994861,2018-08-24 16:31:01.113455,United States,-82.1823137347038,36.5986280768857,
bristol-station-brews-and-taproom,Bristol Station Brews & Taproom,micro,41 Piedmont Ave,Bristol,Virginia,24201-4160,http://www.bristolbrew.com,2766081220,2018-07-24 01:34:24.783886,2018-08-24 16:27:54.339695,United States,-82.1842084967108,36.59629295,
the-farm-brewery-at-broad-run,The Farm Brewery At Broad Run,micro,16015 John Marshall Hwy,Broad Run,Virginia,20137-2250,http://www.thefarmatbroadrun.com,7037533548,2018-07-24 01:34:27.101612,2018-08-11 21:40:10.02621,United States,,,
staunton-river-brewing-company,Staunton River Brewing Company,micro,1571 Mount Calvary Rd,Brookneal,Virginia,24528-3156,http://www.stauntonriverbrewing.com,4343769463,2018-07-24 01:34:26.916812,2018-08-11 21:40:09.494517,United States,,,
chaos-mountain-brewing-llc,"Chaos Mountain Brewing, LLC",micro,3135 Dillons Mill Rd,Callaway,Virginia,24067-2615,http://www.chaosmountainbrewing.com,5403341600,2018-07-24 01:34:24.94917,2018-08-11 21:40:04.216359,United States,,,
cape-charles-brewing-company,Cape Charles Brewing Company,brewpub,2198 Stone Rd,Cape Charles,Virginia,23310-2706,http://www.capecharlesbrewing.com,7574494839,2018-07-24 01:34:24.872717,2018-08-24 16:28:05.291247,United States,-75.992111,37.269795,
great-american-restaurants-sweetwater-tavern,"Great American Restaurants, Sweetwater Tavern",brewpub,14250 Sweetwater Ln,Centreville,Virginia,20121-5336,http://www.greatamericanrestaurants.com,7034491100,2018-07-24 01:34:25.438676,2018-08-24 16:28:52.504476,United States,-77.4394649560166,38.8289854609612,
ono-brewing-company,Ono Brewing Company,micro,4520 Daly Dr Ste 102,Chantilly,Virginia,20151-3735,http://www.onobrewco.com,5714096662,2018-07-24 01:34:26.286001,2018-08-24 16:29:59.425651,United States,-77.4437006339208,38.8832787522685,
jurnee-brewing-company,Jurnee Brewing Company,planning,,Chantilly,Virginia,20152-2075,http://www.jurneebeers.com,,2018-07-24 01:34:25.790069,2018-08-11 21:40:06.26971,United States,,,
mustang-sally-brewing-co,Mustang Sally Brewing Co,micro,14140 Parke Long Ct # A-C,Chantilly,Virginia,20151-4009,http://www.msbrewing.com,7033787450,2018-07-24 01:34:26.092426,2018-08-11 21:40:07.079604,United States,,,
reason-beer,Reason Beer,micro,1180 Seminole Trl Ste 290,Charlottesville,Virginia,22901-5713,http://www.reasonbeer.com,4342494572,2018-07-24 01:34:26.507552,2018-08-24 16:30:18.922269,United States,-78.486033001597,38.0679283078808,
three-notchd-sour-house,Three Notch'd Sour House,micro,520 2nd St SE,Charlottesville,Virginia,22902-5794,http://threenotchdbrewing.com/,4349563141,2018-07-24 01:34:27.2124,2018-08-24 16:31:21.98087,United States,-78.4820248,38.0261159,
three-notchd-brewing-company,Three Notch'd Brewing Company,micro,520 2nd St SE,Charlottesville,Virginia,22902-5794,,,2018-07-24 01:34:27.182028,2018-08-24 16:31:18.943535,United States,-78.4820248,38.0261159,
hardywood-park-craft-brewery-charlottesville,Hardywood Park Craft Brewery-Charlottesville,micro,1000 W Main St,Charlottesville,Virginia,22903-3277,,4342343386,2018-07-24 01:34:25.573562,2018-08-24 16:28:59.86394,United States,-78.4950551111111,38.0325762323232,
random-row-brewing-co,Random Row Brewing Co.,micro,608 Preston Ave,Charlottesville,Virginia,22903-4566,http://www.randomrow.com,4342848466,2018-07-24 01:34:26.492521,2018-08-24 16:30:17.418399,United States,-78.4871203344393,38.03470505,
south-street-brewery,South Street Brewery,brewpub,106 W South St Ste 202,Charlottesville,Virginia,22902-3600,http://www.southstreetbrewery.com,4342936550,2018-07-24 01:34:26.848676,2018-08-11 21:40:09.310169,United States,,,
champion-brewing-company,Champion Brewing Company,micro,324 6th St SE,Charlottesville,Virginia,22902-5655,http://www.championbrewingcompany.com,4342952739,2018-07-24 01:34:24.93722,2018-08-24 16:28:09.908171,United States,-78.4784691,38.0277402,
big-ugly-brewing-co,Big Ugly Brewing Co,micro,1296 Battlefield Blvd S,Chesapeake,Virginia,23322-4378,http://www.biguglybrewing.com,7576092739,2018-07-24 01:34:24.473764,2018-08-24 16:27:34.09679,United States,-76.2284798857272,36.67862015,
black-narrows-brewing-company,Black Narrows Brewing Company,micro,4522 Chicken City Rd,Chincoteague,Virginia,23336-2303,http://www.blacknarrowsbrewing.com,7869994877,2018-07-24 01:34:24.549346,2018-08-24 16:27:41.883992,United States,-75.3621928101953,37.931256468446,
jack-masons-tavern-and-brewery,Jack Mason's Tavern and Brewery,brewpub,400 E Ridgeway St,Clifton Forge,Virginia,24422-1327,http://www.jackmasonstavern.com,5408625624,2018-07-24 01:34:25.749615,2018-08-24 16:29:13.299759,United States,-79.8274621767694,37.8150547905795,
pro-re-nata-brewery,Pro Re Nata Brewery,micro,6135 Rockfish Gap Tpke,Crozet,Virginia,22932-3325,http://www.prnbrewery.com,4348234878,2018-07-24 01:34:26.431831,2018-08-11 21:40:08.202224,United States,,,
starr-hill-brewery-llc,Starr Hill Brewery LLC,regional,5391 Three Notch D Rd,Crozet,Virginia,22932-3181,http://www.starrhill.com,4348235671,2018-07-24 01:34:26.89173,2018-08-11 21:40:09.427154,United States,,,
beer-hound-brewery,Beer Hound Brewery,contract,201 Waters Pl Apt 102,Culpeper,Virginia,22701-3102,,5403175327,2018-07-24 01:34:24.379044,2018-08-11 21:40:02.414075,United States,,,
far-gohn-brewing-company,Far Gohn Brewing Company,micro,301 S East St,Culpeper,Virginia,22701-3105,http://www.fargohnbrewing.com,5404232089,2018-07-24 01:34:25.242877,2018-08-11 21:40:05.103501,United States,,,
old-house-vineyards,Old House Vineyards,micro,18351 Corkys Ln,Culpeper,Virginia,22701,http://www.oldhousevineyards.com,5404231032,2018-07-24 01:34:26.22516,2018-08-11 21:40:07.506479,United States,,,
ballast-point-brewing-company,Ballast Point Brewing Company,large,555 International Pkwy,Daleville,Virginia,24083-3028,,5405913059,2018-07-24 01:34:24.253618,2018-08-24 16:27:17.475672,United States,-79.9138029795918,37.435756244898,
damascus-brewery,Damascus Brewery,micro,32173 Government Rd,Damascus,Virginia,24236-,http://www.thedamascusbrewery.com,2764691069,2018-07-24 01:34:25.077873,2018-08-24 16:28:22.182833,United States,-81.8025184109105,36.6397335634947,
ballad-brewing,Ballad Brewing,micro,600 Craghead St,Danville,Virginia,24541-1504,http://www.balladbrewing.com,8049250109,2018-07-24 01:34:24.241291,2018-08-24 16:27:15.838765,United States,-79.386371,36.584786,
2-witches-winery-and-brewing-company,2 Witches Winery and Brewing Company,micro,209 Trade St,Danville,Virginia,24541-3545,http://www.2witcheswinebrew.com,4345492739,2018-07-24 01:34:23.90816,2018-08-24 16:26:47.616314,United States,-79.4212555321536,36.5859034854422,
barrel-oak-farm-taphouse,Barrel Oak Farm Taphouse,micro,3623 Grove Ln,Delaplane,Virginia,20144-2226,http://www.barreloak.com,5403646402,2018-07-24 01:34:24.298072,2018-08-11 21:40:02.210386,United States,,,
ocelot-brewing-co,Ocelot Brewing Co,micro,23600 Overland Dr Ste 180,Dulles,Virginia,20166-4441,http://www.ocelotbrewing.com,7036652146,2018-07-24 01:34:26.17196,2018-08-11 21:40:07.35451,United States,,,
solace-brewing-company,Solace Brewing Company,micro,42615 Trade West Dr Ste 100,Dulles,Virginia,20166-2259,http://www.solacebrewing.com,7033455630,2018-07-24 01:34:26.835208,2018-08-11 21:40:09.228573,United States,,,
swover-creek-farm-brewery,Swover Creek Farm Brewery,micro,4176 Swover Creek Rd,Edinburg,Virginia,22824-3744,http://www.swovercreekfarms.com,5409848973,2018-07-24 01:34:27.034571,2018-08-11 21:40:09.79487,United States,,,
millercoors-brewing-co-shenandoah-facility,MillerCoors Brewing Co - Shenandoah Facility,large,5135 South East Side Hwy,Elkton,Virginia,22827-3469,http://www.coors.com,5402898201,2018-07-24 01:34:26.02406,2018-08-24 16:29:37.27003,United States,-78.6823961495169,38.3577797518989,
brewery-in-planning-fairfax,Brewery In Planning - Fairfax,planning,,Fairfax,Virginia,22030,,,2018-07-24 01:34:24.666791,2018-08-11 21:40:03.202508,United States,,,
chubby-squirrel-brewing-company,Chubby Squirrel Brewing Company,brewpub,10382 Willard Way,Fairfax,Virginia,22030-2508,http://www.chubbysquirrelbrewing.com,5405588040,2018-07-24 01:34:24.961452,2018-08-24 16:28:12.827563,United States,-77.3020155663708,38.848189413853,
river-company-restaurant-and-brewery-inc-the,"River Company Restaurant & Brewery Inc, The",brewpub,6633 Viscoe Rd,Fairlawn,Virginia,24141-6903,http://www.therivercompanybrewery.com,5406333940,2018-07-24 01:34:26.688099,2018-08-24 16:30:30.993501,United States,-80.5449801502198,37.1460358,
audacious-aleworks,Audacious Aleworks,micro,110 E Fairfax St,Falls Church,Virginia,22046,,,2018-07-24 01:34:24.074924,2018-08-24 16:27:05.407781,United States,-77.1723435909091,38.8807648181818,
great-american-restaurants-sweetwater-tavern,"Great American Restaurants, Sweetwater Tavern",brewpub,3066 Gate House Plz,Falls Church,Virginia,22042-1028,http://www.greatamericanrestaurants.com,7036458100,2018-07-24 01:34:25.455188,2018-08-11 21:40:05.479098,United States,,,
mad-fox-brewing-co,Mad Fox Brewing Co,brewpub,444 W Broad St Ste I,Falls Church,Virginia,22046-3362,http://www.madfoxbrewing.com,7039426840,2018-07-24 01:34:25.970814,2018-08-11 21:40:06.707453,United States,,,
buffalo-mountain-brewery,Buffalo Mountain Brewery,micro,332 Webbs Mill Rd N,Floyd,Virginia,24091,,,2018-07-24 01:34:24.809733,2018-08-24 16:27:57.375494,United States,-80.3246258203848,36.9207956290998,
apocalypse-ale-works,Apocalypse Ale Works,micro,1257 Burnbridge Rd,Forest,Virginia,24551-3803,http://www.apocalypsebrewworks.com,4342588761,2018-07-24 01:34:24.03538,2018-08-24 16:27:00.94075,United States,-79.2891789878175,37.3630212377705,
the-oozlefinch-craft-brewery,The Oozlefinch Craft Brewery,micro,81 Patch Rd,Fort Monroe,Virginia,23651-1052,http://www.oozlefinchbeers.com,7572247042,2018-07-24 01:34:27.113989,2018-08-11 21:40:10.067663,United States,,,
6-bears-and-a-goat-brewing-company-llc,"6 Bears & A Goat Brewing Company, LLC",brewpub,1140 International Pkwy,Fredericksburg,Virginia,22406-1126,http://www.6bgbrewingco.com,54035690562,2018-07-24 01:34:23.922246,2018-08-11 21:40:01.250903,United States,,,
adventure-brewing-co,Adventure Brewing Co,micro,33 Perchwood Dr Ste 101,Fredericksburg,Virginia,22405-4552,http://www.adventurebrewing.com,5402428876,2018-07-24 01:34:23.95071,2018-08-11 21:40:01.322939,United States,,,
adventure-south,Adventure South,brewpub,3300 Dill Smith Dr,Fredericksburg,Virginia,22408-7319,http://www.adventurebrewing.com,5403717799,2018-07-24 01:34:23.965001,2018-08-11 21:40:01.353754,United States,,,
battlefield-brewing-co,Battlefield Brewing Co,brewpub,4187 Plank Rd,Fredericksburg,Virginia,22407-4896,,5407852164,2018-07-24 01:34:24.32386,2018-08-11 21:40:02.273855,United States,,,
highmark-brewery,Highmark Brewery,micro,390 Kings Hwy,Fredericksburg,Virginia,22405-3245,http://www.highmarkbrewery.com,7633007575,2018-07-24 01:34:25.638677,2018-08-24 16:29:05.769036,United States,-77.4551104,38.3053991,
maltese-brewing-company,Maltese Brewing Company,micro,11047 Pierson Dr Ste B,Fredericksburg,Virginia,22408-2062,http://www.maltesebrewing.com,5406424512,2018-07-24 01:34:25.996957,2018-08-11 21:40:06.771785,United States,,,
red-dragon-brewery,Red Dragon Brewery,micro,1419 Princess Anne St,Fredericksburg,Virginia,22401-3638,http://www.reddragonbrewery.com,,2018-07-24 01:34:26.538357,2018-08-24 16:30:20.39722,United States,-77.4631213673469,38.3073792653061,
spencer-devon-brewing,Spencer Devon Brewing,brewpub,106 George St,Fredericksburg,Virginia,22401-5863,http://www.spencerdevonbrewing.com,5404798381,2018-07-24 01:34:26.861137,2018-08-24 16:30:47.419903,United States,-77.4587704034307,38.3027252276766,
strangeways-brewing-fxbg,Strangeways Brewing - FXBG,micro,350 Lansdowne Rd,Fredericksburg,Virginia,22401-7351,,8043034336,2018-07-24 01:34:26.969314,2018-08-24 16:30:58.143277,United States,-77.4562531619945,38.27297555,
front-royal-brewing-company-llc,"Front Royal Brewing Company, LLC",brewpub,122 E Main St,Front Royal,Virginia,22630-3337,http://www.frontroyalbrewing.com,5403610773,2018-07-24 01:34:25.342873,2018-08-24 16:28:44.874314,United States,-78.1919964128219,38.9180285,
tin-cannon-brewing-company,Tin Cannon Brewing Company,micro,7679 Limestone Dr Ste 130,Gainesville,Virginia,20155-4041,http://www.tincannonbrewing.com,5712480489,2018-07-24 01:34:27.240174,2018-08-11 21:40:10.351817,United States,,,
creek-bottom-brewing,Creek Bottom Brewing,brewpub,307 N Meadow St,Galax,Virginia,24333-3019,http://www.creekbottombrewing.com,2762362337,2018-07-24 01:34:25.053012,2018-08-24 16:28:18.943896,United States,-80.9209447114584,36.6670863573391,
richbrau-brewing-company,Richbrau Brewing Company,planning,,Glen Allen,Virginia,23060-6444,http://www.richbraubrewing.com,,2018-07-24 01:34:26.585931,2018-08-11 21:40:08.600713,United States,,,
gloucester-brewing-company,Gloucester Brewing Company,planning,,Gloucester,Virginia,23061,,,2018-07-24 01:34:25.375135,2018-08-11 21:40:05.313877,United States,,,
lickinghole-creek-craft-brewery,Lickinghole Creek Craft Brewery,micro,4100 Knolls Point Dr,Goochland,Virginia,23063-2858,http://www.lickingholecreek.com,8043148717,2018-07-24 01:34:25.866813,2018-08-24 16:29:23.691659,United States,-78.0036966,37.7404672,
white-rock-vineyards-and-winery,White Rock Vineyards & Winery,micro,2117 Bruno Dr,Goodview,Virginia,24095-2974,http://www.whiterockwines.com,5408903359,2018-07-24 01:34:27.483551,2018-08-24 16:31:44.656274,United States,-79.707972306195,37.2314528897223,
bull-island-brewing-company,Bull Island Brewing Company,brewpub,758 Settlers Landing Rd,Hampton,Virginia,23669-4035,http://www.bullislandbrewing.com,7577889489,2018-07-24 01:34:24.834478,2018-08-24 16:28:00.661896,United States,-76.3420654545455,37.0248734545455,
capstan-bar-brewing-company,Capstan Bar Brewing Company,micro,2036 Exploration Way,Hampton,Virginia,23666-6260,http://www.capstanbarbrewing.com,7577887276,2018-07-24 01:34:24.885347,2018-08-24 16:28:06.950503,United States,-76.3994756,37.082339,
the-st-george-brewing-company,The St. George Brewing Company,micro,204 Challenger Way,Hampton,Virginia,23666-1365,http://www.stgbeer.com,7578657781,2018-07-24 01:34:27.126872,2018-08-24 16:31:13.023916,United States,-76.3944219405428,37.09992525,
the-vanguard-brewpub-and-distillery,The Vanguard Brewpub & Distillery,brewpub,504 N King St,Hampton,Virginia,23669-3057,http://www.thevanguard757.com,7576408100,2018-07-24 01:34:27.141198,2018-08-24 16:31:14.481786,United States,-76.3453830398701,37.03124955,
sunken-city-brewing-co,Sunken City Brewing Co,micro,40 Brewery Dr,Hardy,Virginia,24101-1100,http://www.sunkencitybeer.com,5404200476,2018-07-24 01:34:27.021136,2018-08-11 21:40:09.753811,United States,,,
restless-moons-brewing,Restless Moons Brewing,micro,120 W Wolfe St,Harrisonburg,Virginia,22802-3815,http://www.restlessmoons.com,5402172726,2018-07-24 01:34:26.568426,2018-08-24 16:30:23.497352,United States,-78.870847259293,38.4518952234726,
brothers-craft-brewing,Brothers Craft Brewing,micro,800 N Main St,Harrisonburg,Virginia,22802-4625,http://www.brotherscraftbrewing.com,5404216599,2018-07-24 01:34:24.796819,2018-08-24 16:27:55.867656,United States,-78.861099,38.45757,
three-notchd-valley-collab-house,Three Notch'd Valley Collab House,micro,241 E Market St,Harrisonburg,Virginia,22801,,4342930610,2018-07-24 01:34:27.227569,2018-08-24 16:31:23.49724,United States,-78.8654965,38.4487621,
pale-fire-brewing-co,Pale Fire Brewing Co,micro,217 S Liberty St Ste 105,Harrisonburg,Virginia,22801-3675,http://www.palefirebrewing.com,5402175452,2018-07-24 01:34:26.318093,2018-08-11 21:40:07.864275,United States,,,
final-gravity-brewing-co,Final Gravity Brewing Co.,micro,6118 Lakeside Ave,"Henrico ",Virginia,23228,,8042644808,2018-07-24 01:34:25.259314,2018-08-24 16:28:38.892632,United States,-77.4693347602041,37.611455494898,
aslin-beer-company,Aslin Beer Company,micro,257 Sunset Park Dr.,Herndon,Virginia,20170,http://www.aslinbeer.com,7037875766,2018-07-24 01:34:24.062323,2018-08-11 21:40:01.715766,United States,,,
griffin-owens-insurance-group,Griffin Owens Insurance Group,planning,,Herndon,Virginia,20170-4609,http://www.griffinowens.com,7034710050,2018-07-24 01:34:25.501639,2018-08-11 21:40:05.570529,United States,,,
brewery-in-planning-colonial-beach,Brewery In Planning - Colonial Beach,planning,,King George,Virginia,22485-8503,http://www.fifthhumourbrewing.com,6024638590,2018-07-24 01:34:24.654494,2018-08-11 21:40:03.154197,United States,,,
waters-end-brewery,Water's End Brewery,micro,12425 Dillingham Sq,Lake Ridge,Virginia,22192-5252,http://watersendbrewery.com,5409075689,2018-07-24 01:34:27.432384,2018-08-24 16:31:41.651884,United States,-77.3179100711535,38.6847496694963,
phase-2-brewing,Phase 2 Brewing,brewpub,19382 Diamond Lake Drive,Lansdowne,Virginia,20176,http://www.phase2brewing.com,5409870219,2018-07-24 01:34:26.364565,2018-08-24 16:30:05.376503,United States,-77.4939698,39.0808996,
lonesome-pine-brewing-co,Lonesome Pine Brewing Co.,micro,12262 US Highway 19,Lebanon,Virginia,24266,http://www.lonesomepinebrewing.com,2762743697,2018-07-24 01:34:25.892957,2018-08-11 21:40:06.516803,United States,,,
loudoun-brewing-co,Loudoun Brewing Co,micro,310 E Market St,Leesburg,Virginia,20176-4101,http://www.loudounbrewing.com,5712236097,2018-07-24 01:34:25.945388,2018-08-24 16:29:31.276306,United States,-77.532576,39.09743,
bike-trale-brewing,Bike TrAle Brewing,micro,101 Loudoun St SE,Leesburg,Virginia,20175-3106,http://www.BikeTrAleBrewing.com,5712930050,2018-07-24 01:34:24.486785,2018-08-24 16:27:35.587664,United States,-77.562422,39.113418,
dog-money-restaurant,Dog Money Restaurant,brewpub,50 Catoctin Cir NE STE 100,Leesburg,Virginia,20176-3102,http://dogmoneyllc.com,7035775452,2018-07-24 01:34:25.129925,2018-08-11 21:40:04.779335,United States,,,
bird-brain-brewing-company,Bird Brain Brewing Company,contract,435 Nikki Ter SE,Leesburg,Virginia,20175-8962,,,2018-07-24 01:34:24.523262,2018-08-24 16:27:38.792083,United States,-77.5434836756757,39.0938948918919,
black-hoof-brewing,Black Hoof Brewing,micro,11 S King St,Leesburg,Virginia,20175-2903,,5717078014,2018-07-24 01:34:24.536546,2018-08-24 16:27:40.395787,United States,-77.5648925,39.1150351,
black-walnut-brewery,Black Walnut Brewery,micro,210 S King St,Leesburg,Virginia,20175-3010,,7037719474,2018-07-24 01:34:24.561898,2018-08-24 16:27:43.431211,United States,-77.5649731,39.1127558,
crooked-run-brewing,Crooked Run Brewing,micro,205 Harrison St SE,Leesburg,Virginia,20175-3702,http://crookedrunbrewing.com,5713752652,2018-07-24 01:34:25.065619,2018-08-24 16:28:20.525081,United States,-77.5628708468129,39.1122678111719,
vanish-farmwoods-brewery,Vanish Farmwoods Brewery,brewpub,42245  Black Hops Ln,Leesburg,Virginia,20176-5498,http://vanishbeer.com,7037797407,2018-07-24 01:34:27.376381,2018-08-11 21:40:10.665693,United States,,,
barnhouse-brewery,Barnhouse Brewery,brewpub,43271 Spinks Ferry Rd,Leesburg,Virginia,20176-5629,http://www.barnhousebrewery.com,7036758480,2018-07-24 01:34:24.284055,2018-08-11 21:40:02.154571,United States,,,
mud-hound-brewing-co-/-macdowell-brew-kitchen,Mud Hound Brewing Co / MacDowell Brew Kitchen,brewpub,202B Harrison St SE,Leesburg,Virginia,20175-3701,http://www.macdowellbrewkitchen.com,7037772739,2018-07-24 01:34:26.078473,2018-08-24 16:29:43.114174,United States,-77.5626697770785,39.112216088058,
devils-backbone-brewing-co-outpost-production-facility,Devils Backbone Brewing Co - Outpost Production Facility,large,50 Northwind Ln,Lexington,Virginia,24450-3303,http://www.dbbrewingcompany.com,4343611001,2018-07-24 01:34:25.104891,2018-08-11 21:40:04.707548,United States,,,
fair-winds-brewing-company,Fair Winds Brewing Company,micro,7000 Newington Rd Ste K& # L,Lorton,Virginia,22079-1133,http://www.fairwindsbrewing.com,7033722001,2018-07-24 01:34:25.229261,2018-08-11 21:40:05.073237,United States,,,
forge-brew-works,Forge Brew Works,brewpub,8532 Terminal Rd Ste M,Lorton,Virginia,22079-1428,http://www.forgebrewworks.com,7033722979,2018-07-24 01:34:25.326148,2018-08-11 21:40:05.22837,United States,,,
guanacaste-brewing-llc,Guanacaste Brewing LLC,planning,,Lorton,Virginia,22079,http://www.guanacastebrewingllc.com,7038537687,2018-07-24 01:34:25.531576,2018-08-11 21:40:05.634438,United States,,,
louisa-brewing-llc,"Louisa Brewing, LLC",planning,,Louisa,Virginia,23093-5715,http://www.louisabrewing.com,5409674873,2018-07-24 01:34:25.957987,2018-08-11 21:40:06.666731,United States,,,
wood-ridge-farm-brewery,Wood Ridge Farm Brewery,micro,151 Old Ridge Rd,Lovingston,Virginia,22949-2550,,4344226225,2018-07-24 01:34:27.534824,2018-08-11 21:40:11.002863,United States,,,
hawksbill-brewing-company,Hawksbill Brewing Company,micro,22 Zerkel St,Luray,Virginia,22835-1913,http://www.hawksbillbrewing.com,5408605608,2018-07-24 01:34:25.599391,2018-08-24 16:29:02.826863,United States,-78.4597004474807,38.6633577355226,
bald-top-brewing-company,Bald Top Brewing Company,micro,1830 Thrift Rd,Madison,Virginia,22727-2843,http://www.baldtopbrewing.com,5409991830,2018-07-24 01:34:24.229059,2018-08-24 16:27:14.313133,United States,-78.2625296,38.3772921,
eavesdrop-brewery,Eavesdrop Brewery,micro,7223 Centreville Rd Ste 115,Manassas,Virginia,20111,http://www.eavesdropbrewery.com,7034208955,2018-07-24 01:34:25.177872,2018-08-24 16:28:31.194946,United States,-77.469,38.752531,
2-silos-brewing-company,2 Silos Brewing Company,micro,9925 Discovery Blvd,Manassas,Virginia,20109,http://www.2silosbrewing.com,7034202257,2018-07-24 01:34:23.895591,2018-08-11 21:40:01.159355,United States,,,
badwolf-brewing-company,BadWolf Brewing Company,micro,8420 Kao Cir,Manassas,Virginia,20110-1728,http://www.badwolfbrewingcompany.com,7034792305,2018-07-24 01:34:24.203837,2018-08-11 21:40:01.886466,United States,,,
badwolf-brewing-company,BadWolf Brewing Company,micro,9776 Center St,Manassas,Virginia,20110-4128,http://www.badwolfbrewingcompany.com,5713589774,2018-07-24 01:34:24.21647,2018-08-24 16:27:12.840725,United States,-77.4897205105518,38.7535618329234,
heritage-brewing-co,Heritage Brewing Co,micro,9436 Center Point Ln,Manassas,Virginia,20110-1810,http://www.heritagebrews.com,5712081355,2018-07-24 01:34:25.612332,2018-08-24 16:29:04.311672,United States,-77.4884147646695,38.750750828148,
sinistral-brewing-company,Sinistral Brewing Company,micro,9419 Main St,Manassas,Virginia,20110,http://www.sinistralbrewingcompany.com,7036864575,2018-07-24 01:34:26.758453,2018-08-24 16:30:38.454107,United States,-77.471427,38.7509952173913,
tucked-away-brewing,Tucked Away Brewing,planning,,Manassas,Virginia,22010,,9373712176,2018-07-24 01:34:27.308777,2018-08-11 21:40:10.508861,United States,,,
woodbine-farm-brewery,Woodbine Farm Brewery,planning,,Manassas,Virginia,20112,http://Woodbinefarmandbrewery.com,5712057460,2018-07-24 01:34:27.548546,2018-08-11 21:40:11.03254,United States,,,
public-house-kitchen-and-brewery,Public House Kitchen and Brewery,brewpub,9406 Battle St,Manassas,Virginia,20110-5431,http://www.badwolfpublichouse.com,5712921427,2018-07-24 01:34:26.449765,2018-08-24 16:30:13.010226,United States,-77.4726206,38.7513396,
dragon-run-brewing,Dragon Run Brewing,planning,,Manquin,Virginia,23106,http://www.dragonrunbrewing.com,8043800730,2018-07-24 01:34:25.153837,2018-08-11 21:40:04.841506,United States,,,
brewery-in-planning-marion,Brewery In Planning - Marion,planning,,Marion,Virginia,24354-2210,,,2018-07-24 01:34:24.690902,2018-08-11 21:40:03.241357,United States,,,
brewery-in-planning-arlington,Brewery In Planning - Arlington,planning,,Mc Lean,Virginia,22101-5337,,,2018-07-24 01:34:24.640295,2018-08-11 21:40:03.113467,United States,,,
gordon-biersch-brewery-restaurant-tysons-corner,Gordon Biersch Brewery Restaurant - Tysons Corner,brewpub,7861 Tysons Corner Center,Mc Lean,Virginia,22102-4515,http://www.craftworksrestaurants.com,7033885454,2018-07-24 01:34:25.389919,2018-08-11 21:40:05.346535,United States,,,
hops-and-pops,Hops and Pops,planning,,Middleburg,Virginia,20117,,5406876539,2018-07-24 01:34:25.698144,2018-08-11 21:40:06.04698,United States,,,
backroom-brewery,Backroom Brewery,brewpub,150 Ridgemont Rd,Middletown,Virginia,22645-3817,http://www.backroombreweryva.com,5408698482,2018-07-24 01:34:24.190901,2018-08-11 21:40:01.844845,United States,,,
extra-billys-brewery-and-smokehouse,Extra Billys Brewery and Smokehouse,brewpub,1110 Alverser Dr,Midlothian,Virginia,23113-2654,http://www.extrabillys.com,8043798727,2018-07-24 01:34:25.216383,2018-08-11 21:40:05.014426,United States,,,
steam-bell-beer-works,Steam Bell Beer Works,micro,1717 Oak Lake Blvd E,Midlothian,Virginia,23112-3995,http://www.steambell.beer,8047281876,2018-07-24 01:34:26.929494,2018-08-11 21:40:09.529082,United States,,,
cooling-pond-brewery,Cooling Pond Brewery,planning,,Mineral,Virginia,23117,,5409055430,2018-07-24 01:34:24.998721,2018-08-11 21:40:04.437321,United States,,,
montross-brewery,Montross Brewery,micro,15381 Kings Hwy,Montross,Virginia,22520-2746,http://www.montrossbrewery.com,8044527394,2018-07-24 01:34:26.050148,2018-08-24 16:29:40.149868,United States,-76.8321653897879,38.0926918703604,
right-turn-clyde-brewing-company,"Right Turn, Clyde Brewing Company",micro,300 Main St,Narrows,Virginia,24124-1317,http://www.rtcbrewing.com,5409217283,2018-07-24 01:34:26.644812,2018-08-24 16:30:26.565492,United States,-80.807605,37.330026,
great-valley-farm-brewery,Great Valley Farm Brewery,micro,60 Great Valley Ln,Natural Bridge,Virginia,24578-1100,http://greatvalleyfarmbrewery.com,5405216163,2018-07-24 01:34:25.47025,2018-08-11 21:40:05.510706,United States,,,
wild-wolf-brewing-co,Wild Wolf Brewing Co,micro,2461 Rockfish Valley Hwy,Nellysford,Virginia,22958-2306,http://www.wildwolfbeer.com,4343610088,2018-07-24 01:34:27.496656,2018-08-11 21:40:10.913137,United States,,,
tradition-brewing-company,Tradition Brewing Company,micro,700 Thimble Shoals Blvd Ste 103,Newport News,Virginia,23606-4532,http://www.traditionbrewing.com,7575929393,2018-07-24 01:34:27.256571,2018-08-24 16:31:26.502918,United States,-76.4770317,37.0845471,
cedar-run-brewery,Cedar Run Brewery,planning,,Nokesville,Virginia,20181-2506,,7032032641,2018-07-24 01:34:24.91083,2018-08-11 21:40:04.087495,United States,,,
benchtop-brewing-company,Benchtop Brewing Company,micro,1129 Boissevain Ave,Norfolk,Virginia,23507-1401,http://www.benchtopbrewing.com,7573219482,2018-07-24 01:34:24.434918,2018-08-24 16:27:30.947454,United States,-76.307422449495,36.8649338939394,
coelacanth-brewing,Coelacanth Brewing,micro,760A W 22nd St,Norfolk,Virginia,23517-1925,http://www.coelacanth.com,7573836438,2018-07-24 01:34:24.9737,2018-08-24 16:28:14.451788,United States,-76.2956129193982,36.8716997746987,
elation-brewing,Elation Brewing,planning,,Norfolk,Virginia,23508,,7574696020,2018-07-24 01:34:25.191179,2018-08-11 21:40:04.935342,United States,,,
makers-craft-brewery,Makers Craft Brewery,planning,,Norfolk,Virginia,23504-1905,http://www.makers.beer,7576249024,2018-07-24 01:34:25.984301,2018-08-11 21:40:06.741292,United States,,,
ocean-view-community-brewing-co,Ocean View Community Brewing Co.,planning,,Norfolk,Virginia,23503-4838,,7576514170,2018-07-24 01:34:26.158104,2018-08-11 21:40:07.315742,United States,,,
oconnor-brewing-co,O'Connor Brewing Co,micro,211 W 24th St,Norfolk,Virginia,23517-1303,http://www.oconnorbrewing.com,7576520059,2018-07-24 01:34:26.18564,2018-08-24 16:29:50.532896,United States,-76.2862508804195,36.8697822,
rip-rap-brewing-company,Rip Rap Brewing Company,micro,116 E 25th St,Norfolk,Virginia,23517-1408,http://www.riprapbrewing.com,,2018-07-24 01:34:26.658543,2018-08-24 16:30:28.075692,United States,-76.2831093683924,36.8703271,
the-bold-mariner-brewing-company,The Bold Mariner Brewing Company,micro,2409 Bowdens Ferry Rd,Norfolk,Virginia,23508-2450,http://www.boldmariner.com,,2018-07-24 01:34:27.075418,2018-08-24 16:31:08.622899,United States,-76.3054279275104,36.87609575,
smartmouth-brewing-co,Smartmouth Brewing Co,micro,1309 Raleigh Ave Ste A,Norfolk,Virginia,23507-1367,http://www.smartmouthbrewing.com,7576243939,2018-07-24 01:34:26.786017,2018-08-11 21:40:09.050025,United States,,,
ammo-brewing,Ammo Brewing,micro,235 N Market St,Petersburg,Virginia,23803-3207,http://www.ammobrewing.com,8047221667,2018-07-24 01:34:24.009342,2018-08-24 16:26:57.98601,United States,-77.407177,37.230765,
trapezium-brewing-company,Trapezium Brewing Company,brewpub,423 3rd St,Petersburg,Virginia,23803-,http://www.trapeziumbrewing.com,8046775728,2018-07-24 01:34:27.270234,2018-08-24 16:31:28.002984,United States,-77.4014401020408,37.2334866326531,
straight-shot-brewing,Straight Shot Brewing,planning,,Poquoson,Virginia,23662-0000,,,2018-07-24 01:34:26.956515,2018-08-11 21:40:09.583733,United States,,,
legend-brewing-co,Legend Brewing Co,brewpub,1 High St,Portsmouth,Virginia,23704-3814,,8042328871,2018-07-24 01:34:25.854035,2018-08-24 16:29:22.127052,United States,-76.2966634213108,36.83482035,
momac-brewing-company,MoMac Brewing Company,micro,3228 Academy Ave,Portsmouth,Virginia,23703-3203,http://www.momacbrewing.com,7573839572,2018-07-24 01:34:26.03671,2018-08-24 16:29:38.711189,United States,-76.3975914060349,36.862579338221,
fine-creek-brewing-company,Fine Creek Brewing Company,brewpub,2425 Robert E Lee Rd,Powhatan,Virginia,23139-4411,http://www.finecreekbrewing.com,,2018-07-24 01:34:25.275744,2018-08-24 16:28:40.354619,United States,-77.8176130455157,37.5979399970827,
belly-love-brewing-company,Belly Love Brewing Company,brewpub,725 E Main St,Purcellville,Virginia,20132-3178,http://www.bellylovebrewing.com,5404413159,2018-07-24 01:34:24.396851,2018-08-24 16:27:27.910048,United States,-77.7015903,39.1364247,
jacks-run-brewing-co,Jack's Run Brewing Co,micro,108 North 21st Street,Purcellville,Virginia,20132,http://www.jacksrunbrewing.com,5404413382,2018-07-24 01:34:25.762661,2018-08-24 16:29:14.790817,United States,-77.7149118539252,39.13704895,
adroit-theory-brewing-company,Adroit Theory Brewing Company,micro,404 Browning Ct Unit C,Purcellville,Virginia,20132-6171,http://www.adroit-theory.com,7034340553,2018-07-24 01:34:23.935541,2018-08-11 21:40:01.279144,United States,,,
dragon-hops-brewing,Dragon Hops Brewing,micro,130 E Main St,Purcellville,Virginia,20132-3162,http://www.dragonhopsbrewing.com,5404413279,2018-07-24 01:34:25.141893,2018-08-24 16:28:29.597849,United States,-77.69298485,39.1360524,
hillsborough-farm-brewery-/-hillsborough-vineyards,Hillsborough Farm Brewery / Hillsborough Vineyards,planning,,Purcellville,Virginia,20132,,,2018-07-24 01:34:25.65434,2018-08-11 21:40:05.934342,United States,,,
old-690-brewing-co,Old 690 Brewing Co,brewpub,15670 Ashbury Church Rd,Purcellville,Virginia,20132-2817,http://www.old690.com,5406687023,2018-07-24 01:34:26.198951,2018-08-11 21:40:07.42493,United States,,,
corcoran-brewing,Corcoran Brewing,micro,205 Hirst Rd Ste 105,Purcellville,Virginia,20132-6199,http://www.corcoranbrewing.com,5408829073,2018-07-24 01:34:25.040376,2018-08-24 16:28:17.408081,United States,-77.713655866898,39.1439069257241,
long-way-brewing,Long Way Brewing,planning,,Radford,Virginia,24141-1403,,,2018-07-24 01:34:25.905835,2018-08-11 21:40:06.544435,United States,,,
lake-anne-brew-house,Lake Anne Brew House,micro,11424 Washington Plz W,Reston,Virginia,20190-4310,http://www.lakeannebrewhouse.com,5717582739,2018-07-24 01:34:25.828708,2018-08-24 16:29:19.183917,United States,-77.3411707,38.9682812,
triple-crossing-brewing-company,Triple Crossing Brewing Company,micro,113 S. Foushee St.,Richmond,Virginia,23220-5616,http://www.triplecrossingbeer.com,8043991780,2018-07-24 01:34:27.296328,2018-08-24 16:31:31.017268,United States,-77.4455177,37.5415927,
ardent-craft-ales,Ardent Craft Ales,micro,3200 W Leigh St,Richmond,Virginia,23230-4410,http://www.ardentcraftales.com,8043591605,2018-07-24 01:34:24.048876,2018-08-24 16:27:02.436257,United States,-77.4720123714015,37.5684425,
bingo-beer-company,Bingo Beer Company,planning,,Richmond,Virginia,23230,,8043975226,2018-07-24 01:34:24.51116,2018-08-11 21:40:02.735607,United States,,,
brewery-in-planning-richmond,Brewery In Planning - Richmond,planning,,Richmond,Virginia,23220-3905,,,2018-07-24 01:34:24.703241,2018-08-11 21:40:03.294571,United States,,,
brewery-in-planning-richmond,Brewery in Planning - Richmond,planning,,Richmond,Virginia,23226-3821,,2769201796,2018-07-24 01:34:24.715513,2018-08-11 21:40:03.331009,United States,,,
castleburg-brewery,Castleburg Brewery,micro,1626 Ownby Ln,Richmond,Virginia,23220-1317,http://www.castleburgbrewery.com,8043531256,2018-07-24 01:34:24.897826,2018-08-11 21:40:04.049204,United States,,,
canon-and-draw-brewing-company,Canon & Draw Brewing Company,micro,1527 W Main St,Richmond,Virginia,23220,http://www.canonanddraw.beer,,2018-07-24 01:34:24.860002,2018-08-24 16:28:03.784156,United States,-77.4601285398759,37.5470789674866,
hardywood-park-craft-brewery,Hardywood Park Craft Brewery,micro,2408 Ownby Ln,Richmond,Virginia,23220-1319,http://www.hardywood.com,8044202420,2018-07-24 01:34:25.560333,2018-08-11 21:40:05.712483,United States,,,
hardywood-west-creek,Hardywood West Creek,micro,820 Sanctuary Trail Dr,Richmond,Virginia,23238,,8044183548,2018-07-24 01:34:25.586599,2018-08-11 21:40:05.774074,United States,,,
garden-grove-brewing-company,Garden Grove Brewing Company,micro,3445 W Cary St,Richmond,Virginia,23221-2726,http://www.gardengrovebrewing.com,8043386029,2018-07-24 01:34:25.359058,2018-08-24 16:28:46.436847,United States,-77.4859799936413,37.5549502169569,
isley-brewing-company,Isley Brewing Company,micro,1715 Summit Ave,Richmond,Virginia,23230-4515,http://www.isleybrewingcompany.com,8047162132,2018-07-24 01:34:25.736009,2018-08-24 16:29:11.819975,United States,-77.4683863143995,37.56890085,
legend-brewing-co,Legend Brewing Co,micro,321 W 7th St,Richmond,Virginia,23224-2307,http://www.legendbrewing.com,8042328871,2018-07-24 01:34:25.841433,2018-08-24 16:29:20.655644,United States,-77.4429749,37.5266924,
rock-bottom-brewery-short-pump,Rock Bottom Brewery -Short Pump,brewpub,11800 W Broad St Ste 2098,Richmond,Virginia,23233-7909,,8042371684,2018-07-24 01:34:26.702367,2018-08-11 21:40:08.803343,United States,,,
strangeways-brewing-rva,Strangeways Brewing - RVA,micro,2277 Dabney Rd Ste A,Richmond,Virginia,23230-3335,http://strangewaysbrewing.com/,8043034336,2018-07-24 01:34:26.982099,2018-08-11 21:40:09.642212,United States,,,
tabol-brewing,Tabol Brewing,planning,,Richmond,Virginia,23222,,,2018-07-24 01:34:27.046795,2018-08-11 21:40:09.838464,United States,,,
stone-brewing-co-richmond,Stone Brewing Co- Richmond,regional,4300 Williamsburg Ave,Richmond,Virginia,23231-1225,,8044895902,2018-07-24 01:34:26.94398,2018-08-24 16:30:56.555853,United States,-77.414763,37.5241103,
the-answer-brewpub,The Answer Brewpub,brewpub,6008 W Broad St,Richmond,Virginia,23230-2222,http://www.theanswerbrewpub.com,8042821248,2018-07-24 01:34:27.059517,2018-08-24 16:31:07.151604,United States,-77.5070979,37.5931962,
the-veil-brewing-company,The Veil Brewing Company,micro,1301 Roseneath Rd,Richmond,Virginia,23230-4623,http://www.theveilbrewing.com,,2018-07-24 01:34:27.156712,2018-08-24 16:31:15.986969,United States,-77.4753435005256,37.56830695,
triple-crossing-brewing-company,Triple Crossing Brewing Company,brewpub,5203 Hatcher St,Richmond,Virginia,23231-3199,http://www.triplecrossingbeer.com,8044951955,2018-07-24 01:34:27.283392,2018-08-24 16:31:29.520081,United States,-77.4075256686717,37.5129619428572,
twisted-ales-craft-brewing-co,Twisted Ales Craft Brewing Co.,micro,212 W 6th St,Richmond,Virginia,23224-2349,http://www.twistedales.com,8042309439,2018-07-24 01:34:27.350075,2018-08-24 16:31:35.71311,United States,-77.4420409,37.5259842,
vasen-brewing-company,Vasen Brewing Company,micro,3331 Moore St,Richmond,Virginia,23230-4423,http://www.vasenbrewing.com,8045885678,2018-07-24 01:34:27.391519,2018-08-24 16:31:38.684972,United States,-77.4517779,37.5574905,
kindred-spirit-brewing,Kindred Spirit Brewing,brewpub,12830 West Creek Pkwy Ste J,Richmond,Virginia,23238-1126,http://www.kindredspiritbrewing.com,8047080309,2018-07-24 01:34:25.803226,2018-08-11 21:40:06.305492,United States,,,
three-notchd-rva-collab-house,Three Notch'd RVA Collab House,micro,2930 W Broad St,Richmond,Virginia,23230-5114,http://www.threenotchdbrewing.com,4342930610,2018-07-24 01:34:27.197433,2018-08-24 16:31:20.522586,United States,-77.4719488308763,37.5636996357021,
big-lick-brewing-company,Big Lick Brewing Company,micro,409 Salem Ave SW,Roanoke,Virginia,24016,http://www.biglickbrewingco.com,5405628383,2018-07-24 01:34:24.460922,2018-08-24 16:27:32.430208,United States,-79.9487314447406,37.2724143983581,
starr-hill-pilot-brewery-and-side-stage,Starr Hill Pilot Brewery & Side Stage,micro,6 Old Whitmore Ave SE,Roanoke,Virginia,24016-1212,,4348235671,2018-07-24 01:34:26.904279,2018-08-11 21:40:09.455822,United States,,,
soaring-ridge-craft-brewers,Soaring Ridge Craft Brewers,micro,523 Shenandoah Ave NW,Roanoke,Virginia,24016-2318,http://www.soaringridge.com,5405292140,2018-07-24 01:34:26.819368,2018-08-24 16:30:42.903091,United States,-79.9496258205239,37.2747342322484,
midnight-brewery,Midnight Brewery,micro,2410 Granite Ridge Rd Ste B,Rockville,Virginia,23146-2234,http://www.midnight-brewery.com,8043569379,2018-07-24 01:34:26.011419,2018-08-11 21:40:06.801902,United States,,,
devils-backbone-brewing-co-basecamp,Devils Backbone Brewing Co - Basecamp,large,200 Mosbys Run,Roseland,Virginia,22967-8551,http://www.dbbrewingcompany.com,4343611001,2018-07-24 01:34:25.092577,2018-08-11 21:40:04.670477,United States,,,
b-chord-brewing-company,B Chord Brewing Company,micro,34266 Williams Gap Rd,Round Hill,Virginia,20141-2100,http://www.bchordbrewing.com,7036234542,2018-07-24 01:34:24.165147,2018-08-11 21:40:01.780696,United States,,,
sugar-hill-brewing-company,Sugar Hill Brewing Company,brewpub,16622 Broad St,Saint Paul,Virginia,24283-,http://www.sugarhillbrewing.com,2767381088,2018-07-24 01:34:27.0083,2018-08-24 16:31:02.644646,United States,-82.3106732,36.9051268666667,
ober-brewing-llc,"Ober Brewing, LLC.",micro,1443 Lakeside Cir,Salem,Virginia,24153-4144,http://www.oberbrewing.com,5403925418,2018-07-24 01:34:26.145016,2018-08-24 16:29:47.56864,United States,-80.0302754470699,37.3047441374353,
olde-salem-brewing-company,Olde Salem Brewing Company,micro,21 E Main St,Salem,Virginia,24153-3806,http://oldesalembrewing.com,,2018-07-24 01:34:26.270966,2018-08-24 16:29:57.932348,United States,-80.040531678569,37.2944017436281,
parkway-brewing,Parkway Brewing,micro,739 Kessler Mill Rd,Salem,Virginia,24153-3035,http://www.parkwaybrewing.com,5404049810,2018-07-24 01:34:26.332924,2018-08-24 16:30:02.462208,United States,-80.0332665005648,37.30925145,
james-river-brewery,James River Brewery,micro,561 Valley St,Scottsville,Virginia,24590-4983,http://www.jrbrewery.com/home.html,4342867837,2018-07-24 01:34:25.777266,2018-08-24 16:29:16.253777,United States,-78.4961166727378,37.8006629828106,
pagan-river-brewing-company,Pagan River Brewing Company,planning,,Smithfield,Virginia,23430-2301,http://www.paganriverbrewing.com,7574143247,2018-07-24 01:34:26.302543,2018-08-11 21:40:07.821617,United States,,,
wharf-hill-brewing,Wharf Hill Brewing,brewpub,25 Main St,Smithfield,Virginia,23430-1320,http://www.wharfhillbrewing.com,7573577100,2018-07-24 01:34:27.448616,2018-08-24 16:31:43.150846,United States,-76.6306107697368,36.9824243788573,
pen-druid-brewing,Pen Druid Brewing,micro,7 River Ln,Sperryville,Virginia,22740,http://www.pendruid.com,5409875064,2018-07-24 01:34:26.348985,2018-08-11 21:40:07.930384,United States,,,
hopkins-ordinary-ale-works,Hopkins Ordinary Ale Works,micro,47 Main St,Sperryville,Virginia,22740-,http://www.hopkinsordinary.com,5409873383,2018-07-24 01:34:25.684587,2018-08-24 16:29:08.85644,United States,-78.227195,38.6578116666667,
1781-brewing-company,1781 Brewing Company,micro,11109 Plank Rd,Spotsylvania,Virginia,22553-4258,,5408412598,2018-07-24 01:34:23.882409,2018-08-11 21:40:01.09753,United States,,,
barley-naked-brewing-company,Barley Naked Brewing Company,planning,,Stafford,Virginia,22554,http://www.barleynaked.com,5406234475,2018-07-24 01:34:24.266619,2018-08-11 21:40:02.099077,United States,,,
bedlam-brewing-llc,Bedlam Brewing LLC,brewpub,2303 N Augusta St,Staunton,Virginia,24401-2597,http://www.facebook.com/Bedlam-Brewing-536957559822021,5402211305,2018-07-24 01:34:24.364374,2018-08-24 16:27:24.889917,United States,-79.0558256767677,38.1680031919192,
queen-city-brewing,Queen City Brewing,micro,834 Spring Hill Rd,Staunton,Virginia,24401-2865,http://www.queencitybrewing.com,5402138014,2018-07-24 01:34:26.478105,2018-08-11 21:40:08.309801,United States,,,
skipping-rock-beer-co,Skipping Rock Beer Co.,planning,,Staunton,Virginia,24401-6122,http://www.skippingrockbeer.com,5402923417,2018-07-24 01:34:26.771997,2018-08-11 21:40:08.998706,United States,,,
redbeard-brewing-co,Redbeard Brewing Co,micro,120 S Lewis St,Staunton,Virginia,24401-4256,http://redbeardbrews.com,5404303532,2018-07-24 01:34:26.554196,2018-08-24 16:30:22.019768,United States,-79.074515,38.147407,
shenandoah-valley-brewing-company,Shenandoah Valley Brewing Company,micro,19 Middlebrook Ave,Staunton,Virginia,24401-4259,http://www.shenvalbrew.com,5408872337,2018-07-24 01:34:26.744025,2018-08-24 16:30:36.981741,United States,-79.073779313066,38.1472346022388,
big-data-brewing-company-llc,Big Data Brewing Company LLC,planning,,Sterling,Virginia,20165-7227,http://www.bigdatabrewco.com/,5713088293,2018-07-24 01:34:24.447977,2018-08-11 21:40:02.531822,United States,,,
beltway-brewing-company,Beltway Brewing Company,micro,22620 Davis Dr Ste 110,Sterling,Virginia,20164-4470,http://www.beltwaybrewco.com,5719892739,2018-07-24 01:34:24.409996,2018-08-24 16:27:29.423694,United States,-77.417287599377,38.9914288991512,
great-american-restaurants-sweetwater-tavern,"Great American Restaurants, Sweetwater Tavern",brewpub,45980 Waterview Plz,Sterling,Virginia,20166-6556,http://www.greatamericanrestaurants.com,5714346500,2018-07-24 01:34:25.421527,2018-08-11 21:40:05.414583,United States,,,
rocket-frog-brewing-company,Rocket Frog Brewing Company,micro,22560 Glenn Dr Ste 103,Sterling,Virginia,20164-7143,http://www.rocketfrogbeer.com,7032445711,2018-07-24 01:34:26.717613,2018-08-24 16:30:34.046512,United States,-77.4292242,38.9992947,
twinpanzee-brewing-company,Twinpanzee Brewing Company,micro,101 Executive Dr Ste D,Sterling,Virginia,20166-9557,http://www.twinpanzee.com,7037919363,2018-07-24 01:34:27.336462,2018-08-11 21:40:10.57419,United States,,,
box-office-brewery,Box Office Brewery,planning,,Strasburg,Virginia,22657-2238,http://Info@boxofficebrewery.com,5402333353,2018-07-24 01:34:24.601425,2018-08-11 21:40:02.99957,United States,,,
brick-and-mortar-brewing-company,Brick & Mortar Brewing Company,micro,212 E Washington St,Suffolk,Virginia,23434-4514,,7575331173,2018-07-24 01:34:24.769842,2018-08-24 16:27:52.743998,United States,-76.5799430538356,36.7274068334129,
flying-mouse-brewery,Flying Mouse Brewery,micro,221 Precast Way,Troutville,Virginia,24175-6099,,,2018-07-24 01:34:25.291093,2018-08-11 21:40:05.192088,United States,,,
caboose-brewing-co,Caboose Brewing Co.,brewpub,520 Mill St NE,Vienna,Virginia,22180-4526,http://caboosebrewing.com,7034734870,2018-07-24 01:34:24.847468,2018-08-24 16:28:02.217264,United States,-77.2705542,38.9077525,
twin-creeks-brewing-company,Twin Creeks Brewing Company,micro,111 S Pollard St,Vinton,Virginia,24179-2414,http://www.twincreeksbrewing.com,5404000882,2018-07-24 01:34:27.322832,2018-08-24 16:31:32.729155,United States,-79.8974688979592,37.2807514285714,
back-bay-brewing-company,Back Bay Brewing Company,micro,614 Norfolk Ave,Virginia Beach,Virginia,23451-4419,http://www.backbaybrewingco.com,7575317750,2018-07-24 01:34:24.177965,2018-08-24 16:27:08.471775,United States,-75.9797441428571,36.8377837142857,
gordon-biersch-brewery-restaurant-virginia-beach,Gordon Biersch Brewery Restaurant - Virginia Beach,brewpub,4561 Virginia Beach Blvd,Virginia Beach,Virginia,23462-3015,http://www.craftworksrestaurants.com,7574902739,2018-07-24 01:34:25.405604,2018-08-24 16:28:49.482155,United States,-76.1345641,36.8432205,
wasserhund-brewing-company,Wasserhund Brewing Company,brewpub,1805 Laskin Rd Ste 102,Virginia Beach,Virginia,23454-4553,http://www.wasserhundbrewing.com,7573511326,2018-07-24 01:34:27.418813,2018-08-24 16:31:40.178252,United States,-76.0276214674499,36.849165,
brewery-in-planning-virginia-beach,Brewery in Planning - Virginia Beach,planning,,Virginia Beach,Virginia,23454-3552,,7578174246,2018-07-24 01:34:24.727483,2018-08-11 21:40:03.370485,United States,,,
commonwealth-brewing-co,Commonwealth Brewing Co.,micro,2444 Pleasure House Rd,Virginia Beach,Virginia,23455-1348,http://www.commonwealthbrewco.com,7573059652,2018-07-24 01:34:24.986931,2018-08-24 16:28:15.916374,United States,-76.1318655,36.9135253,
home-republic,Home Republic,micro,328 Laskin Rd,Virginia Beach,Virginia,23451-3020,http://www.homerepublicvabeach.com,7572269593,2018-07-24 01:34:25.670496,2018-08-24 16:29:07.359656,United States,-75.9798143333333,36.8591240833333,
new-realm-brewing,New Realm Brewing,planning,,Virginia Beach,Virginia,23454,,,2018-07-24 01:34:26.119315,2018-08-11 21:40:07.178797,United States,,,
pleasure-house-brewing,Pleasure House Brewing,micro,3025 Shore Dr,Virginia Beach,Virginia,23451-1247,http://www.pleasurehousebrewing.com,7574960916,2018-07-24 01:34:26.385893,2018-08-24 16:30:06.951984,United States,-76.079164,36.909938,
smartmouth-brewing-pilot-house,Smartmouth Brewing Pilot House,micro,313 32nd St,Virginia Beach,Virginia,23451-2950,,,2018-07-24 01:34:26.805217,2018-08-24 16:30:41.379665,United States,-75.980788471997,36.86023395,
vibrant-shore-brewing-company,Vibrant Shore Brewing Company,planning,,Virginia Beach,Virginia,23451-2005,,8082805895,2018-07-24 01:34:27.404811,2018-08-11 21:40:10.723602,United States,,,
young-veterans-brewing-company,Young Veterans Brewing Company,micro,2505 Horse Pasture Rd Ste 104,Virginia Beach,Virginia,23453-2988,http://www.yvbc.com,7576894021,2018-07-24 01:34:27.589589,2018-08-11 21:40:11.124506,United States,,,
two-fathers-beer-co,Two Fathers Beer Co,contract,2016 Belvidere Rd,Virginia Beach,Virginia,23454-2233,http://www.twofathersbeer.com,7573092518,2018-07-24 01:34:27.363101,2018-08-24 16:31:37.172229,United States,-76.0389065029548,36.86874825,
reaver-beach-brewing-co,Reaver Beach Brewing Co,micro,1505 Taylor Farm Rd,Virginia Beach,Virginia,23453-3099,http://www.reaverbeach.com,7575632337,2018-07-24 01:34:26.523628,2018-08-11 21:40:08.433665,United States,,,
old-bust-head-brewing-co,Old Bust Head Brewing Co.,micro,7134 Lineweaver Rd,Warrenton,Virginia,20187-3949,http://www.oldbusthead.com,5403474777,2018-07-24 01:34:26.211914,2018-08-11 21:40:07.462408,United States,,,
wort-hog-brewing-company-llc,Wort Hog Brewing Company LLC,brewpub,50A S 3rd St,Warrenton,Virginia,20186-3340,http://www.worthogbreweryllc.com,5403002739,2018-07-24 01:34:27.576568,2018-08-24 16:31:53.67781,United States,-77.7951382,38.7117948,
seven-arrows-brewing-co,Seven Arrows Brewing Co.,micro,2508 Jefferson Hwy Ste 1,Waynesboro,Virginia,22980-6500,http://www.sevenarrowsbrewing.com,5402216968,2018-07-24 01:34:26.730911,2018-08-11 21:40:08.890482,United States,,,
stable-craft-brewing,Stable Craft Brewing,brewpub,375 Madrid Rd,Waynesboro,Virginia,22980-6230,http://www.stablecraftbrewing.com,5404902609,2018-07-24 01:34:26.878948,2018-08-11 21:40:09.389088,United States,,,
basic-city-beer-co,Basic City Beer Co.,micro,1010 E Main St,Waynesboro,Virginia,22980-5855,http://www.basiccitybeer.com,8162713211,2018-07-24 01:34:24.310965,2018-08-24 16:27:21.896493,United States,-78.873985877551,38.0644451020408,
billsburg-brewery,Billsburg Brewery,micro,2054 Jamestown Rd,Williamsburg,Virginia,23185-7911,http://www.billsburg.com,,2018-07-24 01:34:24.499253,2018-08-24 16:27:37.217758,United States,-76.7129558,37.2682365,
alewerks-brewing-company,Alewerks Brewing Company,micro,197 Ewell Rd,Williamsburg,Virginia,23188-2185,http://www.alewerks.com,7572203670,2018-07-24 01:34:23.992439,2018-08-11 21:40:01.429015,United States,,,
anheuser-busch-inc-a-williamsburg,Anheuser-Busch Inc  Williamsburg,large,7801 Pocahontas Trl,Williamsburg,Virginia,23185-6302,http://www.anheuser-busch.com,7572533600,2018-07-24 01:34:24.023158,2018-08-24 16:26:59.478155,United States,-76.6798988,37.2652889,
brass-cannon-brewing,Brass Cannon Brewing,micro,5476 Mooretown Rd,Williamsburg,Virginia,23188-2108,http://www.brasscannonbrewing.com,7575660001,2018-07-24 01:34:24.614375,2018-08-11 21:40:03.037375,United States,,,
precarious-beer-project,Precarious Beer Project,micro,521 Prince George St,Williamsburg,Virginia,23185-3621,http://www.theamberox.com,6166388866,2018-07-24 01:34:26.417058,2018-08-24 16:30:10.018678,United States,-76.7084565344813,37.272790745225,
the-virginia-beer-company,The Virginia Beer Company,micro,401 Second St,Williamsburg,Virginia,23185-4815,http://www.virginiabeerco.com,7573782903,2018-07-24 01:34:27.169309,2018-08-11 21:40:10.197867,United States,,,
alesatian-brewing-co,Alesatian Brewing Co.,brewpub,21 N Loudoun St,Winchester,Virginia,22601-4715,http://www.alesatianbrewing.com,5406672743,2018-07-24 01:34:23.978626,2018-08-24 16:26:54.915217,United States,-78.1655920769231,39.1844644615385,
escutcheon-brewing-co,Escutcheon Brewing Co.,micro,142 W Commercial St,Winchester,Virginia,22601-4828,http://www.escutcheonbrewing.com,5407733042,2018-07-24 01:34:25.203667,2018-08-24 16:28:32.700738,United States,-78.1634731985498,39.19554463971,
winchester-brew-works-llc,Winchester Brew Works LLC,micro,320 N Cameron St,Winchester,Virginia,22601-6052,http://winchesterbrewworks.com,5406929242,2018-07-24 01:34:27.509603,2018-08-24 16:31:47.568729,United States,-78.1622130515464,39.1885771237113,
brewery-in-planning-woodbridge,Brewery in Planning - woodbridge,planning,,Woodbridge,Virginia,22193-3260,,5714083509,2018-07-24 01:34:24.743086,2018-08-11 21:40:03.42135,United States,,,
growling-bear-brewing-company,Growling Bear Brewing Company,micro,14051 Crown Ct,Woodbridge,Virginia,22193-1458,,,2018-07-24 01:34:25.515302,2018-08-11 21:40:05.601554,United States,,,
brew-republic-bierwerks,Brew Republic Bierwerks,brewpub,15201 Potomac Town Pl Ste 120 Stonebridge @ Potomac Town Center,Woodbridge,Virginia,22191-6592,http://brewrepublic.beer,7035947950,2018-07-24 01:34:24.626599,2018-08-11 21:40:03.074328,United States,,,
woodstock-brewhouse,Woodstock Brewhouse,brewpub,123 E Court St,Woodstock,Virginia,22664-1761,http://www.woodstockbrewhouse.com,5404592739,2018-07-24 01:34:27.560873,2018-08-24 16:31:52.220209,United States,-78.5041423486997,38.881426480554,