id,name,brewery_type,street,city,state,postal_code,website_url,phone,created_at,updated_at,country,longitude,latitude,tags
arrowood-farms,Arrowood Farms,micro,236 Lower Whitfield Rd,Accord,New York,12404-5809,http://www.arrowoodfarms.com,8452530389,2018-07-24 01:33:49.175225,2018-08-24 15:38:02.230953,United States,-74.2489174174862,41.8066614403486,
akwesasne-mohawk-casino-resort,Akwesasne Mohawk Casino Resort,planning,,Akwesasne,New York,13655-1800,http://mohawkcasino.com,5183582222,2018-07-24 01:33:49.059114,2018-08-11 21:38:29.502264,United States,,,
ch-evans-brewing-co/albany-pump-station,CH Evans Brewing Co/Albany Pump Station,brewpub,19 Quackenbush Sq,Albany,New York,12207-2311,http://www.evansale.com,5184479000,2018-07-24 01:33:50.183291,2018-08-11 21:38:32.24866,United States,,,
fort-orange-brewing,Fort Orange Brewing,micro,450 N Pearl St,Albany,New York,12204-1511,http://www.fortorangebrewing.com,5189923103,2018-07-24 01:33:51.0181,2018-08-24 15:38:58.882264,United States,-73.74427,42.66372,
perfect-world-brewing-co,Perfect World Brewing Co,micro,1276 Broadway,Albany,New York,12204-2623,http://www.facebook.com/PerfectWorldBrewing/,,2018-07-24 01:33:52.794953,2018-08-11 21:38:39.014333,United States,,,
steadfast-beer-co,Steadfast Beer Co,contract,1756 Western Ave Rear,Albany,New York,12203-4414,http://www.steadfastbeer.com,,2018-07-24 01:33:53.755472,2018-08-11 21:38:41.873268,United States,,,
indian-ladder-farmstead-brewery-and-cidery,Indian Ladder Farmstead Brewery and Cidery,micro,342 Altamont Rd,Altamont,New York,12009-3500,http://www.ilfcb.com,5185771484,2018-07-24 01:33:51.743753,2018-08-11 21:38:36.32052,United States,,,
small-craft-brewing-co,Small Craft Brewing Co,micro,66 Merrick Rd,Amityville,New York,11701-3463,http://www.smallcraftbrewing.com,6314640186,2018-07-24 01:33:53.664799,2018-08-24 15:40:22.661241,United States,-73.42019,40.6715855555556,
high-perch-brewing-company,High Perch Brewing Company,micro,1417 Kania Rd,Amsterdam,New York,12010-6610,,,2018-07-24 01:33:51.60053,2018-08-11 21:38:35.905345,United States,,,
rockaway-brewing-company,Rockaway Brewing Company,planning,,Arverne,New York,11692-1044,http://www.rockawaybrewco.com,7184826528,2018-07-24 01:33:53.130544,2018-08-11 21:38:39.771451,United States,,,
brewery-in-planning-astoria,Brewery in Planning - Astoria,planning,,Astoria,New York,11105-3936,,,2018-07-24 01:33:49.637092,2018-08-11 21:38:31.043001,United States,,,
singlecut-beersmiths,Singlecut Beersmiths,micro,19-33 37th St,Astoria,New York,11105-1118,http://www.singlecutbeer.com,7186060788,2018-07-24 01:33:53.586188,2018-08-11 21:38:41.405819,United States,,,
crossroads-brewing-co,Crossroads Brewing Co,brewpub,21 2nd St,Athens,New York,12015-1327,http://www.crossroadsbrewingco.com,5189452337,2018-07-24 01:33:50.492891,2018-08-24 15:38:40.380344,United States,-73.8100641,42.2605541,
next-chapter-brewpub,Next Chapter Brewpub,planning,,Auburn,New York,13021-4620,http://www.nextchapterbrewpub.com,,2018-07-24 01:33:52.575124,2018-08-11 21:38:38.391217,United States,,,
prison-city-brewing,Prison City Brewing,brewpub,28 State St,Auburn,New York,13021-3625,http://www.prisoncitybrewing.com,9177272477,2018-07-24 01:33:52.882612,2018-08-24 15:39:56.878172,United States,-76.5682427,42.9317672,
the-good-shepherds-brewing-co,The Good Shepherds Brewing Co,micro,31 Loop Rd Ste 1,Auburn,New York,13021-3823,http://www.shepsbeer.com,3154066498,2018-07-24 01:33:54.054156,2018-08-11 21:38:42.553684,United States,,,
anheuser-busch-inc-a-baldwinsville,Anheuser-Busch Inc â Baldwinsville,large,2885 Belgium Rd,Baldwinsville,New York,13027-2706,,3156354000,2018-07-24 01:33:49.131943,2018-08-24 15:38:01.274977,United States,-76.3115934287994,43.1651092543768,
wt-brews-llc,WT Brews LLC,micro,3 W Genesee St,Baldwinsville,New York,13027-1104,http://www.wtbrews.com,3158573266,2018-07-24 01:33:54.686356,2018-08-24 15:40:53.652011,United States,-76.3328857142857,43.1585531428571,
unified-beerworks,Unified Beerworks,planning,,Ballston Lake,New York,12019-1734,http://unified-beerworks.com,5184284185,2018-07-24 01:33:54.312739,2018-08-11 21:38:43.224031,United States,,,
eli-fish-brewing-company,Eli Fish Brewing Company,brewpub,109 Main St,Batavia,New York,14020-2110,http://www.elifishbrewing.com,5858150401,2018-07-24 01:33:50.677461,2018-08-24 15:38:46.811586,United States,-78.1821989795918,42.9973274693878,
destination-unknown-beer-company,Destination Unknown Beer Company,micro,1 S Chicago Ave Unit C,Bay Shore,New York,11706-7000,http://www.destinationunknownbeercompany.com,6314852232,2018-07-24 01:33:50.559294,2018-08-11 21:38:33.249284,United States,,,
fire-island-beer-co,Fire Island Beer Co,micro,25 Drexel Dr,Bay Shore,New York,11706-2234,http://www.fireislandbeer.com,,2018-07-24 01:33:50.886833,2018-08-11 21:38:34.04491,United States,,,
great-south-bay-brewery,Great South Bay Brewery,micro,25 Drexel Dr,Bay Shore,New York,11706-2234,http://www.greatsouthbaybrewery.com,6313928472,2018-07-24 01:33:51.367992,2018-08-11 21:38:35.286686,United States,,,
the-brewers-collective,The Brewers Collective,micro,1460 N Clinton Ave Unit N,Bay Shore,New York,11706-4058,http://www.thebrewerscollective.com,6316659000,2018-07-24 01:33:53.976299,2018-08-11 21:38:42.366013,United States,,,
2-way-brewing-company,2 Way Brewing Company,brewpub,18 W Main St,Beacon,New York,12508-2512,http://www.2waybrewingcompany.com,8452027334,2018-07-24 01:33:48.933011,2018-08-24 15:37:55.658694,United States,-73.9809868,41.5082102,
hudson-valley-brewery,Hudson Valley Brewery,micro,7 E Main St,Beacon,New York,12508-3301,http://www.hudsonvalleybrewery.com,8452189156,2018-07-24 01:33:51.698422,2018-08-24 15:39:21.052506,United States,-73.9630491,41.5016501,
galaxy-brewing-co,Galaxy Brewing Co,brewpub,"41 Court St, 153 & 157",Binghamton,New York,13901-3104,http://www.galaxybrewingco.com,6072174815,2018-07-24 01:33:51.153434,2018-08-11 21:38:34.737242,United States,,,
water-street-brewing-co,Water Street Brewing Co,brewpub,168 Water St Fl 1,Binghamton,New York,13901-2736,http://www.waterstreetbrewingco.com,6072174546,2018-07-24 01:33:54.44193,2018-08-11 21:38:43.616033,United States,,,
andean-brewing,Andean Brewing,micro,300 Corporate Dr Ste 2,Blauvelt,New York,10913-1162,,6464505852,2018-07-24 01:33:49.117368,2018-08-11 21:38:29.619276,United States,,,
irish-mafia-brewing-co,Irish Mafia Brewing Co,brewpub,2971 Whalen Rd,Bloomfield,New York,14469-9786,http://www.irishmafiabrewing.com,5852715172,2018-07-24 01:33:51.805647,2018-08-24 15:39:24.759527,United States,-77.3893869584766,42.8926813391929,
noble-shepherd-craft-brewery,Noble Shepherd Craft Brewery,micro,7853 State Route 20a,Bloomfield,New York,14469-9659,http://www.nobleshepherdbrewery.com,5852297661,2018-07-24 01:33:52.587245,2018-08-11 21:38:38.420628,United States,,,
bolton-landing-brewing-co,Bolton Landing Brewing Co.,micro,4933 Lake Shore Dr,Bolton Landing,New York,12814-7757,http://www.boltonlandingbrewing.com,5186442739,2018-07-24 01:33:49.544546,2018-08-24 15:38:13.87468,United States,-73.655636,43.555707,
bull-and-barrel-brew-pub,Bull and Barrel Brew Pub,brewpub,988 Route 22,Brewster,New York,10509-1576,http://www.bullandbarrelbrewpub.com,8452782855,2018-07-24 01:33:50.037165,2018-08-11 21:38:31.884494,United States,,,
rg-brewery-/-five-sons-winery,RG Brewery / Five Sons Winery,micro,1360 W Sweden Rd,Brockport,New York,14420-,http://www.rgbrewery.com,5853913569,2018-07-24 01:33:53.079218,2018-08-11 21:38:39.660076,United States,,,
stoneyard-brewing-company,Stoneyard Brewing Company,brewpub,48 Merchant St,Brockport,New York,14420,http://www.stoneyardbrewingcompany.com,5856373390,2018-07-24 01:33:53.780456,2018-08-11 21:38:41.954118,United States,,,
gun-hill-brewing-co,Gun Hill Brewing Co,micro,3227 Laconia Ave,Bronx,New York,10469-1403,http://www.gunhillbrewing.com,7188810010,2018-07-24 01:33:51.465706,2018-08-24 15:39:13.763566,United States,-73.855814,40.8721114,
dyckman-beer-co,Dyckman Beer Co,contract,,Bronx,New York,10451,http://www.dyckmanbeerco.com,,2018-07-24 01:33:50.637972,2018-08-11 21:38:33.462842,United States,,,
chelsea-craft-brewing-co-llc,Chelsea Craft Brewing Co Llc,micro,463 E 173rd St,Bronx,New York,10457-8105,http://www.chelseacraftbrewing.com,7184848850,2018-07-24 01:33:50.208348,2018-08-24 15:38:29.701716,United States,-73.9015282,40.841904,
the-bronx-brewery,The Bronx Brewery,micro,856 E 136th St,Bronx,New York,10454-3509,http://www.thebronxbrewery.com,7184021000,2018-07-24 01:33:54.01661,2018-08-24 15:40:32.14814,United States,-73.9106405393459,40.801861,
greenpoint-beer,Greenpoint Beer,brewpub,7 N 15th St,Brooklyn,New York,11222-2838,http://www.greenpointbeer.com,9177501541,2018-07-24 01:33:51.393626,2018-08-24 15:39:11.282332,United States,-73.9960761707317,40.6689340731707,
other-half-brewing-company,Other Half Brewing Company,micro,195 Centre St,Brooklyn,New York,11231-3907,,,2018-07-24 01:33:52.674357,2018-08-24 15:39:50.89395,United States,-73.9991264,40.6737903,
braven-brewing-company,Braven Brewing Company,planning,,Brooklyn,New York,11237,,9292956673,2018-07-24 01:33:49.597961,2018-08-11 21:38:30.940519,United States,,,
brewery-in-planning-brooklyn,Brewery In Planning - Brooklyn,planning,,Brooklyn,New York,11216,,,2018-07-24 01:33:49.649932,2018-08-11 21:38:31.071854,United States,,,
brewery-in-planning-brooklyn,Brewery in Planning - Brooklyn,planning,,Brooklyn,New York,11225,,9042288611,2018-07-24 01:33:49.662164,2018-08-11 21:38:31.098965,United States,,,
brooklyn-brewery,Brooklyn Brewery,regional,79 N 11th St #1 Brewers Row,Brooklyn,New York,11249-1913,http://www.brooklynbrewery.com,7184867422,2018-07-24 01:33:49.923798,2018-08-11 21:38:31.696674,United States,,,
braven-brewing-company,Braven Brewing Company,contract,362 Jefferson St # 320,Brooklyn,New York,11237-2312,http://www.bravenbrewing.com,9292956673,2018-07-24 01:33:49.61067,2018-08-24 15:38:15.913797,United States,-73.9246472479148,40.70559895,
circa-brewing-co,Circa Brewing Co,brewpub,141 Lawrence St,Brooklyn,New York,11201,http://www.circabrewing.co,7188580055,2018-07-24 01:33:50.232882,2018-08-24 15:38:30.318863,United States,-73.986155,40.6917243,
coney-island-beer,Coney Island Beer,micro,1904 Surf Ave,Brooklyn,New York,11224-2410,http://www.coneyislandbeer.com,8184518452,2018-07-24 01:33:50.322077,2018-08-24 15:38:33.218874,United States,-73.9857236734694,40.5750266122449,
four-beasts-brewery,Four Beasts Brewery,planning,,Brooklyn,New York,11215-2305,,3478863834,2018-07-24 01:33:51.031684,2018-08-11 21:38:34.457642,United States,,,
five-boroughs-brewing-co,Five Boroughs Brewing Co,micro,215 47th St,Brooklyn,New York,11220-1009,http://www.fiveboroughs.com,7183558575,2018-07-24 01:33:50.912522,2018-08-24 15:38:55.140108,United States,-74.0144263,40.6505216,
folksbier,Folksbier,regional,101 Luquer St # 103,Brooklyn,New York,11231-3308,http://www.folksbier.com,,2018-07-24 01:33:50.978886,2018-08-24 15:38:57.711969,United States,-74.000991320918,40.6779358003061,
grimm-artisanal-ales,Grimm Artisanal Ales,micro,990 Metropolitan Ave,Brooklyn,New York,11211-2607,http://GrimmAles.com,,2018-07-24 01:33:51.436968,2018-08-24 15:39:12.814867,United States,-73.9365191088872,40.7142757,
interboro-spirits-and-ales,Interboro Spirits And Ales,brewpub,942 Grand St,Brooklyn,New York,11211-2707,http://www.interboro.nyc,6462455417,2018-07-24 01:33:51.789395,2018-08-24 15:39:24.159166,United States,-73.9369567,40.7126813,
island-to-island-brewery,Island To Island Brewery,brewpub,642 Rogers Ave,Brooklyn,New York,11226-1502,http://www.islandtoislandbrewery.com,3479741985,2018-07-24 01:33:51.850281,2018-08-24 15:39:26.247835,United States,-73.9532599519667,40.6558144,
keg-and-lantern-brewing-co,Keg & Lantern Brewing Co,brewpub,97 Nassau Ave,Brooklyn,New York,11222-3081,http://www.kegandlanternbrooklyn.com,7183895050,2018-07-24 01:33:51.950862,2018-08-24 15:39:28.633839,United States,-73.9503196323481,40.7241037,
kelso-beer-company,KelSo Beer Company,contract,529 Waverly Ave,Brooklyn,New York,11238-2701,http://www.kelsoofbrooklyn.com,,2018-07-24 01:33:51.969747,2018-08-24 15:39:29.273296,United States,-73.96564,40.6826758571429,
kings-county-brewers-collective,Kings County Brewers Collective,micro,381 Troutman St,Brooklyn,New York,11237-2613,http://www.kcbcbeer.com,7182882891,2018-07-24 01:33:52.018659,2018-08-24 15:39:31.303748,United States,-73.9236202,40.7060306,
lineup-brewing-llc,Lineup Brewing LLC,micro,33 35th St Unit 6A,Brooklyn,New York,11232-2210,http://www.lineupbrewing.com,7204222053,2018-07-24 01:33:52.193357,2018-08-11 21:38:37.263639,United States,,,
randolph-beer-dumbo,Randolph Beer Dumbo,brewpub,77 Sands St,Brooklyn,New York,11201-1431,http://www.randolphbeer.com,7182983331,2018-07-24 01:33:52.970035,2018-08-24 15:39:59.702693,United States,-73.987503,40.7000550909091,
sakebrooklyn-brewing-co-llc,"SakeBrooklyn Brewing Co., LLC",planning,,Brooklyn,New York,11237-5263,http://www.sakebrooklyn.com,9294007253,2018-07-24 01:33:53.350467,2018-08-11 21:38:40.686953,United States,,,
sweet-thursday-beer-co,Sweet Thursday Beer Co,planning,,Brooklyn,New York,11215-6020,http://www.sweetthursdaybeer.com,9176133980,2018-07-24 01:33:53.9117,2018-08-11 21:38:42.2105,United States,,,
sixpoint-brewery,Sixpoint Brewery,regional,40 Van Dyke St,Brooklyn,New York,11231-1529,http://www.sixpoint.com,3472278676,2018-07-24 01:33:53.611315,2018-08-24 15:40:21.031173,United States,-74.0119176109705,40.67397255,
strong-rope-brewery,Strong Rope Brewery,micro,574A President St,Brooklyn,New York,11215-1019,http://www.strongropebrewery.com,5857033010,2018-07-24 01:33:53.804978,2018-08-24 15:40:26.97971,United States,-73.9840898,40.6769023,
the-food-works,The Food Works,planning,,Brooklyn,New York,11206,http://www.thefoodworks.com,6178512133,2018-07-24 01:33:54.041447,2018-08-11 21:38:42.525165,United States,,,
war-flag-brewing-co,War Flag Brewing Co,proprietor,649 Morgan Ave Ste B16-5,Brooklyn,New York,11222-3940,http://www.warflag.nyc,6466968096,2018-07-24 01:33:54.404754,2018-08-11 21:38:43.498283,United States,,,
wartega,Wartega,micro,33 35th St Unit 6A,Brooklyn,New York,11232-2210,http://www.wartega.com,9173971171,2018-07-24 01:33:54.429601,2018-08-11 21:38:43.579063,United States,,,
threes-brewing,Threes Brewing,micro,333 Douglass St,Brooklyn,New York,11217-3115,http://www.threesbrewing.com,7185222110,2018-07-24 01:33:54.169933,2018-08-24 15:40:37.938982,United States,-73.9821529,40.6798144,
wild-east-brewing-co,Wild East Brewing Co.,planning,,Brooklyn,New York,11215-5511,http://www.wildeastbrewing.com,,2018-07-24 01:33:54.535489,2018-08-11 21:38:43.824606,United States,,,
flying-bison-brewing-co,Flying Bison Brewing Co,micro,840 Seneca St,Buffalo,New York,14210-1414,http://www.flyingbisonbrewing.com,7168731557,2018-07-24 01:33:50.965769,2018-08-24 15:38:57.237782,United States,-78.8458326,42.8758185,
lafayette-brewing-co,Lafayette Brewing Co,brewpub,391 Washington St,Buffalo,New York,14203-2108,http://www.panamericangrill.com,7168560062,2018-07-24 01:33:52.069722,2018-08-24 15:39:32.439081,United States,-78.8734526,42.8847967,
pressure-drop-brewing,Pressure Drop Brewing,micro,65 Vandalia St,Buffalo,New York,14204-2739,http://www.barrelfactory.com,7168489942,2018-07-24 01:33:52.870598,2018-08-24 15:39:56.430191,United States,-78.8610373891982,42.8664042099108,
big-ditch-brewing-company,Big Ditch Brewing Company,micro,55 E Huron St,Buffalo,New York,14203-1632,http://www.bigditchbrewing.com,7168545050,2018-07-24 01:33:49.380439,2018-08-24 15:38:08.240735,United States,-78.8709352,42.888031,
buffalo-brewing-company,Buffalo Brewing Company,micro,314 Myrtle Ave,Buffalo,New York,14204-2058,http://www.buffalo-brewing-company.com,7168682218,2018-07-24 01:33:49.968201,2018-08-24 15:38:22.018536,United States,-78.859688353651,42.8785126415884,
buffalo-brewpub,Buffalo Brewpub,brewpub,6861 Main St,Buffalo,New York,14221-5929,http://www.buffalobrewpub.com,7166320552,2018-07-24 01:33:49.981978,2018-08-24 15:38:22.658374,United States,-78.831057,42.946564,
buffalo-riverworks-brewery,Buffalo RiverWorks Brewery,brewpub,359 Ganson St,Buffalo,New York,14203-3062,http://www.buffaloriverworks.com,7163422292,2018-07-24 01:33:49.995269,2018-08-24 15:38:23.118609,United States,-78.8724929203751,42.8696795,
community-beer-works,Community Beer Works,micro,15 Lafayette Ave,Buffalo,New York,14213-1344,http://www.communitybeerworks.com,7167594677,2018-07-24 01:33:50.309921,2018-08-24 15:38:32.715107,United States,-78.8980696953437,42.9198446,
gene-mccarthys/old-first-ward-brewing-company,Gene McCarthy's/Old First Ward Brewing Company,brewpub,73 Hamburg St,Buffalo,New York,14204-2719,http://www.genemccarthys.com,7168558948,2018-07-24 01:33:51.207312,2018-08-24 15:39:04.971388,United States,-78.859577227514,42.8665407488525,
hofbrauhaus-buffalo,Hofbrauhaus Buffalo,planning,,Buffalo,New York,14221-4616,http://www.facebook.com/Hofbrauhaus-Buffalo-476335022466386/,7165631781,2018-07-24 01:33:51.626719,2018-08-11 21:38:35.995407,United States,,,
resurgence-brewing-company,Resurgence Brewing Company,brewpub,1250 Niagara St,Buffalo,New York,14213-1502,http://www.resurgencebrewing.com,7163819868,2018-07-24 01:33:53.065924,2018-08-24 15:40:03.204491,United States,-78.899599557026,42.91822725,
rusty-nickel-brewing-co,Rusty Nickel Brewing Co.,brewpub,4350 Seneca St,Buffalo,New York,14224-3169,http://www.rustynickelbrewing.com,7166086155,2018-07-24 01:33:53.269651,2018-08-24 15:40:09.483458,United States,-78.851031,42.876243,
thin-man-brewery,Thin Man Brewery,brewpub,486 Elmwood Ave,Buffalo,New York,14222-2014,http://www.thinmanbrewery.com,7169234100,2018-07-24 01:33:54.118013,2018-08-24 15:40:35.842109,United States,-78.8772028461538,42.9103781538462,
wooden-skiff-beer-co,Wooden Skiff Beer Co.,contract,,Buffalo,New York,14216-3611,http://www.woodenskiff.com,7062285064,2018-07-24 01:33:54.648066,2018-08-11 21:38:44.089086,United States,,,
pearl-street-grill-and-brewery,Pearl Street Grill and Brewery,brewpub,76 Pearl St,Buffalo,New York,14202-4106,http://www.pearlstreetgrill.com,7168562337,2018-07-24 01:33:52.770519,2018-08-24 15:39:53.21134,United States,-78.8772254446644,42.881057594089,
sato-brewpub,Sato Brewpub,brewpub,110 Pearl St,Buffalo,New York,14202-4125,http://www.satobrewpub.com,7162481436,2018-07-24 01:33:53.407347,2018-08-24 15:40:13.530709,United States,-78.8769397130505,42.8818614620053,
two-goats-brewing,Two Goats Brewing,brewpub,5027 State Route 414,Burdett,New York,14818-9816,http://www.twogoatsbrewing.com,607546,2018-07-24 01:33:54.300287,2018-08-11 21:38:43.193669,United States,,,
grist-iron-brewing-co,Grist Iron Brewing Co.,brewpub,4880 State Route 414,Burdett,New York,14818-9729,http://www.gristironbrewing.com,6078822739,2018-07-24 01:33:51.451677,2018-08-11 21:38:35.493436,United States,,,
peacemaker-brewing-company,Peacemaker Brewing Company,micro,20 Pleasant St,Canandaigua,New York,14424-2047,http://www.peacemakerbrewing.com,5853963561,2018-07-24 01:33:52.758651,2018-08-24 15:39:52.762427,United States,-77.2786605528567,42.8885116497367,
three-huskies-brewing-and-dobbers-grill,Three Huskies Brewing & Dobber's Grill,brewpub,401 Lakeshore Dr,Canandaigua,New York,14424-2338,http://www.threehuskiesbrewing.com,5852603530,2018-07-24 01:33:54.15643,2018-08-24 15:40:37.412862,United States,-77.251124,42.8723885,
lincoln-hill-farm,Lincoln Hill Farm,planning,,Canandaigua,New York,14424-8826,http://www.fingerlakingood.farm,5857529466,2018-07-24 01:33:52.178233,2018-08-11 21:38:37.227708,United States,,,
naked-dove-brewing-company,Naked Dove Brewing Company,micro,4048 State Route 5 and 20,Canandaigua,New York,14424-9591,http://www.nakeddovebrewing.com,5853962537,2018-07-24 01:33:52.527078,2018-08-11 21:38:38.262148,United States,,,
twisted-rail-brewing-company,Twisted Rail Brewing Company,micro,169 Lakeshore Dr,Canandaigua,New York,14424-2309,http://www.twistedrailbrewing.com,5853960683,2018-07-24 01:33:54.283422,2018-08-24 15:40:42.183104,United States,-77.262436,42.87507,
young-lion-brewing-co,Young Lion Brewing Co,micro,24 Lakeshore Dr,Canandaigua,New York,14424-2333,http://www.younglionbrewing.com,5852034337,2018-07-24 01:33:54.724596,2018-08-24 15:40:55.316451,United States,-77.2693899497183,42.8756096723289,
erie-canal-brewing-company,Erie Canal Brewing Company,micro,135 S Peterboro St,Canastota,New York,13032-1409,http://www.eriecanalbrewingcompany.com,3155105001,2018-07-24 01:33:50.766183,2018-08-24 15:38:49.380611,United States,-75.7515320204082,43.0785763673469,
cape-vincent-brewing-co,Cape Vincent Brewing Co,micro,296 Broadway St,Cape Vincent,New York,13618,http://www.capevincentbrewing.com,,2018-07-24 01:33:50.103795,2018-08-24 15:38:25.594265,United States,-76.3348456500663,44.1282368671044,
rip-van-winkle-brewing-co,Rip Van Winkle Brewing Co.,brewpub,4545 Route 32,Catskill,New York,12414-6623,http://www.ripvanwinklebrewingco.com,5186789275,2018-07-24 01:33:53.092668,2018-08-11 21:38:39.688708,United States,,,
critz-farms-brewing-and-cider-co,Critz Farms Brewing & Cider Co.,micro,3232 Rippleton Rd,Cazenovia,New York,13035-9693,http://www.critzfarms.com,3156623355,2018-07-24 01:33:50.467621,2018-08-24 15:38:39.321759,United States,-75.8746342,42.8805302,
empire-farm-brewery,Empire Farm Brewery,micro,33 Rippleton Rd,Cazenovia,New York,13035-9601,http://www.empirebrew.com,3156552337,2018-07-24 01:33:50.740709,2018-08-24 15:38:48.351271,United States,-75.8664345,42.9197307,
moriches-field-brewing-company,Moriches Field Brewing Company,planning,,Center Moriches,New York,11934-2600,,6314495310,2018-07-24 01:33:52.489372,2018-08-11 21:38:38.190352,United States,,,
blind-bat-brewery-llc-the,"Blind Bat Brewery LLC, The",micro,420 Harrison Dr,Centerport,New York,11721-1216,http://www.BlindBatBrewery.com,6318917909,2018-07-24 01:33:49.473427,2018-08-24 15:38:11.410466,United States,-73.3811310556984,40.8959081,
apex-brewery,Apex Brewery,planning,,Central Valley,New York,10917-3708,http://www.apexbeer.co,8455493006,2018-07-24 01:33:49.147159,2018-08-11 21:38:29.674046,United States,,,
in-law-brewing-co,In-Law Brewing Co,micro,5868 County Route 14,Chase Mills,New York,13621-3102,http://www.in-lawbrewingcompany.com,,2018-07-24 01:33:51.773953,2018-08-24 15:39:23.606007,United States,-75.048304522321,44.8814099654999,
chatham-brewing-llc,Chatham Brewing LLC,micro,59 Main St,Chatham,New York,12037-1249,http://www.chathambrewing.com,5186970202,2018-07-24 01:33:50.195956,2018-08-24 15:38:29.207959,United States,-73.5954693147021,42.3631506491011,
gordon-biersch-brewery-restaurant-buffalo,Gordon Biersch Brewery Restaurant - Buffalo,brewpub,Store P102 Galleria Dr,Cheektowaga,New York,14225-5408,http://www.craftworksrestaurants.com,7166830050,2018-07-24 01:33:51.300745,2018-08-11 21:38:35.098823,United States,,,
diversion-brewing-co,Diversion Brewing Co,micro,729 Wyncoop Creek Rd,Chemung,New York,14825-9755,http://www.diversionbrewing.com,6075429168,2018-07-24 01:33:50.586288,2018-08-24 15:38:44.350102,United States,-76.62211,42.019871,
red-shed-brewing-company,Red Shed Brewing Company,micro,817 Butter Bowl Rd,Cherry Valley,New York,13320-3106,http://www.redshedbrewing.com,6077316454,2018-07-24 01:33:53.041077,2018-08-11 21:38:39.580223,United States,,,
long-lot-farm-brewery,Long Lot Farm Brewery,micro,153 Johnson Rd,"Chester ",New York,10918,http://www.longlotfarmbrewery.com,8453372940,2018-07-24 01:33:52.297841,2018-08-11 21:38:37.546018,United States,,,
rushing-duck-brewing-co,Rushing Duck Brewing Co,micro,1 Battiato Ln,Chester,New York,10918-1283,http://www.rushingduck.com,8456105440,2018-07-24 01:33:53.257026,2018-08-24 15:40:08.932366,United States,-74.270801,41.362221,
the-new-buffalo-brewing-co-inc,The New Buffalo Brewing Co. Inc,contract,11163 Main St,Clarence,New York,14031-1701,http://www.newbuffalobrewing.com,7162007275,2018-07-24 01:33:54.08,2018-08-24 15:40:34.296522,United States,-78.5705294096029,42.9844251745315,
west-shore-brewing-co,West Shore Brewing Co,micro,10995 Main St,Clarence,New York,14031-1735,http://westshorebrewing.com,7169983752,2018-07-24 01:33:54.482103,2018-08-24 15:40:48.151896,United States,-78.5781031804312,42.9820064750121,
freight-yard-brewing-llc,Freight Yard Brewing LLC,proprietor,4975 State Route 31,Clay,New York,13041,http://www.freightyardbrewing.com,3158342529,2018-07-24 01:33:51.072238,2018-08-24 15:39:00.418135,United States,-76.1717955561669,43.1859245926945,
wood-boat-brewery,Wood Boat Brewery,brewpub,625 Mary St Ste A,Clayton,New York,13624-1131,http://www.woodboatbrewery.com,3156863233,2018-07-24 01:33:54.604729,2018-08-11 21:38:43.995469,United States,,,
shmaltz-brewing-co,Shmaltz Brewing Co,micro,6 Fairchild Sq # 1,Clifton Park,New York,12065-1254,http://www.shmaltzbrewing.com,5184065430,2018-07-24 01:33:53.533011,2018-08-11 21:38:41.276352,United States,,,
table-41-brewing-co,Table 41 Brewing Co.,micro,4 Dunsback Ferry Rd,Cohoes,New York,12047-5016,http://www.table41brewing.com,5185270221,2018-07-24 01:33:53.950528,2018-08-11 21:38:42.306947,United States,,,
midriver-brewery,Midriver Brewery,planning,,Cold Spring,New York,10516,,9146611790,2018-07-24 01:33:52.415853,2018-08-11 21:38:37.853557,United States,,,
college-point-brewery,College Point Brewery,planning,,College Point,New York,11356-2715,,,2018-07-24 01:33:50.283592,2018-08-11 21:38:32.538921,United States,,,
brewery-ommegang,Brewery Ommegang,regional,656 County Highway 33,Cooperstown,New York,13326-4737,http://www.ommegang.com,8005441809,2018-07-24 01:33:49.822527,2018-08-24 15:38:16.916099,United States,-74.855063,42.753418,
council-rock-brewery,Council Rock Brewery,brewpub,4861 State Highway 28 Ste 3,Cooperstown,New York,13326-5229,http://www.councilrockbrewery.com,6076433016,2018-07-24 01:33:50.401086,2018-08-11 21:38:32.842685,United States,,,
careys-brew-house,Carey's Brew House,brewpub,58 Bridge St,Corning,New York,14830-2239,http://www.careysbrewhouse.com,6073775651,2018-07-24 01:33:50.130697,2018-08-24 15:38:26.698315,United States,-77.0608970416667,42.1502577083333,
iron-flamingo-brewery,Iron Flamingo Brewery,micro,196 Baker St,Corning,New York,14830-2074,http://www.ironflamingobrewery.com,6079364766,2018-07-24 01:33:51.821435,2018-08-24 15:39:25.22198,United States,-77.0564722,42.1551591,
liquid-shoes-brewing,Liquid Shoes Brewing,micro,26 E Market St,Corning,New York,14830,http://www.liquidshoesbrewing.com,6074639726,2018-07-24 01:33:52.208774,2018-08-24 15:39:36.390143,United States,-77.0530128947368,42.1430647894737,
market-street-brewing-co,Market Street Brewing Co,brewpub,63 W Market St # 65,Corning,New York,14830-2526,http://www.936-beer.com,6079362337,2018-07-24 01:33:52.374239,2018-08-24 15:39:42.836286,United States,-77.0571571,42.143984,
cortland-beer-company,Cortland Beer Company,micro,16 Court St,Cortland,New York,13045-2604,http://www.cortlandbeer.com,6076624389,2018-07-24 01:33:50.388557,2018-08-24 15:38:36.160424,United States,-76.1798977083333,42.5994031041667,
212-brewing-company,212 Brewing Company,contract,21476 Route 23,Davenport,New York,13750,,2123779050,2018-07-24 01:33:48.947012,2018-08-11 21:38:29.172778,United States,,,
real-mccoy-beer-co,Real McCoy Beer Co.,micro,20 Hallwood Rd Unit C,Delmar,New York,12054-1925,http://www.therealmccoybeerco.com,5186989082,2018-07-24 01:33:53.009618,2018-08-11 21:38:39.523343,United States,,,
township-7-brewing-co-llc,Township 7 Brewing Co. LLC,micro,303 State Route 11b,Dickinson Center,New York,12930-2008,http://www.township7brewing.com,5186519532,2018-07-24 01:33:54.206876,2018-08-11 21:38:42.946431,United States,,,
ferrari-beer-company,Ferrari Beer Company,micro,160 Ashford Ave,Dobbs Ferry,New York,10522-1906,http://www.ferraribeer.com,9146937340,2018-07-24 01:33:50.819796,2018-08-24 15:38:51.558149,United States,-73.861616145289,41.0145232646406,
bacchus-brewing,Bacchus Brewing,micro,15 Ellis Dr,Dryden,New York,13053-9630,http://www.bacchusbrewing.com,6078448474,2018-07-24 01:33:49.239643,2018-08-24 15:38:04.663769,United States,-76.2990417142857,42.4996697142857,
seneca-lake-brewing-company,Seneca Lake Brewing Company,micro,5430 NY-14,Dundee,New York,14837-8838,http://www.senecalakebrewing.com,6072168369,2018-07-24 01:33:53.45825,2018-08-11 21:38:41.039915,United States,,,
honey-hollow-brewery,Honey Hollow Brewery,micro,376 E. Honey Rd.,Earlton,New York,12058,http://www.honeyhollowbrewery.com,5189665560,2018-07-24 01:33:51.640044,2018-08-11 21:38:36.030341,United States,,,
42-north-brewing-company,42 North Brewing Company,brewpub,25 Pine St,East Aurora,New York,14052-1827,http://www.42northbrewing.com,7168057500,2018-07-24 01:33:48.960346,2018-08-24 15:37:56.627778,United States,-78.607989,42.769311,
helderberg-mountain-brewing-company,Helderberg Mountain Brewing Company,micro,83 Main St,East Berne,New York,12059-2020,http://www.helderbergmountainbrewingcompany.com,5189373606,2018-07-24 01:33:51.588051,2018-08-24 15:39:17.951531,United States,-74.0730607857677,42.6150962690438,
brewery-in-planning-east-rochester-ny,"Brewery in Planning - East Rochester, NY",planning,,East Rochester,New York,14445,,,2018-07-24 01:33:49.678152,2018-08-11 21:38:31.127016,United States,,,
shrewd-fox-brewery,Shrewd Fox Brewery,micro,552 NY State Highway 55,Eldred,New York,12732,http://www.shrewdfoxbrewery.com,8455578255,2018-07-24 01:33:53.546233,2018-08-11 21:38:41.303658,United States,,,
sloop-brewing,Sloop Brewing,micro,1065 County Route 19,Elizaville,New York,12523-1205,http://www.sloopbrewing.com,9178483865,2018-07-24 01:33:53.651345,2018-08-24 15:40:22.02246,United States,-73.797148,42.084393,
ellicottville-brewing-co,Ellicottville Brewing Co,micro,28 Monroe St,Ellicottville,New York,14731,http://www.ellicottvillebrewing.com,7166992537,2018-07-24 01:33:50.702489,2018-08-24 15:38:47.310366,United States,-78.6704970085185,42.27511725,
upstate-brewing-co,Upstate Brewing Co,micro,3028 Lake Rd,Elmira,New York,14903-1409,http://www.upstatebrewing.com,6175198381,2018-07-24 01:33:54.325718,2018-08-11 21:38:43.259767,United States,,,
captain-lawrence-brewing-co,Captain Lawrence Brewing Co,regional,444 Saw Mill River Rd Ste 100,Elmsford,New York,10523-1031,http://www.captainlawrencebrewing.com,9147412337,2018-07-24 01:33:50.11796,2018-08-24 15:38:26.180086,United States,-73.839113,41.03486,
north-brewery,North Brewery,micro,110 Washington Ave,Endicott,New York,13760-5307,http://www.northbrewery.com,6077850524,2018-07-24 01:33:52.612416,2018-08-24 15:39:49.377243,United States,-76.0482780204082,42.102192,
brewery-in-planning-fabius,Brewery in Planning - Fabius,planning,,Fabius,New York,13063-8710,,3154479511,2018-07-24 01:33:49.690134,2018-08-11 21:38:31.163977,United States,,,
fairport-brewing-co,Fairport Brewing Co,micro,99 S Main St,Fairport,New York,14450-2100,http://www.fairportbrewing.com,5857520613,2018-07-24 01:33:50.792859,2018-08-24 15:38:50.407527,United States,-77.4416792,43.0988098,
fairport-brewing-co,Fairport Brewing Co,micro,1000 Turk Hill Rd Ste 298,Fairport,New York,14450-8755,,5857520613,2018-07-24 01:33:50.779451,2018-08-11 21:38:33.786405,United States,,,
triphammer-bierwerks,Triphammer Bierwerks,micro,111 Parce Ave Ste 3A-1,Fairport,New York,14450-1467,http://www.triphammerbierwerks.com,5853888281,2018-07-24 01:33:54.244729,2018-08-11 21:38:43.046984,United States,,,
black-forest-brew-haus,Black Forest Brew Haus,brewpub,2015 New Hwy,Farmingdale,New York,11735-1103,http://www.blackforestbrewhaus.com,6313919500,2018-07-24 01:33:49.458606,2018-08-24 15:38:10.962358,United States,-73.4144329120839,40.7550515,
barrage-brewing-co,Barrage Brewing Co,micro,32 Allen Blvd Ste E,Farmingdale,New York,11735-5625,http://www.barragebrewing.com,6313357941,2018-07-24 01:33:49.294531,2018-08-11 21:38:30.016716,United States,,,
flying-belgian-brewery,Flying Belgian Brewery,micro,211 Main St,Farmingdale,New York,11735-2675,http://www.flyingbelgianbrewery.com,8184577548,2018-07-24 01:33:50.953011,2018-08-24 15:38:56.715952,United States,-73.4458865143907,40.7335978795963,
lithology-brewing,Lithology Brewing,proprietor,211 Main St Ste A,Farmingdale,New York,11735-2675,http://Lithologybrewing.com,6316783613,2018-07-24 01:33:52.235289,2018-08-11 21:38:37.384263,United States,,,
tweaking-frog-brewing-company,Tweaking Frog Brewing Company,micro,211 Main St Ste A,Farmingdale,New York,11735-2675,http://www.tweakingfrogbrewing.com,6318975509,2018-07-24 01:33:54.269975,2018-08-11 21:38:43.142268,United States,,,
sevens-brew-pub,Sevens Brew Pub,brewpub,5857 Route 96,Farmington,New York,14425,http://www.fingerlakesgaming.com,5959243232,2018-07-24 01:33:53.5081,2018-08-11 21:38:41.214729,United States,,,
glenmere-brewing-co-inc,"Glenmere Brewing Co, Inc",micro,55 Maple Ave,Florida,New York,10921-1124,http://www.glenmerebrewingco.com,8456511939,2018-07-24 01:33:51.263162,2018-08-24 15:39:06.969333,United States,-74.360033,41.335404,
mikkeller-brewing-nyc,Mikkeller Brewing NYC,brewpub,12001 Roosevelt Ave,Flushing,New York,11368-1653,http://mikkellernyc.com,9175720357,2018-07-24 01:33:52.428006,2018-08-11 21:38:37.908536,United States,,,
battle-hill-brewing-company,Battle Hill Brewing Company,micro,4 Charles Street,Fort Ann,New York,12827,http://www.battlehillbrewing.com,5186391033,2018-07-24 01:33:49.323724,2018-08-24 15:38:07.32262,United States,-73.487393457003,43.41676935,
busters-brew-pub,Buster's Brew Pub,brewpub,Euphrates River Valley Road Bldg P-4350,Fort Drum,New York,13602,http://www.drummwr.com,3157721900,2018-07-24 01:33:50.075425,2018-08-11 21:38:31.98815,United States,,,
brewsa-brewing-co,BrewSA Brewing Co,micro,180 Woodcleft Ave,Freeport,New York,11520-6336,http://www.brewsa.com,5163772751,2018-07-24 01:33:49.839254,2018-08-24 15:38:17.394694,United States,-73.582368,40.635176,
hopshire-farm-and-brewery,Hopshire Farm and Brewery,micro,1771 Dryden Rd,Freeville,New York,13068-,http://www.hopshire.com,6072791243,2018-07-24 01:33:51.669409,2018-08-11 21:38:36.131048,United States,,,
country-town-farm-brewery,Country Town Farm Brewery,planning,,Friendship,New York,14739,,5858088995,2018-07-24 01:33:50.414094,2018-08-11 21:38:32.872827,United States,,,
tuthilltown-spirits,Tuthilltown Spirits,planning,,Gardiner,New York,12525-5528,,8452551527,2018-07-24 01:33:54.25698,2018-08-11 21:38:43.11171,United States,,,
yard-owl-craft-brewery,Yard Owl Craft Brewery,brewpub,19 Osprey Ln,Gardiner,New York,12525-5339,http://www.yardowlcraftbrewery.com,8456338576,2018-07-24 01:33:54.699137,2018-08-24 15:40:54.170289,United States,-74.1471691635402,41.6915465800069,
industrial-arts-brewing-co,Industrial Arts Brewing Co.,micro,55 W Railroad Ave # 25W,Garnerville,New York,10923-1261,http://www.industrialartsbrewing.com,8459428776,2018-07-24 01:33:51.759571,2018-08-11 21:38:36.349659,United States,,,
butternuts-beer,Butternuts Beer,micro,4021 State Highway 51,Garrattsville,New York,13342-1705,http://www.butternutsbeer.com,6072635070,2018-07-24 01:33:50.090114,2018-08-24 15:38:25.121304,United States,-75.1914973012008,42.6239624272496,
bottomless-brewing-llc,"Bottomless Brewing, LLC",brewpub,3543 E Lake Rd,Geneva,New York,14456-9261,http://www.bottomlessbrewing.com,3153254380,2018-07-24 01:33:49.570697,2018-08-11 21:38:30.870177,United States,,,
gc-starkey-beer-company,G.C. Starkey Beer Company,contract,68 Castle St Apt 1C,Geneva,New York,14456-2648,http://www.starkeyslookout.com,6076784043,2018-07-24 01:33:51.126076,2018-08-11 21:38:34.672889,United States,,,
gael-brewing-co,Gael Brewing Co,micro,4180 State Route 14,Geneva,New York,14456-9753,http://www.gaelbrewing.com,3152200190,2018-07-24 01:33:51.140369,2018-08-11 21:38:34.699993,United States,,,
lake-drum-brewing,Lake Drum Brewing,micro,16 E Castle St,Geneva,New York,14456-2400,http://www.lakedrumbrewing.com,3157891200,2018-07-24 01:33:52.083977,2018-08-24 15:39:33.014247,United States,-76.9809403459945,42.8677738,
war-horse-brewing-company,War Horse Brewing Company,brewpub,623 Lerch Rd Ste 5,Geneva,New York,14456-9295,http://www.3brotherswinery.com,3155854432,2018-07-24 01:33:54.417098,2018-08-11 21:38:43.530322,United States,,,
webe-brewing-company,WeBe Brewing Company,micro,796 Pre-Emption Road,Geneva,New York,14456,http://www.WeBeBrewing.com,3153254834,2018-07-24 01:33:54.454577,2018-08-24 15:40:47.208639,United States,-77.0111032644691,42.8646371432583,
garvies-point-brewery,Garvies Point Brewery,micro,1 Garvies Point Rd,Glen Cove,New York,11542-2821,http://www.garviespointbrewery.com,5168151999,2018-07-24 01:33:51.193749,2018-08-24 15:39:04.481968,United States,-73.644083,40.858979,
davidson-brothers-restaurant-and-brewery,Davidson Brothers Restaurant and Brewery,brewpub,184 Glen St Rte 9,Glens Falls,New York,12801-0409,http://www.davidsonbrothers.com,5187439026,2018-07-24 01:33:50.506707,2018-08-11 21:38:33.117173,United States,,,
coopers-cave-ale-co,Coopers Cave Ale Co,brewpub,2 Sagamore St,Glens Falls,New York,12801-3179,http://www.cooperscaveale.com,5187920007,2018-07-24 01:33:50.338057,2018-08-24 15:38:33.830706,United States,-73.6399437,43.3177399,
mean-max-brew-works,Mean Max Brew Works,micro,193 Glen St # 2,Glens Falls,New York,12801-3539,http://www.meanmaxbrew.com,5187932337,2018-07-24 01:33:52.388054,2018-08-24 15:39:43.294125,United States,-73.6445186132549,43.31016635,
stump-city-brewing-llc,Stump City Brewing LLC,micro,521 W Fulton Street Ext,Gloversville,New York,12078-6309,http://www.stumpcitybrewing.com,5188310722,2018-07-24 01:33:53.861372,2018-08-11 21:38:42.081176,United States,,,
adirondack-toboggan-company-microbrewery,Adirondack Toboggan Company Microbrewery,micro,202A W Main St,Gouverneur,New York,13642-1334,http://www.adktoboggan.net,3157716313,2018-07-24 01:33:49.045096,2018-08-24 15:37:58.899317,United States,-75.4748923846074,44.3323731052224,
hop-barn-brewing,Hop Barn Brewing,micro,94 Maple Ave,Greenville,New York,12083-3311,http://hopbarnbrewing.com,5189564762,2018-07-24 01:33:51.655297,2018-08-24 15:39:19.404355,United States,-74.0551081694932,42.4213433306986,
argyle-brewing-company,Argyle Brewing Company,micro,1 Main St,Greenwich,New York,12834-1209,http://www.argylebrewing.com,5183387405,2018-07-24 01:33:49.161834,2018-08-24 15:38:01.772791,United States,-73.496758,43.08767125,
summerhill-brewing-llc,Summerhill Brewing LLC,micro,384 Champlin Rd N. Cayuga County,Groton,New York,13073-3212,http://www.facebook.com/Summerhill.brewing/,6075916148,2018-07-24 01:33:53.885934,2018-08-24 15:40:28.514966,United States,-76.2960182445814,42.6359438748297,
hamburg-brewing-company,Hamburg Brewing Company,micro,6553 Boston State Rd,Hamburg,New York,14075-6630,http://www.hamburgbrewing.com,7166493249,2018-07-24 01:33:51.47925,2018-08-11 21:38:35.551442,United States,,,
good-nature-farm-brewery,Good Nature Farm Brewery,micro,1727 State Route 12b,Hamilton,New York,13346-2268,http://goodnaturebrewing.com,3158242337,2018-07-24 01:33:51.276486,2018-08-24 15:39:07.433577,United States,-75.5456055102041,42.807293,
finger-lakes-beer-co,Finger Lakes Beer Co,micro,8462 State Route 54,Hammondsport,New York,14840-9795,,6075693311,2018-07-24 01:33:50.872352,2018-08-11 21:38:34.011878,United States,,,
keuka-brewing-co,Keuka Brewing Co,micro,8572 Briglin Rd,Hammondsport,New York,14840-9633,http://www.keukabrewingcompany.com,6078684648,2018-07-24 01:33:51.985504,2018-08-11 21:38:36.832471,United States,,,
steuben-brewing-company,Steuben Brewing Company,micro,10286 Judson Rd,Hammondsport,New York,14840-9668,http://www.steubenbrewingcompany.com,6072798874,2018-07-24 01:33:53.768071,2018-08-11 21:38:41.909804,United States,,,
the-brewery-of-broken-dreams,The Brewery of Broken Dreams,micro,8319 Pleasant Valley Rd,Hammondsport,New York,14840-9549,http://www.thebreweryofbrokendreams.com,6072244050,2018-07-24 01:33:54.003907,2018-08-11 21:38:42.43224,United States,,,
scale-house-brewery,Scale House Brewery,brewpub,5930 State Route 414,Hector,New York,14841-9662,http://www.scalehousebrews.com,6075462030,2018-07-24 01:33:53.419826,2018-08-11 21:38:40.942538,United States,,,
lucky-hare-brewing-company-inc,"Lucky Hare Brewing Company, Inc.",micro,6085 Beckhorn Road,Hector,New York,14841,http://www.luckyharebrewing.com,6075462036,2018-07-24 01:33:52.322673,2018-08-11 21:38:37.601945,United States,,,
pantomime-mixtures,Pantomime Mixtures,planning,,Hector,New York,14841-9629,http://www.pantomimemxitures.com,6319442668,2018-07-24 01:33:52.722218,2018-08-11 21:38:38.765056,United States,,,
barnshed-brewing,Barnshed Brewing,micro,100 Lauman Ln,Hicksville,New York,11801-6574,http://www.barnshedbrewing.com,5163766514,2018-07-24 01:33:49.281336,2018-08-24 15:38:05.974531,United States,-73.5009425631332,40.74420335,
hudson-ale-works,Hudson Ale Works,brewpub,17 Milton Ave,Highland,New York,12528-1409,http://www.hudsonaleworks.com,8453842531,2018-07-24 01:33:51.683247,2018-08-24 15:39:20.366578,United States,-73.9639039323876,41.717539,
wood-kettle-brewing,Wood Kettle Brewing,brewpub,1192 Manitou Rd,Hilton,New York,14468-9331,,5853664183,2018-07-24 01:33:54.620049,2018-08-11 21:38:44.024778,United States,,,
miles-craft-ales-miles-wine-cellars,Miles Craft Ales @ Miles Wine Cellars,contract,168 Randall Rd,Himrod,New York,14842-9715,http://www.mileswinecellars.com,6072437742,2018-07-24 01:33:52.440409,2018-08-11 21:38:37.966865,United States,,,
1940s-brewing-company,1940's Brewing Company,micro,1337 Lincoln Ave Unit 1,Holbrook,New York,11741-2275,http://www.1940sbrewingcompany.com,6315334838,2018-07-24 01:33:48.919689,2018-08-11 21:38:29.022602,United States,,,
saint-james-brewery,Saint James Brewery,micro,929 Lincoln Ave Ste 11,Holbrook,New York,11741-2256,http://www.saintjamesbrewery.com,6217073192,2018-07-24 01:33:53.3369,2018-08-11 21:38:40.64538,United States,,,
spider-bite-brewing-co,Spider Bite Brewing Co,micro,920 Lincoln Ave Unit 5,Holbrook,New York,11741-2257,http://www.spiderbitebeer.com,6319423255,2018-07-24 01:33:53.717413,2018-08-11 21:38:41.758968,United States,,,
squarehead-brewing,SquareHead Brewing,micro,405 High St Ste 1,Holbrook,New York,11741-5317,http://www.squareheadbrewing.com,6319213060,2018-07-24 01:33:53.730175,2018-08-11 21:38:41.807191,United States,,,
16-stone-brewpub,16 Stone Brewpub,brewpub,9542 Main St,Holland Patent,New York,13354,http://www.16stonebrewpub.com,3158658500,2018-07-24 01:33:48.905838,2018-08-24 15:37:54.706139,United States,-75.2565195,43.24211175,
cb-craft-brewers,CB Craft Brewers,micro,300 Village Square Blvd,Honeoye Falls,New York,14472-1180,http://www.cbcraftbrewers.com,5856244386,2018-07-24 01:33:50.170878,2018-08-11 21:38:32.222201,United States,,,
railhead-brewing-company,Railhead Brewing Company,brewpub,40 Park Dr,Hornell,New York,14843-2213,http://www.railheadbrewing.com,6073243286,2018-07-24 01:33:52.957779,2018-08-11 21:38:39.405405,United States,,,
serious-brewing-co,Serious Brewing Co.,micro,116 Caverns Rd,Howes Cave,New York,12092,,5188264050,2018-07-24 01:33:53.495344,2018-08-11 21:38:41.174152,United States,,,
old-klaverack-brewery,Old Klaverack Brewery,micro,150 Thielman Rd,Hudson,New York,12534-3716,http://www.oldklaverackbrewery.com,5189651437,2018-07-24 01:33:52.662142,2018-08-11 21:38:38.606428,United States,,,
suarez-family-brewery,Suarez Family Brewery,micro,2278 RT. 9,Hudson,New York,12534-4701,http://www.suarezfamilybrewery.com,5185376464,2018-07-24 01:33:53.873607,2018-08-11 21:38:42.117558,United States,,,
six-harbors-brewing-company,Six Harbors Brewing Company,proprietor,243 New York Ave.,Huntington,New York,11743-2719,,5166803528,2018-07-24 01:33:53.598696,2018-08-24 15:40:20.538707,United States,-73.4253168048905,40.8749628,
brewery-at-the-culinary-institute-of-america,Brewery At The Culinary Institute Of America,brewpub,1946 Campus Dr,Hyde Park,New York,12538,,,2018-07-24 01:33:49.623843,2018-08-24 15:38:16.403231,United States,-73.9331926,41.7459268,
hyde-park-brewing-co,Hyde Park Brewing Co,micro,4076 Albany Post Rd,Hyde Park,New York,12538-1934,http://www.hydeparkbrewing.com,8452298277,2018-07-24 01:33:51.713736,2018-08-24 15:39:21.549379,United States,-73.9300774703213,41.7667482404549,
crazy-williez-brewery,Crazy Williez Brewery,contract,546 Silver St,Ilion,New York,13357,,,2018-07-24 01:33:50.45254,2018-08-11 21:38:32.975973,United States,,,
bandwagon-brewery,Bandwagon Brewery,micro,3582 West Ave,Interlaken,New York,14847,http://www.bandwagonbeer.com,6072295608,2018-07-24 01:33:49.253963,2018-08-24 15:38:05.092314,United States,-76.7278241025641,42.6166195641026,
ithaca-beer-co,Ithaca Beer Co,regional,122 Ithaca Beer Dr,Ithaca,New York,14850-8813,http://www.ithacabeer.com,6072730766,2018-07-24 01:33:51.867287,2018-08-11 21:38:36.603189,United States,,,
liquid-state-brewing-company,Liquid State Brewing Company,micro,620 West Green Street,Ithaca,New York,14850,http://www.liquidstatebrewing.com,,2018-07-24 01:33:52.222251,2018-08-24 15:39:36.892061,United States,-76.5077547029087,42.4384431248288,
scale-house-brewery-and-pub,Scale House Brewery & Pub,brewpub,23 Cinema Dr Ste C,Ithaca,New York,14850-1682,http://www.scalehousebrewpub.com,6072570107,2018-07-24 01:33:53.431807,2018-08-11 21:38:40.975223,United States,,,
jamestown-brewing-company,Jamestown Brewing Company,planning,,Jamestown,New York,14701-5110,,7168644257,2018-07-24 01:33:51.906022,2018-08-11 21:38:36.661214,United States,,,
hill-country-farm-brewery,Hill Country Farm Brewery,planning,,Jamesville,New York,13078-9637,http://Hillcountryfarmbrewery.com,3157667885,2018-07-24 01:33:51.613259,2018-08-11 21:38:35.961123,United States,,,
binghamton-brewing-co,Binghamton Brewing Co,micro,15 Avenue B,Johnson City,New York,13790-2234,http://www.bingbrew.com,6072383448,2018-07-24 01:33:49.432598,2018-08-24 15:38:09.578738,United States,-75.9533758379412,42.1147356297149,
ausable-brewing-co,Ausable Brewing Co,micro,765 Mace Chasm Rd,Keeseville,New York,12944-2425,http://ausablebrewing.tumblr.com,3152443295,2018-07-24 01:33:49.213584,2018-08-11 21:38:29.824222,United States,,,
aurora-ale-and-lager,Aurora Ale & Lager,micro,1891 State Route 90 N,King Ferry,New York,13081-9719,http://www.brewaurora.com,,2018-07-24 01:33:49.200582,2018-08-11 21:38:29.794535,United States,,,
kingston-standard-brewing-co,Kingston Standard Brewing Co.,planning,,Kingston,New York,12401,http://www.kingstonstandard.com,,2018-07-24 01:33:52.037156,2018-08-11 21:38:36.94238,United States,,,
keegan-ales,Keegan Ales,micro,20 Saint James St,Kingston,New York,12401-4534,http://www.keeganales.com,8453312739,2018-07-24 01:33:51.934664,2018-08-24 15:39:28.166469,United States,-74.012151,41.931636,
adirondack-pub-and-brewery,Adirondack Pub and Brewery,micro,33 Canada St,Lake George,New York,12845-1603,http://www.adkpub.com,5186680002,2018-07-24 01:33:49.028648,2018-08-24 15:37:58.441411,United States,-73.7140776270713,43.41850655,
big-slide-brewery,Big Slide Brewery,brewpub,5686 Cascade Road,Lake Placid,New York,12946,http://www.bigslidebrewery.com,5185237844,2018-07-24 01:33:49.406361,2018-08-24 15:38:08.685015,United States,-73.9697761501818,44.2646123713898,
great-adirondack-brewing-company,Great Adirondack Brewing Company,brewpub,2442 Main St,Lake Placid,New York,12946-3300,http://www.adksteakandseafood.com,5185231629,2018-07-24 01:33:51.329923,2018-08-24 15:39:08.980387,United States,-73.985385,44.288397,
lake-placid-pub-and-brewery,Lake Placid Pub and Brewery,brewpub,813 Mirror Lake Dr,Lake Placid,New York,12946-3829,http://www.ubuale.com,5185233813,2018-07-24 01:33:52.118798,2018-08-24 15:39:34.120499,United States,-73.9810830644859,44.2834097317484,
southern-tier-brewing-co,Southern Tier Brewing Co,regional,2072 Stoneman Cir,Lakewood,New York,14750-9779,http://www.southerntierbrewing.com,7167635479,2018-07-24 01:33:53.704073,2018-08-11 21:38:41.726296,United States,,,
salt-point-brewing-co-llc,"Salt Point Brewing Co, LLC",brewpub,2075 East Shore Dr,Lansing,New York,14882,,6075330124,2018-07-24 01:33:53.3633,2018-08-24 15:40:12.070189,United States,-76.50592052715,42.5368900455559,
brickyard-brewing-company,Brickyard Brewing Company,brewpub,436 Center St,Lewiston,New York,14092-1604,http://www.brickyardbrewingcompany.com,7167547227,2018-07-24 01:33:49.866926,2018-08-24 15:38:18.368553,United States,-79.0430641935125,43.1729221977036,
dublin-corners-farm-brewery,Dublin Corners Farm Brewery,micro,1906 Main St,Linwood,New York,14486-9707,http://www.dublincornersfarm.com,5855384796,2018-07-24 01:33:50.61218,2018-08-11 21:38:33.390916,United States,,,
catskill-brewery,Catskill Brewery,micro,672 Old Route 17,Livingston Manor,New York,12758-0033,http://www.catskillbrewery.com,8454391232,2018-07-24 01:33:50.14414,2018-08-24 15:38:27.234823,United States,-74.827173,41.911407,
upward-brewing-co,Upward Brewing Co.,planning,,Livingston Manor,New York,12758-,http://www.upwardbrewing.com,8457980471,2018-07-24 01:33:54.338814,2018-08-11 21:38:43.29198,United States,,,
new-york-beer-project,New York Beer Project,brewpub,6933 S Transit Rd,Lockport,New York,14094-6330,http://www.nybeerproject.com,7167436927,2018-07-24 01:33:52.550993,2018-08-24 15:39:47.315345,United States,-78.6961433591614,43.0897514,
wagner-valley-brewing-co,Wagner Valley Brewing Co,micro,9322 Route 414,Lodi,New York,14860-9641,http://www.wagnerbrewing.com,6075826450,2018-07-24 01:33:54.392295,2018-08-11 21:38:43.458288,United States,,,
big-alice-brewing-company,Big Alice Brewing Company,micro,808 43rd Rd,Long Island City,New York,11101-6820,http://www.bigalicebrewing.com,3476882337,2018-07-24 01:33:49.367193,2018-08-11 21:38:30.374307,United States,,,
alewife-brewing-company,Alewife Brewing Company,brewpub,514 51st Ave,Long Island City,New York,11101-5879,http://www.alewife.beer,7189377494,2018-07-24 01:33:49.074535,2018-08-24 15:37:59.376646,United States,-73.9562525714286,40.7423221428571,
brewery-in-planning-long-island-city,Brewery in Planning - Long Island City,planning,,Long Island City,New York,11101-5574,,9176874204,2018-07-24 01:33:49.702965,2018-08-11 21:38:31.19739,United States,,,
fifth-hammer-brewing-company,Fifth Hammer Brewing Company,micro,10-28 46th Ave,Long Island City,New York,11101-5217,http://www.fifthhammerbrewing.com,7186632084,2018-07-24 01:33:50.845801,2018-08-24 15:38:52.634744,United States,-73.9515404,40.7464921,
iconyc-brewing-company,Iconyc Brewing Company,micro,45-13 34th Ave,Long Island City,New York,11101-1041,http://www.iconycbrewing.com,3473421360,2018-07-24 01:33:51.728134,2018-08-11 21:38:36.265479,United States,,,
lic-beer-project,LIC Beer Project,micro,3928 23rd St,Long Island City,New York,11101-4817,http://licbeerproject.com,9178326840,2018-07-24 01:33:52.149061,2018-08-24 15:39:35.26543,United States,-73.942849,40.75063,
rockaway-brewing-company,Rockaway Brewing Company,micro,4601 5th St,Long Island City,New York,11101-5369,http://www.rockawaybrewco.com,7184826528,2018-07-24 01:33:53.118598,2018-08-24 15:40:05.178002,United States,-73.9573397,40.7404088,
transmitter-brewing,Transmitter Brewing,micro,5302 11th St,Long Island City,New York,11101-5917,http://www.transmitterbrew.com,6463788529,2018-07-24 01:33:54.21965,2018-08-24 15:40:40.181478,United States,-73.9511062,40.7431826,
barkeater-craft-brewery,BarkEater Craft Brewery,proprietor,5411 Shady Ave,Lowville,New York,13367-1601,http://www.barkeaterbrew.com,3157758959,2018-07-24 01:33:49.26742,2018-08-24 15:38:05.552793,United States,-75.4867252,43.7874658,
route-6-tap-house/-putnam-brewery,Route 6 Tap House/ Putnam Brewery,brewpub,728 US-6,Mahopac,New York,10541,http://www.facebook.com/Putnam-Brewery-165364887155377/,8456287302,2018-07-24 01:33:53.231544,2018-08-24 15:40:08.033803,United States,-73.7264240578384,41.3775057085326,
owls-rest-brewery,Owls Rest Brewery,planning,,Malone,New York,12953-1517,,,2018-07-24 01:33:52.69791,2018-08-11 21:38:38.702071,United States,,,
decadent-ales,Decadent Ales,micro,607A E Boston Post Rd,Mamaroneck,New York,10543-,http://www.decadentales.com,8005981085,2018-07-24 01:33:50.53358,2018-08-24 15:38:42.07931,United States,-73.727552059454,40.9519367501854,
velveteen-brewing-co,Velveteen Brewing Co,planning,,Mamaroneck,New York,10543-4719,,,2018-07-24 01:33:54.377372,2018-08-11 21:38:43.426228,United States,,,
reinvention-brewing-co,Reinvention Brewing Co.,micro,9 N Main St PO Box 57,Manchester,New York,14504-9713,http://www.reinventionbrewing.com,5852897309,2018-07-24 01:33:53.053397,2018-08-11 21:38:39.607553,United States,,,
limestone-creek-brewing-company,Limestone Creek Brewing Company,planning,,Manlius,New York,13104,,,2018-07-24 01:33:52.163742,2018-08-11 21:38:37.197605,United States,,,
seneca-street-brew-pub,Seneca Street Brew Pub,brewpub,315 E Seneca St Ste 1,Manlius,New York,13104-1860,http://www.senecastreetbrewpub.com,3156826968,2018-07-24 01:33:53.483116,2018-08-11 21:38:41.135011,United States,,,
tims-pumpkin-patch,Tim's Pumpkin Patch,micro,2901 Rose Hill Rd,Marietta,New York,13110-3236,http://www.timspumpkinpatch.com,3156739209,2018-07-24 01:33:54.182093,2018-08-24 15:40:38.414785,United States,-76.34398,42.911678,
eastern-front-brewing-co,Eastern Front Brewing Co,micro,425 Westphalin Rd,Mattituck,New York,11952,http://www.facebook.com/easternfrontbrewing/,6319051535,2018-07-24 01:33:50.650985,2018-08-11 21:38:33.49712,United States,,,
big-inlet-brewing,Big Inlet Brewing,planning,,Mayville,New York,14757-9730,http://www.biginletbrewing.com,7165737564,2018-07-24 01:33:49.393581,2018-08-11 21:38:30.436574,United States,,,
hank-hudson-brewing-at-fairways-of-halfmoon,Hank Hudson Brewing At Fairways of Halfmoon,brewpub,17 Johnson Rd,Mechanicville,New York,12118-3505,,5186641578,2018-07-24 01:33:51.494622,2018-08-11 21:38:35.591531,United States,,,
brewery-in-planning-medina,Brewery in Planning - Medina,planning,,Medina,New York,14103-9666,,,2018-07-24 01:33:49.7153,2018-08-11 21:38:31.23345,United States,,,
green-wolf-brewing-co,Green Wolf Brewing Co,micro,315 Main St,Middleburgh,New York,12122-,http://www.greenwolfbrew.com,5188276444,2018-07-24 01:33:51.380932,2018-08-24 15:39:10.682587,United States,-74.334814,42.598257,
clemson-bros-brewery,Clemson Bros. Brewery,brewpub,22 Cottage St,Middletown,New York,10940-5059,http://www.clemsonbrewing.com,8457754638,2018-07-24 01:33:50.257382,2018-08-24 15:38:31.129667,United States,-74.4162249451654,41.4469302779275,
equilibrium-brewery,Equilibrium Brewery,micro,22 Henry Street,Middletown,New York,10940,http://www.eqbrew.com,8457754216,2018-07-24 01:33:50.753676,2018-08-24 15:38:48.858086,United States,-74.4214393429694,41.4464696544258,
svendale-brewing-co,Svendale Brewing Co,micro,,Millerton,New York,12546-4553,http://svendale.com,9177039873,2018-07-24 01:33:53.899252,2018-08-11 21:38:42.179705,United States,,,
montauk-brewing-co,Montauk Brewing Co,micro,62 S Erie Ave,Montauk,New York,11954-5370,http://www.montaukbrewingco.com,6316688471,2018-07-24 01:33:52.477337,2018-08-24 15:39:45.222929,United States,-71.9440878,41.0366959,
heavily-brewing-company,Heavily Brewing Company,micro,2471 Hayes Rd,Montour Falls,New York,14865,http://www.heavilybrewingcompany.com,6075352739,2018-07-24 01:33:51.561523,2018-08-24 15:39:16.958194,United States,-76.8262502938154,42.3545291057948,
northern-harvest-brewing-company,Northern Harvest Brewing Company,planning,,Moriah,New York,12960-2306,http://www.northernharvest.beer,5184682337,2018-07-24 01:33:52.649638,2018-08-11 21:38:38.563784,United States,,,
copper-turret-restaurant-and-brewhouse,Copper Turret Restaurant and Brewhouse,brewpub,17 W Main St,Morrisville,New York,13408-,http://www.copperturret.com,3158257910,2018-07-24 01:33:50.37564,2018-08-24 15:38:35.586284,United States,-75.6487902,42.8990341333333,
foothill-hops-farm-brewery,Foothill Hops Farm Brewery,micro,5024 Bear Path Rd,Munnsville,New York,13409-4114,http://www.foothillhops.com,3154952451,2018-07-24 01:33:50.991706,2018-08-24 15:38:58.271764,United States,-75.5861038184634,42.9646321304759,
s-and-s-farm-brewery,S & S Farm Brewery,micro,174 Middle Rd,Nassau,New York,12123,http://www.sandsbrewery.com,5183360766,2018-07-24 01:33:53.282637,2018-08-24 15:40:09.959191,United States,-73.5726398153558,42.49050535,
district-96-beer-factory,District 96 Beer Factory,brewpub,395 S Main St,New City,New York,10956,http://www.district96beer.com,8454992409,2018-07-24 01:33:50.572782,2018-08-24 15:38:43.758075,United States,-73.9910007057189,41.1345739068303,
bradley-farm-/-rb-brew-llc,"Bradley Farm / RB Brew, LLC",micro,317 Springtown Rd,New Paltz,New York,12561-3020,http://www.raybradleyfarm.com,8452558769,2018-07-24 01:33:49.585302,2018-08-24 15:38:15.317379,United States,-74.097562,41.760486,
foreign-objects-beer-company,Foreign Objects Beer Company,micro,,New Paltz,New York,12561-3401,http://www.foreignobjectsbeer.com,6092871397,2018-07-24 01:33:51.004916,2018-08-11 21:38:34.389138,United States,,,
gilded-otter-brewing-co,Gilded Otter Brewing Co,brewpub,3 Main St,New Paltz,New York,12561-1742,http://www.gildedotter.com,8452561700,2018-07-24 01:33:51.250189,2018-08-24 15:39:06.407596,United States,-74.089586311179,41.7469771,
pull-brewing-co,Pull Brewing Co,contract,317 Springtown Rd,New Paltz,New York,12561-3020,http://www.pullbrewing.com,,2018-07-24 01:33:52.894731,2018-08-24 15:39:57.311171,United States,-74.097562,41.760486,
smart-beer-company,Smart Beer Company,contract,,New Paltz,New York,12561-0430,http://www.smartbeercompany.com,,2018-07-24 01:33:53.678168,2018-08-11 21:38:41.658008,United States,,,
the-brewery-at-bacchus,The Brewery At Bacchus,brewpub,4 S Chestnut St,New Paltz,New York,12561-1902,http://www.bacchusnewpaltz.com,8452558636,2018-07-24 01:33:53.988593,2018-08-24 15:40:31.090005,United States,-74.0867508,41.7472558,
empire-city-beer-company,Empire City Beer Company,planning,,New York,New York,10012,http://www.hitemhard.com,9178040571,2018-07-24 01:33:50.727877,2018-08-11 21:38:33.652742,United States,,,
alphabet-city-brewing-co,Alphabet City Brewing Co,contract,96 Avenue C Frnt 4,New York,New York,10009-7055,http://www.acbnyc.com,9143566809,2018-07-24 01:33:49.089035,2018-08-11 21:38:29.563544,United States,,,
b9-beverages-inc,B9 Beverages Inc,contract,404 5th Ave # 7.055,New York,New York,10018-2797,,,2018-07-24 01:33:49.226622,2018-08-11 21:38:29.854311,United States,,,
birreria-eataly,Birreria @ Eataly,brewpub,200 5th Ave Fl 14,New York,New York,10010-3302,http://www.eatalyny.com,2125390204,2018-07-24 01:33:49.445708,2018-08-11 21:38:30.5893,United States,,,
brewery-in-planning-new-york,Brewery in Planning - New York,planning,,New York,New York,TBD,,,2018-07-24 01:33:49.728283,2018-08-11 21:38:31.263914,United States,,,
death-avenue,Death Avenue,brewpub,315 10th Ave B/W 28th & 29th St.,New York,New York,10001-1416,http://www.deathave.com,2126958080,2018-07-24 01:33:50.520046,2018-08-11 21:38:33.149161,United States,,,
harlem-blue-beer,Harlem Blue Beer,proprietor,2214 Frederick Douglass Blvd Ste 267,New York,New York,10026-1123,http://www.harlemblue.com,,2018-07-24 01:33:51.521588,2018-08-11 21:38:35.661251,United States,,,
heartland-brewery,Heartland Brewery,contract,35 Union Sq W Frnt 1,New York,New York,10003-3200,http://www.heartlandbrewery.com,2126453400,2018-07-24 01:33:51.547682,2018-08-11 21:38:35.726767,United States,,,
harlem-brewing-co,Harlem Brewing Co,contract,2 W 123rd St,New York,New York,10027-5623,http://www.harlembrewingcompany.com,8885596735,2018-07-24 01:33:51.5351,2018-08-24 15:39:15.903494,United States,-73.9453279895158,40.8058068,
radiant-pig-craft-beers,Radiant Pig Craft Beers,contract,122 W 27th St Fl 10,New York,New York,10001-6227,,,2018-07-24 01:33:52.944417,2018-08-11 21:38:39.377225,United States,,,
ruckus-brewing-co,Ruckus Brewing Co,contract,261 W 35th St Ste 1002,New York,New York,10001-1902,http://www.ruckusbrewing.com,6467105098,2018-07-24 01:33:53.244438,2018-08-11 21:38:40.076587,United States,,,
the-owls-brew,The Owls Brew,large,135 W 29th St Rm 602,New York,New York,10001-5175,http://www.theowlsbrew.com,2125640218,2018-07-24 01:33:54.092823,2018-08-11 21:38:42.638385,United States,,,
toast-ale,Toast Ale,contract,601 W 26th St Ste 325-291,New York,New York,10001-1101,http://www.toastale.com/us,9162023851,2018-07-24 01:33:54.194345,2018-08-11 21:38:42.899127,United States,,,
third-rail-beer,Third Rail Beer,contract,928 Broadway Ste 902,New York,New York,10010-8139,http://www.thirdrailbeer.com,,2018-07-24 01:33:54.130497,2018-08-24 15:40:36.476969,United States,-73.9893474,40.7400479,
newburgh-brewing-company,Newburgh Brewing Company,micro,88 S Colden St,Newburgh,New York,12550-5640,http://www.newburghbrewing.com,8455692337,2018-07-24 01:33:52.563149,2018-08-24 15:39:47.830347,United States,-74.0081169897959,41.4965911938775,
browns-brewing-co,Brown's Brewing Co,brewpub,50 Factory Hill Rd,North Hoosick,New York,12133,http://www.brownsbrewing.com,5182732337,2018-07-24 01:33:49.953678,2018-08-24 15:38:21.495955,United States,-73.3451582057618,42.9266144376744,
full-boar-craft-brewery,Full Boar Craft Brewery,micro,628 S Main St Ste C,North Syracuse,New York,13212-3687,http://www.fullboarbrew.com,3158024784,2018-07-24 01:33:51.09951,2018-08-11 21:38:34.616832,United States,,,
sand-city-brewing-co,Sand City Brewing Co.,micro,60 Main St,Northport,New York,11768-1722,http://www.sandcitybeer.com,9177965672,2018-07-24 01:33:53.380601,2018-08-24 15:40:12.570394,United States,-73.3508587,40.8998983,
harbor-head-brewing-co,Harbor Head Brewing Co,micro,81 Fort Salonga Rd,Northport,New York,11768-2889,http://www.harborheadbrew.com,6318155588,2018-07-24 01:33:51.508546,2018-08-24 15:39:14.743783,United States,-73.3539709,40.8908555,
barrier-brewing-co,Barrier Brewing Co,micro,3001 New St Ste A2,Oceanside,New York,11572-2747,http://www.barrierbrewing.com,5165941028,2018-07-24 01:33:49.308963,2018-08-11 21:38:30.063309,United States,,,
fulton-chain-craft-brewery,Fulton Chain Craft Brewery,micro,127 North St,Old Forge,New York,13420-3300,http://www.fccbrewery.com,3155250222,2018-07-24 01:33:51.112815,2018-08-24 15:39:02.015204,United States,-74.9700251523263,43.7149927543196,
four-mile-brewing,Four Mile Brewing,micro,202 E Green St,Olean,New York,14760-3606,http://www.fourmilebrewing.com,7163732337,2018-07-24 01:33:51.045602,2018-08-11 21:38:34.506342,United States,,,
brewery-in-planning-olivebridge,Brewery in Planning - Olivebridge,planning,,Olivebridge,New York,12461-5513,,9142615265,2018-07-24 01:33:49.740481,2018-08-11 21:38:31.292739,United States,,,
cooperstown-brewing-co,Cooperstown Brewing Co,proprietor,41 Browne St.,Oneonta,New York,13820,,,2018-07-24 01:33:50.350414,2018-08-24 15:38:34.490096,United States,-75.1094240504556,42.4511858633909,
roots-brewing-company,Roots Brewing Company,brewpub,175 Main St,Oneonta,New York,13820-2501,http://www.rootsbrewingcompany.com,6074332925,2018-07-24 01:33:53.206309,2018-08-24 15:40:07.54832,United States,-75.0630461,42.45318,
6-degrees-of-separation,6 Degrees of Separation,brewpub,35 Main St,Ossining,New York,10562-4662,http://www.6degreesbp.com,9144325969,2018-07-24 01:33:48.973378,2018-08-24 15:37:57.110186,United States,-73.867681875,41.158662125,
sing-sing-kill-brewery,Sing Sing Kill Brewery,micro,75 Spring St,Ossining,New York,10562-4706,http://www.singsingkillbrewery.com,9178812490,2018-07-24 01:33:53.573179,2018-08-24 15:40:19.571298,United States,-73.8637307647059,41.1586083529412,
us-beer-brewers-at-the-cellar-door,US Beer Brewers At the Cellar Door,brewpub,17 W Cayuga St,Oswego,New York,13126-4000,http://www.usbeerbrewers.beer,3152072381,2018-07-24 01:33:54.351777,2018-08-24 15:40:43.728011,United States,-76.51260925,43.457698125,
lost-kingdom-brewery-/-firehouse-distillery,Lost Kingdom Brewery / Firehouse Distillery,micro,7160 Main St,Ovid,New York,14521-9401,http://www.firehousedistillery.net,6074034020,2018-07-24 01:33:52.310408,2018-08-24 15:39:40.111418,United States,-76.8228132942931,42.6772422121693,
the-farmhouse-brewery,The FarmHouse Brewery,micro,14 George St,Owego,New York,13827-1084,http://www.thefarmhousebrewery.com,6072272676,2018-07-24 01:33:54.028952,2018-08-24 15:40:32.761367,United States,-76.2695094139715,42.1112374641151,
oyster-bay-brewing,Oyster Bay Brewing,micro,36 Audrey Ave,Oyster Bay,New York,11771-1548,http://www.oysterbaybrewing.com,5168025546,2018-07-24 01:33:52.710542,2018-08-24 15:39:51.785189,United States,-73.5314032282192,40.8730496670743,
blue-point-brewing-co,Blue Point Brewing Co,large,161 River Ave,Patchogue,New York,11772-3304,http://www.bluepointbrewing.com,6314756944,2018-07-24 01:33:49.532004,2018-08-24 15:38:13.401784,United States,-73.0216062980388,40.75913445,
blue-point-brewing,Blue Point Brewing,large,225 West Main St,Patchogue,New York,11772,,,2018-07-24 01:33:49.518143,2018-08-24 15:38:12.927016,United States,-73.021037054719,40.76644215,
brick-house-brewery-and-restaurant,Brick House Brewery and Restaurant,brewpub,67 W Main St,Patchogue,New York,11772-3001,http://www.brickhousebrewery.com,6314472337,2018-07-24 01:33:49.852298,2018-08-24 15:38:17.897507,United States,-73.0155605365854,40.765794097561,
defiant-brewing-co,Defiant Brewing Co,brewpub,6 E Dexter Plz,Pearl River,New York,10965-2360,http://www.defiantbrewing.com,8459208602,2018-07-24 01:33:50.546869,2018-08-24 15:38:42.578593,United States,-74.0230221666667,41.0601549166667,
gentle-giant-brewing-company,Gentle Giant Brewing Company,micro,7 N Main St,Pearl River,New York,10965-2318,http://gentlegiantbrewing.com/,,2018-07-24 01:33:51.236386,2018-08-24 15:39:05.912044,United States,-74.0217129902255,41.0593888459935,
greenport-harbor-brewing-co-llc,"Greenport Harbor Brewing Co, LLC",brewpub,42155 Main Rd,Peconic,New York,11958-1502,http://www.harborbrewing.com,6315139019,2018-07-24 01:33:51.407589,2018-08-24 15:39:11.81703,United States,-72.4545703,41.0415525,
peekskill-brewing-co,Peekskill Brewing Co,brewpub,47 S Water St # 53,Peekskill,New York,10566-2035,http://www.peekskillbrewery.com,9147342337,2018-07-24 01:33:52.7824,2018-08-24 15:39:53.719105,United States,-73.9292934,41.2867311,
cl-river-outpost-brewing,CL River Outpost Brewing,brewpub,5 John Walsh Blvd,Peekskill,New York,10566,http://riveroutpostbrewing.com,,2018-07-24 01:33:50.245062,2018-08-11 21:38:32.424628,United States,,,
rogers-beer,Rogers Beer,contract,23 Woodline Dr,Penfield,New York,14526-2413,http://www.rogersbeer.com,5852980483,2018-07-24 01:33:53.155078,2018-08-24 15:40:05.624172,United States,-77.4672381785714,43.1286876785714,
climbing-bines-craft-ale-company,Climbing Bines Craft Ale Company,micro,511 Hanson Point Rd,Penn Yan,New York,14527-9718,http://www.climbingbineshopfarm.com,6077450221,2018-07-24 01:33:50.270581,2018-08-11 21:38:32.500812,United States,,,
lyonsmith-brewing-company,Lyonsmith Brewing Company,micro,138 Water St,Penn Yan,New York,14527-1651,http://www.lyonsmithbrewing.com,3155365603,2018-07-24 01:33:52.348019,2018-08-24 15:39:41.825769,United States,-77.0546363495329,42.6589947605887,
abandon-brewing,Abandon Brewing,micro,2994 Merritt Hill Rd,Penn Yan,New York,14527-8938,http://www.abandonbrewing.com,5852093276,2018-07-24 01:33:49.014396,2018-08-11 21:38:29.417153,United States,,,
silver-lake-brewing-project,Silver Lake Brewing Project,micro,14 Borden Ave,Perry,New York,14530,http://silverlakebrewingproject.com,5859694238,2018-07-24 01:33:53.559492,2018-08-24 15:40:19.032998,United States,-78.0015992313136,42.7179512844359,
livingoods-restaurant-and-brewery,Livingood's Restaurant & Brewery,brewpub,697 Bear Swamp Rd,Peru,New York,12972-,http://www.livingoodsresturant.com,5184206331,2018-07-24 01:33:52.247651,2018-08-24 15:39:38.061309,United States,-73.518542,44.576563,
the-beer-diviner,The Beer Diviner,micro,243 Bly Hollow Rd,Petersburg,New York,12040,http://www.thebeerdiviner.com,5182106196,2018-07-24 01:33:53.963511,2018-08-11 21:38:42.334255,United States,,,
crafty-ales-and-lagers,Crafty Ales and Lagers,micro,2 Exchange St,Phelps,New York,14532-1010,http://www.drinkcraftyales.com,3153321606,2018-07-24 01:33:50.44015,2018-08-24 15:38:38.362142,United States,-77.056976,42.9579011,
woodstock-brewing,Woodstock Brewing,micro,5581 NY-28,Phoenicia,New York,12464,http://www.drinkwoodstock.com,8456880054,2018-07-24 01:33:54.674159,2018-08-11 21:38:44.144385,United States,,,
pine-island-brewing,Pine Island Brewing,micro,682 County Route 1 Ste B,Pine Island,New York,10969-1715,http://www.pineislandbeer.com,8452882646,2018-07-24 01:33:52.807221,2018-08-11 21:38:39.061198,United States,,,
lock-32-brewing-company,Lock 32 Brewing Company,micro,10 Schoen Pl,Pittsford,New York,14534-2026,http://www.lock32brew.com,5855067738,2018-07-24 01:33:52.272785,2018-08-24 15:39:39.119265,United States,-77.514256,43.09306,
oval-craft-brewing,OVAL Craft Brewing,micro,111 Ohio Rd,Plattsburgh,New York,12903-4403,http://www.ovalcraftbrewing.com,5183242739,2018-07-24 01:33:52.686263,2018-08-11 21:38:38.665497,United States,,,
plattsburgh-brewing-co,Plattsburgh Brewing Co,brewpub,411 Route 3,Plattsburgh,New York,12901-6520,http://www.plattsburghbrewingco.com,5183246680,2018-07-24 01:33:52.83305,2018-08-11 21:38:39.119581,United States,,,
valcour-brewing-company-llc,Valcour Brewing Company LLC,micro,49 Ohio Rd,Plattsburgh,New York,12903-4409,http://www.valcourbrewery.com,5183242337,2018-07-24 01:33:54.364161,2018-08-11 21:38:43.385405,United States,,,
brewery-in-planning-point-lookout,Brewery In Planning - Point Lookout,planning,,Point Lookout,New York,11569,,,2018-07-24 01:33:49.767062,2018-08-11 21:38:31.358018,United States,,,
beer-tree-brew-co,Beer Tree Brew Co,micro,197 Rte 369,Port Crane,New York,13833,http://www.beertreebrew.com,,2018-07-24 01:33:49.339245,2018-08-11 21:38:30.287627,United States,,,
poboy-brewing,Po'Boy Brewing,micro,200 Wilson St Unit E3,Port Jefferson Station,New York,11776-1145,http://www.poboybrewery.com,6318281131,2018-07-24 01:33:52.846003,2018-08-11 21:38:39.146954,United States,,,
port-jeff-brewing-co,Port Jeff Brewing Co,micro,22 Mill Creek Rd,Port Jefferson,New York,11777-1663,http://www.portjeffbrewing.com,8774752739,2018-07-24 01:33:52.858483,2018-08-24 15:39:55.982028,United States,-73.0677285504708,40.9414042054245,
fox-n-hare-brewing-company,Fox N Hare Brewing Company,micro,46 Front St,Port Jervis,New York,12771-2415,http://www.foxnhare-brewing.com,3172095767,2018-07-24 01:33:51.059223,2018-08-24 15:38:59.879376,United States,-74.6908826334695,41.372530674642,
8th-ward-brewing-company,8th Ward Brewing Company,planning,,Poughkeepsie,New York,12603-3401,,,2018-07-24 01:33:49.000169,2018-08-11 21:38:29.383202,United States,,,
blue-collar-brewery-inc,"Blue Collar Brewery, Inc.",brewpub,40 Cottage St,Poughkeepsie,New York,12601-2015,http://www.thebluecollarbrewery.com,8454542739,2018-07-24 01:33:49.490592,2018-08-24 15:38:11.941746,United States,-73.91831,41.707234,
mill-house-brewing-company-production,Mill House Brewing Company - Production,micro,,Poughkeepsie,New York,12601,,8452345573,2018-07-24 01:33:52.465233,2018-08-11 21:38:38.085272,United States,,,
mill-house-brewing-company,Mill House Brewing Company,brewpub,289 Mill St,Poughkeepsie,New York,12601-3111,http://www.millhousebrewing.com,8452345573,2018-07-24 01:33:52.453289,2018-08-24 15:39:44.68206,United States,-73.926472,41.705077,
plan-bee-farm-brewery,Plan Bee Farm Brewery,micro,115 Underhill Rd,Poughkeepsie,New York,12603-1045,http://www.planbeefarmbrewery.com,7653078589,2018-07-24 01:33:52.819591,2018-08-24 15:39:54.620243,United States,-73.8859127379777,41.7172140503185,
finback-brewery,Finback Brewery,micro,78-01 77th Ave,Queens,New York,11385-7518,http://www.finbackbrewery.com,7186288600,2018-07-24 01:33:50.85866,2018-08-24 15:38:53.097577,United States,-73.8732597,40.7067227,
lake-george-beer-hub,Lake George Beer Hub,micro,1043 State Route 9,Queensbury,New York,12804-1374,http://www.lakegeorgebrewingcompany.com,5182230372,2018-07-24 01:33:52.104867,2018-08-11 21:38:37.070466,United States,,,
slickfin-brewing-company-llc,SlickFin Brewing Company LLC,planning,,Queensbury,New York,12804-9786,,,2018-07-24 01:33:53.637953,2018-08-11 21:38:41.546014,United States,,,
from-the-ground-brewery,From the Ground Brewery,micro,245 Guski Rd,Red Hook,New York,12571-3316,http://www.fromthegroundbrewery.com,8453098100,2018-07-24 01:33:51.086023,2018-08-11 21:38:34.588626,United States,,,
helderberg-brewery,Helderberg Brewery,micro,63 Huyck Rd,Rensselaerville,New York,12147-2108,http://careyinstitute.org/programs/sustainable-communities/helderberg-brewery-taproom/,5187975100,2018-07-24 01:33:51.574947,2018-08-11 21:38:35.794374,United States,,,
bridge-and-tunnel-brewery,Bridge And Tunnel Brewery,micro,15-35 Decatur St,Ridgewood,New York,11385-5818,http://www.bridgeandtunnelbrewery.com,3473928593,2018-07-24 01:33:49.880017,2018-08-24 15:38:18.841255,United States,-73.9017521,40.6943348,
queens-brewery,Queens Brewery,proprietor,1539 Covert St,Ridgewood,New York,11385-5356,http://www.queensbrewery.com,6462652049,2018-07-24 01:33:52.906969,2018-08-24 15:39:57.754937,United States,-73.9042850786782,40.6949116,
7-sins-brewery,7 Sins Brewery,micro,10593 W Main Rd,Ripley,New York,14775-9746,http://www.7sinsbrewery.com,7165812090,2018-07-24 01:33:48.986995,2018-08-24 15:37:57.574137,United States,-79.749734898935,42.2486907283289,
crooked-ladder-brewery,Crooked Ladder Brewery,micro,70 W Main St,Riverhead,New York,11901-2802,http://www.crookedladderbrewingco.com,6319025335,2018-07-24 01:33:50.480121,2018-08-24 15:38:39.885042,United States,-72.663198671947,40.9170167213884,
garden-of-eve-farm-brewery,Garden of Eve Farm Brewery,micro,4558 Sound Ave,Riverhead,New York,11901-1207,http://www.facebook.com/farmbrewery,6317228777,2018-07-24 01:33:51.166956,2018-08-24 15:39:03.98224,United States,-72.648395,40.96775,
jamesport-farm-brewery,Jamesport Farm Brewery,micro,5873 Sound Ave,Riverhead,New York,11901-5611,http://www.jamesportbrewhouse.com,6317228111,2018-07-24 01:33:51.883588,2018-08-24 15:39:27.170259,United States,-72.648395,40.96775,
north-fork-brewing-company,North Fork Brewing Company,planning,,Riverhead,New York,11901-4615,,,2018-07-24 01:33:52.624793,2018-08-11 21:38:38.502667,United States,,,
long-ireland-brewing-co,Long Ireland Brewing Co,micro,817 Pulaski St,Riverhead,New York,11901-3039,,6314034303,2018-07-24 01:33:52.285422,2018-08-24 15:39:39.653767,United States,-72.6741192424242,40.9199771010101,
moustache-brewing-co,Moustache Brewing Co,micro,400 Hallett Ave Ste A,Riverhead,New York,11901-3076,http://www.moustachebrewing.com,6315913250,2018-07-24 01:33:52.514214,2018-08-11 21:38:38.226377,United States,,,
rohrbachs-railroad-st-brewery,Rohrbach's Railroad St Brewery,micro,97 Railroad St,Rochester,New York,14609-6039,http://www.rohrbachs.com,5855468020,2018-07-24 01:33:53.181675,2018-08-24 15:40:06.518891,United States,-77.586694,43.163275,
swiftwater-brewing-company,Swiftwater Brewing Company,brewpub,378 Mount Hope Ave,Rochester,New York,14620-1250,http://www.swiftwaterbrewing.com,5855303471,2018-07-24 01:33:53.924627,2018-08-24 15:40:29.037776,United States,-77.6122774848485,43.1423032424242,
fifth-frame-brewing-co,Fifth Frame Brewing Co.,proprietor,155 Saint Paul St,Rochester,New York,14604-1144,http://www.fifthframe.co,7168128897,2018-07-24 01:33:50.832949,2018-08-24 15:38:52.129489,United States,-77.6101954375,43.15996034375,
genesee-brew-house-/-north-american-breweries,Genesee Brew House / North American Breweries,brewpub,25 Cataract St,Rochester,New York,14605,http://www.geneseebeer.com,5852639200,2018-07-24 01:33:51.221194,2018-08-24 15:39:05.3996,United States,-77.6147783,43.163584,
iron-tug-brewing,Iron Tug Brewing,micro,360 W Ridge Rd,Rochester,New York,14615-2928,http://www.irontugbrewing.com,5858650032,2018-07-24 01:33:51.836636,2018-08-24 15:39:25.785217,United States,-77.6367268571429,43.1996561428571,
k2-brothers-brewing,K2 Brothers Brewing,brewpub,1221 Empire Blvd,Rochester,New York,14609-5946,http://www.K2Brewing.com,5854131997,2018-07-24 01:33:51.919352,2018-08-24 15:39:27.672798,United States,-77.549992,43.17664,
north-american-breweries,North American Breweries,regional,445 Saint Paul St,Rochester,New York,14605-1726,,5855461030,2018-07-24 01:33:52.599785,2018-08-24 15:39:48.918716,United States,-77.6143245,43.1648171666667,
roc-brewing-co,Roc Brewing Co,brewpub,56 S Union St,Rochester,New York,14607-1839,http://www.rocbrewingco.com,5857949798,2018-07-24 01:33:53.105802,2018-08-24 15:40:04.696057,United States,-77.5979331666667,43.1533706666667,
rohrbach-brewing-company,Rohrbach Brewing Company,brewpub,97 Railroad St,Rochester,New York,14609-6039,http://www.rohrbachs.com,5855468020,2018-07-24 01:33:53.168321,2018-08-24 15:40:06.066763,United States,-77.586694,43.163275,
sager-beer-works,Sager Beer Works,planning,,Rochester,New York,14607-1669,http://www.sagerbeerworks.com,5857520613,2018-07-24 01:33:53.309912,2018-08-11 21:38:40.520408,United States,,,
three-heads-brewing,Three Heads Brewing,micro,186 Atlantic Ave,Rochester,New York,14607-1213,http://www.threeheadsbrewing.com,5852441224,2018-07-24 01:33:54.143531,2018-08-24 15:40:36.922078,United States,-77.5803465454545,43.1561175454545,
the-lost-borough-brewing-company,The Lost Borough Brewing Company,micro,543 Atlantic Ave,Rochester,New York,14609-7316,http://www.lostboroughbrewing.com,5854718122,2018-07-24 01:33:54.06716,2018-08-24 15:40:33.731959,United States,-77.568564668458,43.1563873843618,
bellport-brewing-company,Bellport Brewing Company,proprietor,,Rocky Point,New York,11778-8986,http://www.bellportbrewing.com,6319094457,2018-07-24 01:33:49.352711,2018-08-11 21:38:30.320285,United States,,,
rocky-point-artisan-ales,Rocky Point Artisan Ales,micro,,Rocky Point,New York,11778,http://www.rockypointartisanbeer.com,6318482261,2018-07-24 01:33:53.143115,2018-08-11 21:38:39.802276,United States,,,
copper-city-brewing-company,Copper City Brewing Company,micro,1111 Oneida St,Rome,New York,13440-,http://www.coppercitybrewing.com,3152818987,2018-07-24 01:33:50.36289,2018-08-24 15:38:35.002633,United States,-75.4322995118866,43.2052133836803,
roscoe-brewing-company,Roscoe Brewing Company,micro,145 Rockland Rd,Roscoe,New York,12776-6418,http://www.roscoebeercompany.com,6072905002,2018-07-24 01:33:53.218941,2018-08-11 21:38:39.977425,United States,,,
sackets-harbor-brewing-co,Sackets Harbor Brewing Co,brewpub,212 W Main St,Sackets Harbor,New York,13685-3183,http://www.sacketsharborbrewpub.com,3156462739,2018-07-24 01:33:53.296537,2018-08-24 15:40:10.452705,United States,-76.1216482073625,43.9479608459535,
rs-taylor-and-sons-brewery,R.S. Taylor & Sons Brewery,brewpub,3602 County Route 30,Salem,New York,12865-4702,http://www.rstaylorbrewing.com,5182090474,2018-07-24 01:33:52.919216,2018-08-24 15:39:58.316959,United States,-73.360912,43.175335,
blue-line-brewery,Blue Line Brewery,brewpub,555 Lake Flower Ave,Saranac Lake,New York,12983-2465,http://www.bluelinebrew.com,5183548114,2018-07-24 01:33:49.504689,2018-08-24 15:38:12.427785,United States,-74.1176665897436,44.3135860512821,
artisanal-brew-works,Artisanal Brew Works,micro,41 Geyser Rd,Saratoga Springs,New York,12866-9038,http://www.artisanalbrewworks.com,5185942337,2018-07-24 01:33:49.188075,2018-08-11 21:38:29.76248,United States,,,
druthers-brewing-co,Druthers Brewing Co,brewpub,381 Broadway,Saratoga Springs,New York,12866-3111,http://www.druthersbrewing.com,5183065275,2018-07-24 01:33:50.599412,2018-08-11 21:38:33.356759,United States,,,
racing-city-brewing-company,Racing City Brewing Company,micro,250 Excelsior Ave,Saratoga Springs,New York,12866-8532,http://www.racingcitybrewingcompany.com,5183504515,2018-07-24 01:33:52.931859,2018-08-24 15:39:58.739437,United States,-73.7769944,43.0888891,
whitman-brewing-company,Whitman Brewing Company,planning,,Saratoga Springs,New York,12866,http://www.whitmanbrewing.com,6317868701,2018-07-24 01:33:54.521556,2018-08-11 21:38:43.791601,United States,,,
winneras-circle-brewing-company,Winnerâs Circle Brewing Company,contract,21 Whistler Court Apt 4,"Saratoga Springs ",New York,12866,http://www.winnerscirclebeer.com,5183657864,2018-07-24 01:33:54.577288,2018-08-11 21:38:43.914253,United States,,,
great-flats-brewing,Great Flats Brewing,micro,151 Lafayette St,Schenectady,New York,12305-2051,http://www.greatflatsbrewing.com,5182800232,2018-07-24 01:33:51.342531,2018-08-24 15:39:09.606571,United States,-73.9383963809524,42.8124353809524,
mad-jack-brewing-co-/-van-dyck-restaurant-and-lounge,Mad Jack Brewing Co / Van Dyck Restaurant & Lounge,brewpub,237 Union St,Schenectady,New York,12305-1405,http://www.madjackbrewing.com,5183487999,2018-07-24 01:33:52.360987,2018-08-24 15:39:42.344088,United States,-73.9446627346939,42.816472755102,
wolf-hollow-brewing-company,Wolf Hollow Brewing Company,micro,6882 Amsterdam Rd,Schenectady,New York,12302,http://www.wolfhollowbrewing.com,5182144093,2018-07-24 01:33:54.590749,2018-08-24 15:40:50.97458,United States,-74.0809254,42.8969263,
brewery-in-planning-schenectady,Brewery in Planning - Schenectady,planning,,Schenectady,New York,12305-2405,http://www.re4ormarchitecture.com,5183120139,2018-07-24 01:33:49.781605,2018-08-11 21:38:31.39931,United States,,,
paradox-brewery,Paradox Brewery,micro,154 State Route 9,Schroon Lake,New York,12870,http://www.paradoxbrewery.com,5183515036,2018-07-24 01:33:52.734558,2018-08-11 21:38:38.793841,United States,,,
paradox-brewery-/-gateway-to-the-adirondacks,Paradox Brewery / Gateway To the Adirondacks,planning,,Schroon Lake,New York,12870,,,2018-07-24 01:33:52.746557,2018-08-11 21:38:38.825867,United States,,,
fleur-de-lis-brew-works,Fleur De Lis Brew Works,micro,3630 State Route 414,Seneca Falls,New York,13148-9202,http://www.fleurdelisbrewworks.com,3156513260,2018-07-24 01:33:50.940266,2018-08-11 21:38:34.196046,United States,,,
shelter-island-craft-brewery,Shelter Island Craft Brewery,brewpub,55 N Ferry Rd,Shelter Island,New York,11964,http://www.home.shelterislandcraftbrewery.com,6317495977,2018-07-24 01:33:53.520598,2018-08-24 15:40:17.583043,United States,-72.3398761593646,41.0714822,
bullthistle-brewing-co,Bullthistle Brewing Co.,brewpub,45 S Main St,Sherburne,New York,13460-9202,,6076742337,2018-07-24 01:33:50.049647,2018-08-24 15:38:24.109952,United States,-75.4957686055147,42.67156527085,
common-roots-brewing-company,Common Roots Brewing Company,micro,58 Saratoga Ave,South Glens Falls,New York,12803-4837,http://www.commonrootsbrewing.com,5184098248,2018-07-24 01:33:50.297325,2018-08-11 21:38:32.579143,United States,,,
southampton-publick-house,Southampton Publick House,brewpub,62 Jobs Ln,Southampton,New York,11968-4807,http://www.publick.com,6312832800,2018-07-24 01:33:53.690534,2018-08-11 21:38:41.687079,United States,,,
brindle-haus-brewing-company,Brindle Haus Brewing Company,micro,377 S Union St,Spencerport,New York,14559-1970,http://www.brindlehausbrewing.com,5855076665,2018-07-24 01:33:49.895659,2018-08-24 15:38:19.383942,United States,-77.804122,43.185296,
griffs-brewery,Griffs Brewery,micro,5324 W Ridge Rd,Spencerport,New York,14559-1101,http://www.griffsbrewery.com,5856173843,2018-07-24 01:33:51.422846,2018-08-11 21:38:35.422065,United States,,,
flagship-brewery-llc,"Flagship Brewery, LLC.",micro,40 Minthorne St,Staten Island,New York,10301-3241,http://www.flagshipbrewery.nyc,7184485284,2018-07-24 01:33:50.926629,2018-08-24 15:38:55.659685,United States,-74.0756332,40.6372257,
kills-boro-brewing-company,Kills Boro Brewing Company,micro,62 Van Duzer St,Staten Island,New York,10301-3226,http://www.killsboro.com,3472778680,2018-07-24 01:33:52.002778,2018-08-24 15:39:30.523492,United States,-74.077407875,40.636479,
staten-island-beer-company,Staten Island Beer Company,micro,20 Kinsey Pl,Staten Island,New York,10303-1427,http://www.sibeerco.com,7183908445,2018-07-24 01:33:53.743279,2018-08-24 15:40:24.602454,United States,-74.1703372857143,40.6287474285714,
windy-brew,Windy Brew,micro,733 Route 20a,Strykersville,New York,14145-9584,http://www.windybrews.com,5858054006,2018-07-24 01:33:54.563304,2018-08-11 21:38:43.882153,United States,,,
empire-brewing-co,Empire Brewing Co,brewpub,120 Walton St,Syracuse,New York,13202-1571,http://www.empirebrew.com,3156552337,2018-07-24 01:33:50.715055,2018-08-24 15:38:47.848389,United States,-76.1540662455378,43.0480463656723,
willow-rock-brewing-company,Willow Rock Brewing Company,micro,115 Game Rd,Syracuse,New York,13210-4216,http://www.willowrockbrew.com,3159286948,2018-07-24 01:33:54.54929,2018-08-24 15:40:49.526237,United States,-76.131471538758,43.0115551772561,
eastwood-brewing-company,Eastwood Brewing Company,micro,108 Walter Dr,Syracuse,New York,13206-2357,http://www.facebook.com/eastwoodbrewingcompany,,2018-07-24 01:33:50.664275,2018-08-24 15:38:46.242126,United States,-76.0980832,43.0701121,
gordon-biersch-brewery-restaurant-syracuse,Gordon Biersch Brewery Restaurant - Syracuse,brewpub,304 Hiawatha Blvd West #J-101,Syracuse,New York,13290,http://www.craftworksrestaurants.com,3154780990,2018-07-24 01:33:51.314478,2018-08-11 21:38:35.142484,United States,,,
middle-ages-brewing-co-ltd,Middle Ages Brewing Co Ltd,micro,120 Wilkinson St Ste 3,Syracuse,New York,13204-2490,http://www.middleagesbrewing.com,3154764250,2018-07-24 01:33:52.402024,2018-08-11 21:38:37.822282,United States,,,
red-hawk-brewing,Red Hawk Brewing,micro,4504 Bussey Rd,Syracuse,New York,13215-8783,http://www.redhawkbrewing.com,3154915158,2018-07-24 01:33:53.023338,2018-08-11 21:38:39.550823,United States,,,
stout-beard-brewing-company,Stout Beard Brewing Company,brewpub,1153 W Fayette St Ste 102,Syracuse,New York,13204-2740,http://www.stoutbeardbrewery.com,3153993016,2018-07-24 01:33:53.792633,2018-08-11 21:38:41.983265,United States,,,
syracuse-suds-factory,Syracuse Suds Factory,brewpub,320 S Clinton St,Syracuse,New York,13202-1220,http://www.sudsfactory.com,3154712253,2018-07-24 01:33:53.937239,2018-08-24 15:40:29.552995,United States,-76.153679,43.0484690204082,
buried-acorn-brewing-company,Buried Acorn Brewing Company,planning,,Syracuse,New York,13204-1156,http://www.buriedacorn.com,3155521499,2018-07-24 01:33:50.062211,2018-08-11 21:38:31.950321,United States,,,
sahm-brewing-company,Sahm Brewing Company,micro,203 S Salina St,Syracuse,New York,13202,http://www.facebook.com/SahmBrewCo/,3158777246,2018-07-24 01:33:53.323881,2018-08-24 15:40:11.008977,United States,-76.1520931836735,43.0494505918367,
duncans-abbey,Duncan's Abbey,micro,,Tarrytown,New York,10591,http://www.duncansabbey.com,,2018-07-24 01:33:50.625085,2018-08-11 21:38:33.421203,United States,,,
brewery-in-planning-ticonderoga-ny,"Brewery in Planning - TICONDEROGA, NY",planning,,Ticonderoga,New York,12883-1455,,9736706214,2018-07-24 01:33:49.794461,2018-08-11 21:38:31.435936,United States,,,
tripend-brewing,TripEnd Brewing,micro,3072 Prutsman Rd,Troupsburg,New York,14885-9613,http://www.tripendbrewing.com,6073467472,2018-07-24 01:33:54.232089,2018-08-24 15:40:40.629861,United States,-77.5526894569569,42.0912103379534,
browns-brewing-co,Brown's Brewing Co,brewpub,417 River St,Troy,New York,12180-2822,http://www.brownsbrewing.com,5183654846,2018-07-24 01:33:49.938272,2018-08-24 15:38:21.015572,United States,-73.6875500211453,42.7356774601492,
rare-form-brewing,Rare Form Brewing,micro,90 Congress St,Troy,New York,12180-4123,http://www.rareformbrewing.com,5183264303,2018-07-24 01:33:52.995409,2018-08-24 15:40:00.758261,United States,-73.6899808,42.7286018,
felicias-atomic-brewhouse-and-bakery,Felicia's Atomic Brewhouse and Bakery,brewpub,45 E Main St,Trumansburg,New York,14886,http://www.atomicbrewhouse.com,6072094229,2018-07-24 01:33:50.80706,2018-08-24 15:38:51.054283,United States,-76.65512,42.539886,
broken-bow-brewery,Broken Bow Brewery,micro,173 Marbledale Rd,Tuckahoe,New York,10707-3117,http://www.brokenbowbrewery.com,9142680900,2018-07-24 01:33:49.908715,2018-08-24 15:38:19.914415,United States,-73.8190325,40.9549645,
big-tupper-brewing,Big Tupper Brewing,brewpub,12 Cliff Ave,Tupper Lake,New York,12986-1719,http://www.bigtupperbrewing.com,5183596350,2018-07-24 01:33:49.419438,2018-08-24 15:38:09.134391,United States,-74.4657636666667,44.223293,
raquette-river-brewing,Raquette River Brewing,micro,11 Balsam St # 2,Tupper Lake,New York,12986-1033,http://www.raquetteriverbrewing.com,5183595219,2018-07-24 01:33:52.98325,2018-08-24 15:40:00.188421,United States,-74.4865214489796,44.243473755102,
saranac-brewery-/-matt-brewing-co,Saranac Brewery / Matt Brewing Co,regional,811 Edward St,Utica,New York,13502-4001,http://www.saranac.com,3156242400,2018-07-24 01:33:53.393798,2018-08-24 15:40:13.047292,United States,-75.2441462244898,43.1035556734694,
woodland-farm-brewery,Woodland Farm Brewery,micro,6002 Trenton Rd,Utica,New York,13502-6224,http://www.woodlandbeer.com,3158643051,2018-07-24 01:33:54.660687,2018-08-24 15:40:53.071119,United States,-75.212678,43.148929,
stumblin-monkey-brewing-co,Stumblin' Monkey Brewing Co,micro,61 School St Ste G,Victor,New York,14564-1420,http://www.stumblinmonkeybeer.com,5853988189,2018-07-24 01:33:53.848723,2018-08-11 21:38:42.037963,United States,,,
the-vb-brewery,The VB Brewery,micro,6606 State Route 96,Victor,New York,14564-1409,http://www.thevbbrewery.com,5859028166,2018-07-24 01:33:54.105222,2018-08-11 21:38:42.672435,United States,,,
cousins-revolution-ale-works,Cousins Revolution Ale Works,micro,1582 US 9,Wappingers Falls,New York,12590,http://www.cousinsrevolution.com,8452932739,2018-07-24 01:33:50.426667,2018-08-24 15:38:37.877945,United States,-73.9114627851586,41.5980334465102,
north-river-hops-and-brewing,North River Hops And Brewing,micro,1571 Route 9,Wappingers Falls,New York,12590-2827,http://www.northriverbrews.com,8452972190,2018-07-24 01:33:52.637521,2018-08-11 21:38:38.534053,United States,,,
local-315-brewing-company,Local 315 Brewing Company,micro,3160 Warners Rd,Warners,New York,13164-,http://www.local315brewing.com,315468,2018-07-24 01:33:52.260613,2018-08-24 15:39:38.586596,United States,-76.329676,43.085441,
amber-lantern-brewing-company,Amber Lantern Brewing Company,brewpub,44 N Main St,Warsaw,New York,14569-1326,http://www.amberlanternbrewingcompany.com,5857863559,2018-07-24 01:33:49.103671,2018-08-24 15:38:00.336594,United States,-78.132363,42.7408423,
brewery-in-planning-oyster-bay,Brewery In Planning - Oyster Bay,planning,,Warwick,New York,10990-3426,,,2018-07-24 01:33:49.753806,2018-08-11 21:38:31.319278,United States,,,
boots-brewing-company-inc,"Boots Brewing Company, Inc.",micro,89 Public Sq,Watertown,New York,13601-2626,http://www.bootsbrew.com,3157670794,2018-07-24 01:33:49.558114,2018-08-24 15:38:14.33385,United States,-75.909046441621,43.9747517296925,
garland-city-beer-works,Garland City Beer Works,planning,,Watertown,New York,13601-2423,http://www.garlandcitybeerworks.com,3157832577,2018-07-24 01:33:51.180671,2018-08-11 21:38:34.807009,United States,,,
skewed-brewing,Skewed Brewing,brewpub,"21182 Salmon Run Mall Loop W, Unit B219",Watertown,New York,13601-2244,http://Skewedbrewing.com,3157882337,2018-07-24 01:33:53.624469,2018-08-11 21:38:41.514348,United States,,,
seneca-lodge-craft-brewing-at-seneca-lodge,Seneca Lodge Craft Brewing At Seneca Lodge,brewpub,3600 Walnut Rd,Watkins Glen,New York,14891-0272,http://www.senecalodge.com,6075352014,2018-07-24 01:33:53.471093,2018-08-24 15:40:15.622315,United States,-76.873392,42.369461,
roosterfish-brewing-co,Roosterfish Brewing Co.,brewpub,301 N Franklin St,Watkins Glen,New York,14891-1202,http://www.roosterfishbrewing.com,6075359797,2018-07-24 01:33:53.19389,2018-08-24 15:40:07.063747,United States,-76.87362,42.38063,
new-paltz-brewing-company,New Paltz Brewing Company,micro,7174 Route 209,Wawarsing,New York,12489,http://www.pfalzerbrau.com,8454193040,2018-07-24 01:33:52.538988,2018-08-11 21:38:38.297214,United States,,,
whichcraft-brews,WhichCraft Brews,brewpub,1900 Empire Blvd,Webster,New York,14580-1934,http://www.whichcraftbrews.com,5852222739,2018-07-24 01:33:54.509016,2018-08-24 15:40:49.088042,United States,-77.501948,43.193429,
knucklehead-craft-brewing,Knucklehead Craft Brewing,brewpub,426 Ridge Rd,Webster,New York,14580-1793,http://www.knuckleheadcraftbrewing.com,5853476236,2018-07-24 01:33:52.052954,2018-08-24 15:39:31.912604,United States,-77.5112872598513,43.2057292163707,
lunkenheimer-craft-brewing-co-llc,Lunkenheimer Craft Brewing Co. LLC,micro,"PO Box 539 8920 N Seneca St,",Weedsport,New York,13166-0539,http://www.lunkenheimercraftbrewing.com,3158347027,2018-07-24 01:33:52.335547,2018-08-11 21:38:37.641871,United States,,,
secatogue-brewing-co,Secatogue Brewing Co.,micro,375 Union Blvd,West Islip,New York,11795-3114,http://www.secatoguebrewing.com,6318714270,2018-07-24 01:33:53.443982,2018-08-24 15:40:15.044376,United States,-73.3028901898735,40.70717835,
west-kill-brewing,West Kill Brewing,micro,2173 Spruceton Rd,West Kill,New York,12492-5823,http://www.westkillbrewing.com,5189896001,2018-07-24 01:33:54.467624,2018-08-24 15:40:47.696882,United States,-74.382878,42.205758,
great-life-brewing,Great Life Brewing,micro,,West Park,New York,12493,http://www.greatlifebrewing.com,8453313700,2018-07-24 01:33:51.355396,2018-08-11 21:38:35.246927,United States,,,
five-and-20-spirits-and-brewing,Five & 20 Spirits and Brewing,brewpub,8398 W Route 20,Westfield,New York,14787-9748,http://www.fiveand20.com,7167939463,2018-07-24 01:33:50.899529,2018-08-11 21:38:34.078834,United States,,,
ledge-hill-brewing-co,Ledge Hill Brewing Co,micro,6700 Main St,Westport,New York,12993-2007,http://www.ledgehillbrewing.com/,5189121783,2018-07-24 01:33:52.133776,2018-08-24 15:39:34.744172,United States,-73.452543,44.188294,
westtown-brew-works,Westtown Brew Works,micro,236 Schefflers Rd,Westtown,New York,10998-,http://www.westtownbrewworks.com,8453044152,2018-07-24 01:33:54.49449,2018-08-24 15:40:48.61535,United States,-74.5370795478446,41.3143129456744,
cheshmeh-brewing-co,Cheshmeh Brewing Co,planning,,White Plains,New York,10605-3517,,,2018-07-24 01:33:50.220419,2018-08-11 21:38:32.364442,United States,,,
12-gates-brewing-company,12 Gates Brewing Company,brewpub,80 Earhart Dr Ste 20,Williamsville,New York,14221-7804,http://www.12gatesbrewing.com,7169066600,2018-07-24 01:33:48.89093,2018-08-11 21:38:28.876513,United States,,,
woodcock-brothers-brewing,Woodcock Brothers Brewing,brewpub,638 Lake St,Wilson,New York,14172-9600,http://www.woodcockbrothersbrewery.com,7163334000,2018-07-24 01:33:54.634358,2018-08-24 15:40:52.546218,United States,-78.825882,43.299013,
cave-mountain-brewing-co,Cave Mountain Brewing Co,brewpub,5359 State Route 23,Windham,New York,12496-5906,http://www.cavemountainbrewing.com,5187349222,2018-07-24 01:33:50.157039,2018-08-11 21:38:32.192985,United States,,,
yonkers-brewing-co,Yonkers Brewing Co,micro,92 Main St,Yonkers,New York,10701-7065,http://www.yonkersbrewing.com,9143915805,2018-07-24 01:33:54.712366,2018-08-24 15:40:54.73687,United States,-73.9029331,40.9345744,