id,name,brewery_type,street,address_2,address_3,city,state,county_province,postal_code,website_url,phone,created_at,updated_at,country,longitude,latitude,tags
13-below-brewery,13 Below Brewery,micro,7391 Forbes Rd,,,Cincinnati,Ohio,,45233-1013,http://www.13belowbrewery.com,5139750613,2018-07-24 01:34:37,2018-07-24 01:34:37,United States,-84.70634815,39.12639764,
16-lots-brewing,16 Lots Brewing,brewpub,753 Reading Rd,,,Mason,Ohio,,45040-1303,http://www.16lots.com,5134863672,2018-07-24 01:34:37,2018-07-24 01:34:37,United States,-84.3183801,39.3545967,
2-tones-brewing-co,2 Tones Brewing Co.,micro,4539 E Broad St,,,Whitehall,Ohio,,43213-1308,http://www.2tonesbrewingco.com,,2018-07-24 01:34:37,2020-10-11 19:04:00,United States,-82.91181740000002,40.0030689,
4kd-crick-brewery,4kd Crick Brewery,brewpub,211 Carpenter Rd,,,Defiance,Ohio,,43512-1718,http://Www.4kdcrickbrewery.com,4199562863,2018-07-24 01:34:37,2018-07-24 01:34:37,United States,-84.341647,41.296252,
actual-brewing-company-llc,"Actual Brewing Company, LLC",micro,655 N James Rd,,,Columbus,Ohio,,43219-1837,http://wwww.actualbeer.com,6146363825,2018-07-24 01:34:37,2018-07-24 01:34:37,United States,-82.90809859999997,39.9868523,
akronym-brewing-llc,Akronym Brewing LLC,micro,58 E Market St,,,Akron,Ohio,,4430,http://www.akronymbrewing.com,3306208274,2018-07-24 01:34:37,2018-07-24 01:34:37,United States,-81.51645882,41.08512193,
alematic-artisan-ales,Alematic Artisan Ales,planning,,,,Huber Heights,Ohio,,45424-3857,http://www.alematicbrewing.com,9376122337,2018-07-24 01:34:37,2018-07-24 01:34:37,United States,,,
anheuser-busch-inc-a-columbus,Anheuser-Busch Inc â Columbus,large,700 Schrock Rd,,,Columbus,Ohio,,43229-1123,,6148886644,2018-07-24 01:34:37,2018-07-24 01:34:37,United States,-82.99306999999997,40.102197,
antiques-on-high,Antiques on High,micro,714 S High St,,,Columbus,Ohio,,43206,https://www.antiquesonhigh.com/,614-725-2070,2020-10-11 18:05:00,2020-10-11 18:05:00,United States,-82.99774000000002,39.9476,
aqueduct-brewing,Aqueduct Brewing,micro,529 Grant St Ste 106,,,Akron,Ohio,,44311-1184,http://www.aqueductbrewing.shutterfly.com,3306066583,2018-07-24 01:34:37,2018-07-24 01:34:37,United States,-81.51788487,41.0698532,
bad-tom-smith-brewing,Bad Tom Smith Brewing,micro,4720 Eastern Ave,,,Cincinnati,Ohio,,45226-1893,http://www.badtomsmithbrewing.com,5138714677,2018-07-24 01:34:37,2018-07-24 01:34:37,United States,-84.41803086,39.11995755,
bad-tom-smith-brewing,Bad Tom Smith Brewing,brewpub,1836 W 25th St,,,Cleveland,Ohio,,44113-3142,,,2018-07-24 01:34:37,2018-07-24 01:34:37,United States,-81.7051638,41.48617720000001,
baithouse-brewery,Baithouse Brewery,planning,,,,Sandusky,Ohio,,44870,http://www.baithousebrewery.com,4193665372,2018-07-24 01:34:37,2018-07-24 01:34:37,United States,,,
bardwell-winery-and-brewery,Bardwell Winery and Brewery,micro,716 N High St,,,Mount Orab,Ohio,,45154,http://www.bardwellwinery.com,,2018-07-24 01:34:37,2018-07-24 01:34:37,United States,-83.92097890000002,39.0419795,
barleys-brewing-company-ale-house-no-1,Barley's Brewing Company (Ale House No. 1),brewpub,467 N High St,,,Columbus,Ohio,,43215-2007,http://www.barleysbrewing.com,6142282537,2018-07-24 01:34:37,2018-07-24 01:34:37,United States,-83.00276690000003,39.9719408,
bascule-brewery-and-public-house,Bascule Brewery And Public House,micro,1397 Colorado Ave,,,Lorain,Ohio,,44052-3377,http://www.basculebrewingcompany.com,,2018-07-24 01:34:37,2018-07-24 01:34:37,United States,-82.15710792,41.46560548,
big-ash-brewing-company,Big Ash Brewing Company,planning,,,,Cincinnati,Ohio,,45244-3244,http://www.BigAshBrewing.com,5133079688,2018-07-24 01:34:37,2018-07-24 01:34:37,United States,,,
biker-brew-house,Biker Brew House,micro,5700 Interstate Blvd,,,Austintown,Ohio,,44515-1170,http://www.bikerbrewhouse.com,,2018-07-24 01:34:37,2018-07-24 01:34:37,United States,,,
birdfish-brewing-co,BirdFish Brewing Co,micro,16 S Main St,,,Columbiana,Ohio,,44408-1348,http://www.birdfishbrew.com,3303339385,2018-07-24 01:34:37,2018-07-24 01:34:37,United States,-80.69353036,40.888487,
black-cloister-brewing-co,Black Cloister Brewing Co,brewpub,619 Monroe St,,,Toledo,Ohio,,43604-1015,http://www.blackcloister.com,4192141500,2018-07-24 01:34:37,2018-07-24 01:34:37,United States,-83.5399665,41.6499863,
black-frog-brewing-co,Black Frog Brewing Co,micro,831 S McCord Rd,,,Holland,Ohio,,43528-8746,http://www.blackfrogbrewery.com,4193897136,2018-07-24 01:34:37,2018-07-24 01:34:37,United States,-83.7032185,41.6171284,
bookhouse-brewing-llc,"Bookhouse Brewing, LLC.",planning,,,,Cleveland,Ohio,,44113-3104,http://www.bookhouse.beer,4144264555,2018-07-24 01:34:37,2018-07-24 01:34:37,United States,,,
boss-dog-brewing,Boss Dog Brewing,brewpub,2179 Lee Rd,,,Cleveland,Ohio,,44118-2907,http://www.bossdogbrewing.com,2163212337,2018-07-24 01:34:37,2018-07-24 01:34:37,United States,-81.56529555,41.50030645,
boston-beer-co-dba-samuel-adams-brewing-co,Boston Beer Co - DBA Samuel Adams Brewing Co,regional,1625 Central Pkwy,,,Cincinnati,Ohio,,45214-2423,http://www.samueladams.com,6173685000,2018-07-24 01:34:37,2018-07-24 01:34:37,United States,-84.52076509999998,39.11257,
bottlehouse-brewery,BottleHouse Brewery,micro,13368 Madison Ave,,,Lakewood,Ohio,,44107-4840,http://www.thebottlehousebrewingcompany.com,2162142120,2018-07-24 01:34:37,2018-07-24 01:34:37,United States,-81.78445705,41.47721765,
bowling-green-beer-works,Bowling Green Beer Works,micro,322 N Grove St Ste C,,,Bowling Green,Ohio,,43402-2322,,5122992101,2018-07-24 01:34:37,2018-07-24 01:34:37,United States,,,
branch-and-bone-artisan-ales,Branch & Bone Artisan Ales,micro,905 Wayne Ave,,,Dayton,Ohio,,45410-1247,http://www.branchandboneales.com,9377237608,2018-07-24 01:34:37,2018-07-24 01:34:37,United States,-84.17723419,39.75223085,
brausch-brewery,Brausch Brewery,micro,1030 S South St,,,Wilmington,Ohio,,45177-2924,,9373022337,2018-07-24 01:34:37,2018-07-24 01:34:37,United States,-83.83091585,39.43274712,
breaking-point-brewery,Breaking Point Brewery,micro,,,,Cleveland Heights,Ohio,,44121-1706,,2162357411,2018-07-24 01:34:37,2018-07-24 01:34:37,United States,,,
brew-kettle-production-works,Brew Kettle - Production Works,micro,20102 Progress Dr,,,Strongsville,Ohio,,44149-3259,,,2018-07-24 01:34:37,2018-07-24 01:34:37,United States,-81.84994566,41.32637626,
brewdog-brewing-company-llc,"BrewDog Brewing Company, LLC",micro,96 Gender Rd,,,Canal Winchester,Ohio,,43110-7539,http://www.brewdog.com/usa,6149083059,2018-07-24 01:34:37,2018-07-24 01:34:37,United States,-82.8311352,39.8225954,
brewdog-short-north-&-kennels,Brewdog Short North & Kennels,brewpub,1175 N High St,,,Columbus,Ohio,,43201,https://www.brewdog.com/,614-908-3053,2020-10-11 18:00:00,2020-10-11 18:00:00,United States,-83.00579,39.98637,
brewery-33-hocking-hills-llc,"Brewery 33 Hocking Hills, LLC",micro,12684 College Prospect Dr,,,Logan,Ohio,,43138-8983,,,2018-07-24 01:34:37,2018-07-24 01:34:37,United States,-82.44991565,39.54378185,
brewery-in-planning-bethel,Brewery In Planning - Bethel,planning,,,,Bethel,Ohio,,45106-8228,,5134911227,2018-07-24 01:34:37,2018-07-24 01:34:37,United States,,,
brewery-in-planning-cincinnati,Brewery in Planning - Cincinnati,planning,,,,Cincinnati,Ohio,,45245-2833,,5855767169,2018-07-24 01:34:37,2018-07-24 01:34:37,United States,,,
brewery-in-planning-cuyahoga-falls,Brewery in Planning - Cuyahoga Falls,planning,,,,Cuyahoga Falls,Ohio,,44221-2946,,,2018-07-24 01:34:37,2018-07-24 01:34:37,United States,,,
brewery-in-planning-dublin,Brewery in Planning - Dublin,planning,,,,Dublin,Ohio,,43016-8696,,8152366393,2018-07-24 01:34:37,2018-07-24 01:34:37,United States,,,
brewery-in-planning-lockland,Brewery in Planning - Lockland,planning,,,,Lockland,Ohio,,45215-4548,,,2018-07-24 01:34:37,2018-07-24 01:34:37,United States,,,
brewery-in-planning-miami-county,Brewery in Planning - Miami County,planning,,,,Miami County,Ohio,,45373,,,2018-07-24 01:34:37,2018-07-24 01:34:37,United States,,,
brewery-in-planning-newark,Brewery in Planning - Newark,planning,,,,Newark,Ohio,,43055-6722,,7404044646,2018-07-24 01:34:37,2018-07-24 01:34:37,United States,,,
brewery-in-planning-pensacola,Brewery In Planning - Pensacola,planning,,,,Hilliard,Ohio,,43026-7511,,,2018-07-24 01:34:37,2018-07-24 01:34:37,United States,,,
brewery-in-planning-solon-oh,"Brewery in Planning - Solon, OH",planning,,,,Solon,Ohio,,44139-3884,,4407252441,2018-07-24 01:34:37,2018-07-24 01:34:37,United States,,,
brewery-in-planning-stow-oh,"Brewery in Planning - Stow, OH",planning,,,,Stow,Ohio,,44224-1009,,,2018-07-24 01:34:37,2018-07-24 01:34:37,United States,,,
brewery-in-planning-upper-arlington,Brewery in Planning - Upper Arlington,planning,,,,Upper Arlington,Ohio,,43221-4112,,,2018-07-24 01:34:37,2018-07-24 01:34:37,United States,,,
brewery-in-planning-wadsworth,Brewery In Planning - Wadsworth,planning,,,,Wadsworth,Ohio,,44281-7401,,,2018-07-24 01:34:37,2018-07-24 01:34:37,United States,,,
brewery-in-planning-waynesville,Brewery in Planning - Waynesville,planning,,,,Waynesville,Ohio,,45068-7004,,9375813539,2018-07-24 01:34:37,2018-07-24 01:34:37,United States,,,
brewery-in-planning-worthington-oh,"Brewery In Planning - Worthington, OH.",planning,,,,Columbus,Ohio,,43085,,,2018-07-24 01:34:37,2018-07-24 01:34:37,United States,,,
brick-and-barrel,Brick and Barrel,micro,1844 Columbus Rd,,,Cleveland,Ohio,,44113-2412,http://www.brickandbarrelbrewing.com,5039270629,2018-07-24 01:34:37,2018-07-24 01:34:37,United States,-81.70088609999998,41.4895629,
brim-kitchen-and-brewery,Brim Kitchen and Brewery,brewpub,3941 Erie St,,,Willoughby,Ohio,,44094-7704,http://www.brimbrewery.com,4402068183,2018-07-24 01:34:37,2018-07-24 01:34:37,United States,-81.40637701,41.64346969,
brink-brewing-company,Brink Brewing Company,micro,5905 Hamilton Ave,,,Cincinnati,Ohio,,45224-3045,http://www.brinkbrewing.com,5138823334,2018-07-24 01:34:37,2018-07-24 01:34:37,United States,-84.545876,39.192788,
brubakers-brewery-and-pub,Brubaker's Brewery & Pub,planning,,,,Sylvania,Ohio,,43560-9586,,,2018-07-24 01:34:37,2018-07-24 01:34:37,United States,,,
buckeye-beer-engine,Buckeye Beer Engine,brewpub,15315 Madison Ave,,,Lakewood,Ohio,,44107-4020,http://www.buckeyebeerengine.com,2162262337,2018-07-24 01:34:37,2018-07-24 01:34:37,United States,-81.80391800000002,41.477245,
buckeye-lake-brewery,Buckeye Lake Brewery,micro,5176 Walnut Rd,,,Buckeye Lake,Ohio,,43008,,7405356225,2018-07-24 01:34:37,2018-07-24 01:34:37,United States,-82.488973,39.928559,
bucks-brewing-co,Buck's Brewing Co,micro,993 Mount Vernon Rd,,,Newark,Ohio,,43055-4728,,7406412337,2018-07-24 01:34:37,2018-07-24 01:34:37,United States,-82.41752143,40.08367829,
canton-brewing-company,Canton Brewing Company,brewpub,120 3rd St NW,,,Canton,Ohio,,44702,http://www.drinkcantonbeer.com,,2018-07-24 01:34:37,2018-07-24 01:34:37,United States,-81.37453867,40.7998289,
carillon-brewing-company,Carillon Brewing Company,brewpub,1000 Carillon Blvd,,,Dayton,Ohio,,45409-2023,http://www.carillonbrewingco.org,9372932841,2018-07-24 01:34:37,2018-07-24 01:34:37,United States,-84.20121,39.730102,
catawba-island-brewing-company,Catawba Island Brewing Company,micro,2330 East Harbor Rd,,,Port Clinton,Ohio,,43452-1517,http://catawbaislandbrewing.com,4199607764,2018-07-24 01:34:37,2018-07-24 01:34:37,United States,,,
chagrin-beer-company,Chagrin Beer Company,contract,178 E Washington St,,,Chagrin Falls,Ohio,,44022-2978,,2166451739,2018-07-24 01:34:37,2018-07-24 01:34:37,United States,-81.38518067,41.42999722,
christian-moerlein-brewing-co,Christian Moerlein Brewing Co,regional,1621 Moore St,,,Cincinnati,Ohio,,45202-6438,http://www.christianmoerlein.com,5138276025,2018-07-24 01:34:37,2018-07-24 01:34:37,United States,-84.51533432,39.11322509,
cle-brewing,CLE Brewing,micro,9431 Mercantile Dr,,,Mentor,Ohio,,44060,http://www.smarterbrewing.com,4405278330,2018-07-24 01:34:37,2018-07-24 01:34:37,United States,-81.30644573,41.69622887,
cleveland-brewing-company-butcher-and-the-brewer,Cleveland Brewing Company @ Butcher and The Brewer,brewpub,2043 E 4th St,,,Cleveland,Ohio,,44115-1023,,,2018-07-24 01:34:37,2018-07-24 01:34:37,United States,-81.69003599999998,41.4991502,
clubhouse-brewing-company-ltd,Clubhouse Brewing Company Ltd,micro,668 N River Rd NW,,,Warren,Ohio,,44483,,3305487854,2018-07-24 01:34:37,2018-07-24 01:34:37,United States,-80.82676867,41.26602856,
collision-bend-brewing-co,Collision Bend Brewing Co,brewpub,1250 Old River Rd,,,Cleveland,Ohio,,44113-1243,http://www.collisionbendbrewery.com,2162737879,2018-07-24 01:34:37,2018-07-24 01:34:37,United States,-81.7039719,41.49884829,
columbus-brewing-co,Columbus Brewing Co,regional,2555 Harrison Rd,,,Columbus,Ohio,,43204-3511,http://www.columbusbrewing.com,6142243626,2018-07-24 01:34:37,2018-07-24 01:34:37,United States,-83.0692897,39.9675898,
combustion-brewery,Combustion Brewery,micro,80 W Church St Ste 101,,,Pickerington,Ohio,,43147-1484,http://www.combustionbrewing.com,6143628450,2018-07-24 01:34:37,2018-07-24 01:34:37,United States,,,
commonhouse-ales,Commonhouse Ales,micro,535 Short St,,,Columbus,Ohio,,43215-5614,http://www.commonhouseales.com,6142530272,2018-07-24 01:34:37,2018-07-24 01:34:37,United States,-83.00367741,39.95045334,
cornerstone-brewing-co,Cornerstone Brewing Co,brewpub,70 W  Main St,,,Madison,Ohio,,44057-3126,,4402399820,2018-07-24 01:34:37,2018-07-24 01:34:37,United States,-81.04814066,41.77136994,
cornerstone-brewing-co,Cornerstone Brewing Co,brewpub,58 Front St,,,Berea,Ohio,,44017-1911,,4402399820,2018-07-24 01:34:37,2018-07-24 01:34:37,United States,-81.85304867,41.36685385,
crooked-handle-brewing-co,Crooked Handle Brewing Co.,micro,760 N Main St,,,Springboro,Ohio,,45066-8944,http://www.crookedhandle.com,9377903450,2018-07-24 01:34:37,2018-07-24 01:34:37,United States,-84.23082816,39.57664643,
crooked-pecker-brewing,Crooked Pecker Brewing,planning,,,,Newbury,Ohio,,44065-9735,,4404763427,2018-07-24 01:34:37,2018-07-24 01:34:37,United States,,,
dalton-union-winery-and-brewery,Dalton Union Winery & Brewery,micro,2110 Shirk Rd,,,Marysville,Ohio,,43040,http://www.daltonunion.com,9373193667,2018-07-24 01:34:37,2018-07-24 01:34:37,United States,,,
dankhouse-brewing-company,DankHouse Brewing Company,micro,161 Forry St,,,Newark,Ohio,,43055-3760,http://www.dankhousebrewing.com,,2018-07-24 01:34:37,2018-07-24 01:34:37,United States,-82.41720528,40.0442341,
dayton-beer-co-production-brewery-and-bierhall,Dayton Beer Co Production Brewery & Bierhall,micro,41 Madison St,,,Dayton,Ohio,,45402-2105,http://www.thedaytonbeerco.com,9372282337,2018-07-24 01:34:37,2018-07-24 01:34:37,United States,-84.18528868,39.76226676,
dead-low-brewing,Dead Low Brewing,planning,,,,Cincinnati,Ohio,,45230,http://www.deadlowbrewing.com,5132909434,2018-07-24 01:34:37,2018-07-24 01:34:37,United States,,,
derive-brewing-company,Derive Brewing company,micro,2808 N. High St.,,,Columbus,Ohio,,43206,https://www.derivebeer.com/,614-732-4186,2020-10-11 00:00:00,2020-10-11 00:00:00,United States,-83.01185,40.01939,
devil-wind-brewing-llc,Devil Wind Brewing LLC,micro,130 S Detroit St,,,Xenia,Ohio,,45385,http://www.devilwindbrewing.com,9376090002,2018-07-24 01:34:37,2018-07-24 01:34:37,United States,-83.92913685,39.68294798,
devils-kettle-brewing,Devil's Kettle Brewing,micro,97 Columbus Rd,,,Athens,Ohio,,45701-1313,http://www.devilskettlebrewing.com,7405897187,2018-07-24 01:34:37,2018-07-24 01:34:37,United States,-82.09543176,39.34871425,
dogberry-brewing-llc,DogBerry Brewing LLC,micro,9964 Crescent Park Dr,,,West Chester,Ohio,,45069,http://www.dogberrybrewing.com,5138478208,2018-07-24 01:34:37,2018-07-24 01:34:37,United States,,,
double-edge-brewing-co,Double Edge Brewing Co,micro,158 W Chestnut St,,,Lancaster,Ohio,,43130-4308,http://www.double-edge.beer,7402777465,2018-07-24 01:34:37,2018-07-24 01:34:37,United States,-82.6042529,39.71236470000001,
double-wing-brewing-co,Double Wing Brewing Co,brewpub,7840 Doty Rd,,,Madison,Ohio,,44057-9511,http://www.ratbrew.com,4404663485,2018-07-24 01:34:37,2018-07-24 01:34:37,United States,-81.00537902,41.74037309,
dungeon-hollow-brewing,Dungeon Hollow Brewing,micro,572 County Rd 22A,,,Bloomingdale,Ohio,,43910,http://www.dungeonhollow.com,7403371510,2018-07-24 01:34:37,2018-07-24 01:34:37,United States,,,
earlybird-brewing-company,Earlybird Brewing Company,contract,737 Bolivar Rd Ste 4100,,,Cleveland,Ohio,,44115-1259,http://www.earlybirdbrewing.com,,2018-07-24 01:34:37,2018-07-24 01:34:37,United States,,,
earnest-brew-works,Earnest Brew Works,micro,4342 S Detroit Ave,,,Toledo,Ohio,,43614-5367,http://www.earnestbrewworks.com,4193402589,2018-07-24 01:34:37,2018-07-24 01:34:37,United States,-83.61522535,41.590252,
elevator-brewery-and-draught-haus,Elevator Brewery and Draught Haus,brewpub,161 N High St,,,Columbus,Ohio,,43215-2402,http://www.elevatorbrewing.com,6142280500,2018-07-24 01:34:37,2018-07-24 01:34:37,United States,-83.0017892,39.96566970000001,
elevator-brewing-co-production-facility,Elevator Brewing Co - Production facility,micro,165 N 4th St,,,Columbus,Ohio,,43215-2906,http://elevatorbrewery.com,6146792337,2018-07-24 01:34:37,2020-10-11 18:17:00,United States,-82.9995686,39.9662282,
endeavor-brewing-company,Endeavor Brewing Company,micro,909 W 5th Ave,,,Columbus,Ohio,,43212,http://www.endeavorbrewingco.com,6144567074,2018-07-24 01:34:37,2018-07-24 01:34:37,United States,-83.030429,39.988002,
endless-pint-brewing,Endless Pint Brewing,planning,,,,Versailles,Ohio,,45380,http://www.endlesspintbrewing.com,4197338806,2018-07-24 01:34:37,2018-07-24 01:34:37,United States,,,
eudora-brewing-co,Eudora Brewing Co,micro,4716 Wilmington Pike,,,Dayton,Ohio,,45440-2021,http://www.eudorabrewing.com,9377236863,2018-07-24 01:34:37,2018-07-24 01:34:37,United States,-84.16227099999998,39.735916,
fat-heads-brewery,Fat Head's Brewery,regional,,,,Middleburg Heights,Ohio,,44130-2472,http://www.fatheads.com,2168980242,2018-07-24 01:34:37,2018-07-24 01:34:37,United States,,,
fat-heads-brewery-and-saloon,Fat Head's Brewery & Saloon,brewpub,24581 Lorain Rd,,,North Olmsted,Ohio,,44070-2170,http://www.fatheadscleveland.com,4408011001,2018-07-24 01:34:37,2018-07-24 01:34:37,United States,-81.89440993,41.42667743,
fat-heads-brewpub-canton,Fat Head's Brewpub - Canton,brewpub,3885 Everhard Rd NW,,,Canton,Ohio,,44709-4003,,,2018-07-24 01:34:37,2018-07-24 01:34:37,United States,-81.41867571,40.85972436,
father-johns-microbrewery,Father John's Microbrewery,brewpub,301 W Butler St,,,Bryan,Ohio,,43506-1608,http://www.fatherjohnsbrewery.com,4196331313,2018-07-24 01:34:37,2018-07-24 01:34:37,United States,-84.553828,41.473192,
fibonacci-brewing-company,Fibonacci Brewing Company,micro,1445 Compton Rd,,,Cincinnati,Ohio,,45231-3559,http://fibbrew.com,5138321422,2018-07-24 01:34:37,2018-07-24 01:34:37,United States,-84.4805528,39.218908,
fifth-street-brewpub,Fifth Street Brewpub,brewpub,1600 E 5th St,,,Dayton,Ohio,,45403-2304,http://Fifthstreetbrewpub.coop,9374430919,2018-07-24 01:34:37,2018-07-24 01:34:37,United States,-84.1881863,39.7572259,
fifty-west-brewing-co,Fifty West Brewing Co,micro,7605 Wooster Pike,,,Cincinnati,Ohio,,45227-3925,,5138348789,2018-07-24 01:34:37,2018-07-24 01:34:37,United States,-84.41348590000003,39.11952,
fifty-west-brewing-co,Fifty West Brewing Co,brewpub,7668 Wooster Pike,,,Cincinnati,Ohio,,45227-3926,http://www.fiftywestbrew.com,5138348789,2018-07-24 01:34:37,2018-07-24 01:34:37,United States,-84.41348590000003,39.11952,
figleaf-brewing-company,FigLeaf Brewing Company,micro,3387 Cincinnati Dayton Rd,,,Middletown,Ohio,,45044-8905,http://www.figleafbrewing.com,9373612573,2018-07-24 01:34:37,2018-07-24 01:34:37,United States,-84.34678975,39.46688114,
findlay-brewing-co,Findlay Brewing Co.,micro,213 E. Crawford St.,,,Findlay,Ohio,,45840,http://www.findlaybrewingcompany.com,4197227395,2018-07-24 01:34:37,2018-07-24 01:34:37,United States,-83.64817394,41.03767553,
flatrock-brewery,Flatrock Brewery,micro,621 N Perry St,,,Napoleon,Ohio,,43545-1701,http://www.flatrockbrewery.com,4199661440,2018-07-24 01:34:37,2018-07-24 01:34:37,United States,-84.1245567,41.39090717,
forest-city-brewery,Forest City Brewery,brewpub,2135 Columbus Rd Ste A,,,Cleveland,Ohio,,44113-4243,http://www.forestcitybrewery.com,,2018-07-24 01:34:37,2018-07-24 01:34:37,United States,,,
four-string-brewing-company,Four String Brewing Company,micro,985 W 6th Ave,,,Columbus,Ohio,,43212-2601,http://www.fourstringbrewing.com,6147251282,2018-07-24 01:34:37,2018-07-24 01:34:37,United States,-83.03279943,39.98904657,
four-string-brewing-company-west-side-production-facility,Four String Brewing Company - West Side Production Facility,micro,660 N Hague Ave,,,Columbus,Ohio,,43204-,,6147251282,2018-07-24 01:34:37,2018-07-24 01:34:37,United States,,,
franklin-brewing-co,Franklin Brewing Co,micro,1345 East Ave,,,Elyria,Ohio,,44035-7681,,,2018-07-24 01:34:37,2018-07-24 01:34:37,United States,-82.10041992,41.35034495,
fretboard-brewing-company,Fretboard Brewing Company,micro,5800 Creek Rd,,,Blue Ash,Ohio,,45242-4010,http://www.fretboardbrewing.com,5139144677,2018-07-24 01:34:37,2018-07-24 01:34:37,United States,-84.390108,39.260924,
goldhorn-brewery,Goldhorn Brewery,brewpub,1361 E 55th St,,,Cleveland,Ohio,,44103-1301,,,2018-07-24 01:34:37,2018-07-24 01:34:37,United States,-81.65161429999998,41.5214479,
gordon-biersch-brewery-restaurant-columbus,Gordon Biersch Brewery Restaurant - Columbus,closed,401 N Front St Ste 120,,,Columbus,Ohio,,43215-8200,http://www.gordonbiersch.com/restaurant,6142462900,2018-07-24 01:34:37,2020-10-11 18:11:00,United States,-83.0040735,39.9703677,
gotl-brewing-co,GOTL Brewing Co,brewpub,5243 Lake Rd E,,,Geneva,Ohio,,44041-9433,http://www.gotlbrewing.com,4403614864,2018-07-24 01:34:37,2018-07-24 01:34:37,United States,-80.94434114,41.86120536,
grainworks-brewing-company,Grainworks Brewing Company,micro,7790 Service Center Dr,,,West Chester,Ohio,,45069-2442,,5134802337,2018-07-24 01:34:37,2018-07-24 01:34:37,United States,,,
granite-city-food-and-brewery,Granite City Food & Brewery,brewpub,24519 Cedar Rd,,,Cleveland,Ohio,,44124-3780,,,2018-07-24 01:34:37,2018-07-24 01:34:37,United States,-81.50403179999998,41.5033931,
granite-city-food-and-brewery-#25,Granite City Food & Brewery (#25),brewpub,2300 Village Dr W,,,Maumee,Ohio,,43537-7550,http://www.gcfb.net,4198789050,2018-07-24 01:34:37,2018-07-24 01:34:37,United States,,,
granville-brewing-company,Granville Brewing Company,micro,5371 Columbus Rd,,,Granville,Ohio,,43023-9192,http://www.granvillewbrewing.com,,2018-07-24 01:34:37,2018-07-24 01:34:37,United States,-82.58861603,40.03527379,
great-black-swamp-brewing-co,Great Black Swamp Brewing Co,micro,3323 Monroe St,,,Toledo,Ohio,,43606-4553,http://www.greatblackswampbrewing.com,4199731256,2018-07-24 01:34:37,2018-07-24 01:34:37,United States,-83.5462275,41.6530711,
great-lakes-brewing-co,Great Lakes Brewing Co,regional,1947 W 28th St,,,Cleveland,Ohio,,44113-3422,http://www.greatlakesbrewing.com,2167714404,2018-07-24 01:34:37,2018-07-24 01:34:37,United States,-81.70571113,41.48405803,
great-lakes-brewing-co,Great Lakes Brewing Co,brewpub,2516 Market Ave,,,Cleveland,Ohio,,44113-3434,http://www.greatlakesbrewing.com,,2018-07-24 01:34:37,2018-07-24 01:34:37,United States,-81.70442659999998,41.4844172,
grove-city-brewing-company,Grove City Brewing Company,brewpub,3946 Broadway,,,Grove City,Ohio,,43123-2623,http://www.grovecitybrewingcompany.com,6149910338,2018-07-24 01:34:37,2018-07-24 01:34:37,United States,,,
gypsy-brewery,Gypsy Brewery,micro,3506 Vega Ave,,,Cleveland,Ohio,,44113-4900,,,2018-07-24 01:34:37,2018-07-24 01:34:37,United States,-81.70785488,41.47449194,
hairless-hare-brewery,Hairless Hare Brewery,micro,738 W National Rd,,,Vandalia,Ohio,,45377-1015,http://www.hairlessharebrewery.com,9373876476,2018-07-24 01:34:37,2018-07-24 01:34:37,United States,,,
hansa-brewery,Hansa Brewery,brewpub,2717 Lorain Ave,,,Cleveland,Ohio,,44113-3414,http://www.hansabrewery.com,2166316585,2018-07-24 01:34:37,2018-07-24 01:34:37,United States,-81.70479139,41.48344207,
hasseman-brewing,Hasseman Brewing,micro,115 S 6th St,,,Coshocton,Ohio,,43812-1625,http://www.hassemanbrewing.com,7402941364,2018-07-24 01:34:37,2018-07-24 01:34:37,United States,-81.86176557,40.27239943,
headtrip-brewery,Headtrip Brewery,micro,1634 Norton Rd,,,Stow,Ohio,,44224-1412,http://www.headtripbrewery.com,,2018-07-24 01:34:37,2018-07-24 01:34:37,United States,-81.442913,41.202942,
heavier-than-air-brewing-co,Heavier Than Air Brewing Co,micro,497 Miamisburg Centerville Rd,,,Centerville,Ohio,,45459-4753,http://www.heavierthanairbrewing.com,9374331500,2018-07-24 01:34:37,2018-07-24 01:34:37,United States,-84.1733314,39.62796812,
hightower-brewing-co,Hightower Brewing Co,micro,3445 County Road 16 Unit B,,,Rayland,Ohio,,43943-7765,http://www.hightowerbrewingcompany.com,7408590764,2018-07-24 01:34:37,2018-07-24 01:34:37,United States,,,
hiho-brewing-co,HiHO Brewing Co,brewpub,1707 Front St,,,Cuyahoga Falls,Ohio,,44221-4711,http://www.hihobrewingco.com,2343347564,2018-07-24 01:34:37,2018-07-24 01:34:37,United States,-81.48536118,41.12813502,
hofbrauhaus-cleveland-/-cincinatti-restaurant-group,Hofbrauhaus Cleveland / Cincinatti Restaurant Group,brewpub,1550 Chester Ave,,,Cleveland,Ohio,,44114-3615,http://www.hofbrauhauscleveland.com,2166212337,2018-07-24 01:34:37,2018-07-24 01:34:37,United States,-81.68115344,41.50310892,
hofbrauhaus-columbus,Hofbrauhaus Columbus,brewpub,800 Goodale Blvd,,,Columbus,Ohio,,43212-3825,http://www.hofbrauhauscolumbus.com,6142942437,2018-07-24 01:34:37,2018-07-24 01:34:37,United States,-83.025737,39.974313,
homestead-beer-co,Homestead Beer Co.,micro,811 Irving Wick Dr W,,,Heath,Ohio,,43056-1199,http://www.homesteadbeerco.com,7405228018,2018-07-24 01:34:37,2018-07-24 01:34:37,United States,-82.47380719,40.02494781,
hoof-hearted-brewing,Hoof Hearted Brewing,micro,300 County Road 26,,,Marengo,Ohio,,43334-9678,http://www.hoofheartedbrewing.com,5672333115,2018-07-24 01:34:37,2018-07-24 01:34:37,United States,,,
hoof-hearted-brewing-brewery-and-kitchen,Hoof Hearted Brewing - Brewery and Kitchen,brewpub,850 N 4th St,,,Columbus,Ohio,,43215-1845,https://hoofheartedkitchen.com/,6144014033,2018-07-24 01:34:37,2020-10-11 18:16:00,United States,-83.0002482,39.9803665,
hop-tree-brewing-company-ltd,Hop Tree Brewing Company Ltd,brewpub,1297 Hudson Gate Dr,,,Hudson,Ohio,,44236-3764,http://www.hoptreebrewing.com,3303420060,2018-07-24 01:34:37,2018-07-24 01:34:37,United States,-81.44518205,41.20893905,
hoppin-frog-brewing-co,Hoppin' Frog Brewing Co,micro,1680 E Waterloo Rd Ste F,,,Akron,Ohio,,44306-4523,http://www.hoppinfrog.com,,2018-07-24 01:34:37,2018-07-24 01:34:37,United States,,,
hoster-brewing-co,Hoster Brewing Co,contract,760 Harmon Ave,,,Columbus,Ohio,,43223,http://www.hosterbeer.com,6142213606,2018-07-24 01:34:37,2018-07-24 01:34:37,United States,-83.01615373,39.94440869,
ignite-brewing-company-ltd,"Ignite Brewing Company, Ltd.",micro,600 W Tuscarawas Ave,,,Barberton,Ohio,,44203-2460,http://www.facebook.com/Ignitebrewingcompany,3306966881,2018-07-24 01:34:37,2018-07-24 01:34:37,United States,-81.61268000000003,41.012866,
ill-mannered-brewing-company,Ill Mannered Brewing Company,micro,38 Grace Dr,,,Powell,Ohio,,43065-8466,http://www.illmanneredbeer.com/,614-859-6819,2018-07-24 01:34:37,2020-10-11 18:35:00,United States,-83.07401209999998,40.1635259,
inside-the-five-brewing,Inside The Five Brewing,brewpub,5703 Main St,,,Sylvania,Ohio,,43560-4901,http://www.insidethefive.com,5674087212,2018-07-24 01:34:37,2018-07-24 01:34:37,United States,-83.70328149,41.71726502,
jackie-os-brewery,Jackie O's Brewery,micro,25 Campbell St,,,Athens,Ohio,,45701-2616,,6147473434,2018-07-24 01:34:37,2018-07-24 01:34:37,United States,-82.09053555,39.3315139,
jackie-os-pub-and-brewery,Jackie O's Pub & Brewery,brewpub,22-24 W Union St,,,Athens,Ohio,,45701-2818,http://www.jackieos.com,7405929686,2018-07-24 01:34:37,2018-07-24 01:34:37,United States,-82.10216171,39.32764186,
jafb-brewery,JAFB Brewery,micro,120 Beall Ave,,,Wooster,Ohio,,44691-3673,http://www.jafbbeer.com,3306011827,2018-07-24 01:34:37,2018-07-24 01:34:37,United States,-81.93429705,40.7995432,
kennedy-vineyard,Kennedy Vineyard,micro,3911 State Route 722,,,New Madison,Ohio,,45346,http://www.kennedyvineyard.net,9372738381,2018-07-24 01:34:37,2018-07-24 01:34:37,United States,,,
kindred-beer,Kindred Beer,micro,750 Cross Pointe Rd Unit I and J,,,Columbus,Ohio,,43230,http://www.kindredbeer.com,6146264341,2018-07-24 01:34:37,2018-07-24 01:34:37,United States,,,
knotty-pine-brewing,Knotty Pine Brewing,brewpub,1765 W 3rd Ave,,,Columbus,Ohio,,43212-2769,http://www.knottypinebrewing.net,6148171515,2018-07-24 01:34:37,2018-07-24 01:34:37,United States,-83.0529324,39.9852813,
lager-heads-brewing-co,Lager Heads Brewing Co.,micro,325 W Smith Rd,,,Medina,Ohio,,44256-2352,http://www.lagerheads.us,3307212337,2018-07-24 01:34:37,2018-07-24 01:34:37,United States,-81.86844379,41.13633377,
lager-heads-smokehouse,Lager Heads Smokehouse,brewpub,2832 Abbeyville Rd,,,Medina,Ohio,,44256,,3307251947,2018-07-24 01:34:37,2018-07-24 01:34:37,United States,-81.88755054,41.19980605,
lake-rat-brewing,Lake Rat Brewing,brewpub,108 S Main St,,,Celina,Ohio,,45822,http://www.lakeratbrewing.com,4197331830,2018-07-24 01:34:37,2018-07-24 01:34:37,United States,-84.57069367,40.54820057,
land-grant-brewing-company,Land-Grant Brewing Company,micro,424 W Town St,,,Columbus,Ohio,,43215-4040,http://www.landgrantbrewing.com,2169562634,2018-07-24 01:34:37,2018-07-24 01:34:37,United States,-83.01150763,39.95787195,
laxton-hollow-brewing-works,Laxton Hollow Brewing Works,micro,302 E Main St,,,Mansfield,Ohio,,44904-1300,http://www.laxtonhollow.com,4195252842,2018-07-24 01:34:37,2018-07-24 01:34:37,United States,,,
levitate,Levitate,planning,,,,Mount Victory,Ohio,,43340-8908,,3133849757,2018-07-24 01:34:37,2018-07-24 01:34:37,United States,,,
lil-paws-winery,Lil Paws Winery,micro,17574-A Mahoning Ave,,,Lake Milton,Ohio,,44429-9583,http://www.lilpawswinery.com,3309709463,2018-07-24 01:34:37,2018-07-24 01:34:37,United States,,,
lineage-brewing,Lineage Brewing,brewpub,2971 N High St,,,Columbus,Ohio,,43202,http://www.lineagebrew.com,6144613622,2018-07-24 01:34:37,2018-07-24 01:34:37,United States,-83.01413155,40.0225652,
listermann-brewing-company,Listermann Brewing Company,micro,1621 Dana Ave,,,Cincinnati,Ohio,,45207-1007,http://Listermannbrewing.com,5137311130,2018-07-24 01:34:37,2018-07-24 01:34:37,United States,-84.4721318,39.1463506,
little-fish-brewing-company,Little Fish Brewing Company,micro,8675 Armitage Rd,,,Athens,Ohio,,45701-8900,http://www.littlefishbrewing.com,7402046187,2018-07-24 01:34:37,2018-07-24 01:34:37,United States,-82.12957738,39.33333227,
little-miami-brewing-company,Little Miami Brewing Company,brewpub,208 Mill St,,,Milford,Ohio,,45150-1072,http://www.littlemiamibrewing.com,5137131121,2018-07-24 01:34:37,2018-07-24 01:34:37,United States,-84.29623162,39.17161035,
lock-15-brewing-co,Lock 15 Brewing Co,planning,,,,Akron,Ohio,,44304-1035,http://www.lock15brewing.com,,2018-07-24 01:34:37,2018-07-24 01:34:37,United States,,,
lock-27-brewing,Lock 27 Brewing,brewpub,1035 S Main St,,,Centerville,Ohio,,45458-3840,http://www.lock27brewing.com,9374332739,2018-07-24 01:34:37,2018-07-24 01:34:37,United States,-84.1626371,39.6089321,
lock-27-brewing,Lock 27 Brewing,brewpub,329 E 1st St,,,Dayton,Ohio,,45402-1705,http://www.lock27brewing.com,9374332739,2018-07-24 01:34:37,2018-07-24 01:34:37,United States,-84.18693529,39.76332003,
lockport-brewery,Lockport Brewery,brewpub,10891 OH-212,,,Bolivar,Ohio,,44612-8664,http://www.lockportbeer.com,3308746037,2018-07-24 01:34:37,2018-07-24 01:34:37,United States,,,
loose-rail-brewing,Loose Rail Brewing,micro,37 W Waterloo St,,,Canal Winchester,Ohio,,43110-1140,http://www.looserailbrewing.com,6143216634,2018-07-24 01:34:37,2018-07-24 01:34:37,United States,-82.80690820000002,39.84329,
lucky-owl-brewing,Lucky Owl Brewing,micro,8660 Tamarack Trl,,,Chagrin Falls,Ohio,,44023-1876,http://www.luckyowlbrewing.com,4408363440,2018-07-24 01:34:37,2018-07-24 01:34:37,United States,,,
lucky-star-brewery,Lucky Star Brewery,brewpub,219 S 2nd St,,,Miamisburg,Ohio,,45342-2924,http://www.luckystarbrewery.com,9378662739,2018-07-24 01:34:37,2018-07-24 01:34:37,United States,-84.28782443,39.63943573,
madcap-brew-co,Madcap Brew Co.,micro,1422 Mogadore Rd,,,Kent,Ohio,,44240-7536,,3305489654,2018-07-24 01:34:37,2018-07-24 01:34:37,United States,-81.372012,41.139183,
madtree-brewing,MadTree Brewing,regional,3301 Madison Rd,,,Cincinnati,Ohio,,45209-1132,http://www.madtreebrewing.com,5138368733,2018-07-24 01:34:37,2018-07-24 01:34:37,United States,-84.4239715,39.1563725,
madtree-brewing-20,MadTree Brewing 2.0,regional,5164 Kennedy Ave,,,Cincinnati,Ohio,,45213,http://www.madtreebrewing.com,5138368733,2018-07-24 01:34:37,2018-07-24 01:34:37,United States,-84.41377359999998,39.1885752,
magic-city-brewing-company,Magic City Brewing Company,micro,161 2nd St NW,,,Barberton,Ohio,,44203,http://Www.magiccitybrewingcompany.com,3307039806,2018-07-24 01:34:37,2018-07-24 01:34:37,United States,-81.60738829,41.01444672,
main-sail-brewery-/-atwood-yacht-club,Main Sail Brewery / Atwood Yacht Club,micro,2637 Lodge Rd SW,,,Sherrodsville,Ohio,,44675-9719,http://www.atwoodyachtclub.com,3307352135,2018-07-24 01:34:37,2018-07-24 01:34:37,United States,,,
maize-valley-craft-brewery,Maize Valley Craft Brewery,brewpub,6193 Edison St NE,,,Hartville,Ohio,,44632-9326,http://www.maizevalley.com,3308778344,2018-07-24 01:34:37,2018-07-24 01:34:37,United States,-81.27813638,40.95340888,
maple-lawn-brewery,Maple Lawn Brewery,micro,110 Mulberry Ave,,,Pomeroy,Ohio,,45769-1004,http://www.maplelawnbrew.com,7406915018,2018-07-24 01:34:37,2018-07-24 01:34:37,United States,-82.03426800000003,39.027513,
march-first-brewing,March First Brewing,brewpub,7885 E Kemper Rd,,,Cincinnati,Ohio,,45249-1622,http://www.marchfirstbrewing.com,5135620759,2018-07-24 01:34:37,2018-07-24 01:34:37,United States,,,
marietta-brewing-co,Marietta Brewing Co,brewpub,167 Front St,,,Marietta,Ohio,,45750-3125,http://www.mariettabrewingcompany.com,7403732739,2018-07-24 01:34:37,2018-07-24 01:34:37,United States,-81.45339993,39.41184635,
market-garden-brewery,Market Garden Brewery,micro,1849 W 24th St,,,Cleveland,Ohio,,44113,,2166214000,2018-07-24 01:34:37,2018-07-24 01:34:37,United States,-81.70272815,41.48573746,
market-garden-brewery,Market Garden Brewery,micro,1947 W 25th St,,,Cleveland,Ohio,,44113-3418,http://www.marketgardenbrewery.com,2166214000,2018-07-24 01:34:37,2018-07-24 01:34:37,United States,-81.7036495,41.4848964,
masthead-brewing-co,Masthead Brewing Co,brewpub,1261 Superior Ave E,,,Cleveland,Ohio,,44114-3204,http://www.mastheadbrewingco.com,4192604770,2018-07-24 01:34:37,2018-07-24 01:34:37,United States,-81.6853889,41.5041432,
maumee-bay-brewing-co,Maumee Bay Brewing Co,brewpub,27 Broadway St Ste A,,,Toledo,Ohio,,43604-8701,http://www.maumeebaybrewing.com,4192431302,2018-07-24 01:34:37,2018-07-24 01:34:37,United States,,,
mcarthurs-brew-house,McArthur's Brew House,micro,2721 Front St,,,Cuyahoga Falls,Ohio,,44221-1904,http://www.mcarthursbrewhouse.com,3308054600,2018-07-24 01:34:37,2018-07-24 01:34:37,United States,-81.47237058,41.14618347,
millercoors-brewing-co-trenton,MillerCoors Brewing Co - Trenton,large,2525 Wayne Madison Rd,,,Trenton,Ohio,,45067-9760,http://www.millerbrewing.com,5138964601,2018-07-24 01:34:37,2018-07-24 01:34:37,United States,-84.48297139,39.45673615,
millersburg-brewing,Millersburg Brewing,brewpub,60 E Jackson St,,,Millersburg,Ohio,,44654-1257,http://www.millersburgbrewing.com,3306744728,2018-07-24 01:34:37,2018-07-24 01:34:37,United States,-81.91677867,40.55424322,
missing-falls-brewery,Missing Falls Brewery,planning,,,,Akron,Ohio,,44311-1079,,3308086097,2018-07-24 01:34:37,2018-07-24 01:34:37,United States,,,
missing-mountain-brewing-company,Missing Mountain Brewing Company,brewpub,2811 Front St,,,Cuyahoga Falls,Ohio,,44262,http://www.missingmountain.com,,2018-07-24 01:34:37,2018-07-24 01:34:37,United States,-81.46928097,41.14838453,
modern-methods-brewing-company,Modern Methods Brewing Company,micro,125 David Grohl Alley,,,Warren,Ohio,,44481,http://www.modernmethodsbrew.com,3303331594,2018-07-24 01:34:37,2018-07-24 01:34:37,United States,,,
moeller-brew-barn,Moeller Brew Barn,micro,8016 Marion Dr,,,Maria Stein,Ohio,,45860-8706,http://www.moellerbrewbarn.com,4199253005,2018-07-24 01:34:37,2018-07-24 01:34:37,United States,-84.49312675,40.42144783,
moerlein-lager-house,Moerlein Lager House,brewpub,115 Joe Nuxhall Way,,,Cincinnati,Ohio,,45202-4143,http://www.moerleinlagerhouse.com,5134212337,2018-07-24 01:34:37,2018-07-24 01:34:37,United States,-84.50871677,39.09630095,
monzula-farm-brewery-/-vineyard-22,Monzula Farm Brewery / Vineyard 22,micro,83800 Monzula Rd,,,Cadiz,Ohio,,43907,http://www.vineyard22winery.com,7404917000,2018-07-24 01:34:37,2018-07-24 01:34:37,United States,,,
mosaic-brewing,Mosaic Brewing,planning,,,,Lancaster,Ohio,,43130-4308,http://www.double.edge.beer,6149402500,2018-07-24 01:34:37,2018-07-24 01:34:37,United States,,,
mother-stewarts-brewing-co,Mother Stewart's Brewing Co,micro,109 W North St,,,Springfield,Ohio,,45504-2546,,,2018-07-24 01:34:37,2018-07-24 01:34:37,United States,-83.81196566,39.92716841,
mt-carmel-brewing-co,Mt. Carmel Brewing Co,micro,4362 Mount Carmel Tobasco Rd,,,Cincinnati,Ohio,,45244-2338,,5132402739,2018-07-24 01:34:37,2018-07-24 01:34:37,United States,,,
mucky-duck-brewery,Mucky Duck Brewery,brewpub,4019 S Main St,,,Akron,Ohio,,44319-3668,,3306445444,2018-07-24 01:34:37,2018-07-24 01:34:37,United States,-81.5268804,41.0629094,
multiple-brewing-company,Multiple Brewing Company,micro,82 W Washington St,,,Nelsonville,Ohio,,45764-1135,,6144957199,2018-07-24 01:34:37,2018-07-24 01:34:37,United States,-82.23343359,39.46109582,
municipal-brew-works,Municipal Brew Works,micro,20 High St,,,Hamilton,Ohio,,45011-2709,http://municipalbrewworks.com,5136422424,2018-07-24 01:34:37,2018-07-24 01:34:37,United States,-84.5638199,39.4009136,
muskellunge-brewing-company,Muskellunge Brewing Company,micro,425 5th St NW,,,Canton,Ohio,,44702,http://www.muskybrewco.com,,2018-07-24 01:34:37,2018-07-24 01:34:37,United States,-81.37672433,40.80191841,
nano-brew-cleveland,Nano Brew Cleveland,brewpub,1859 W 25th St,,,Cleveland,Ohio,,44113,http://www.nanobrewcleveland.com,2168626631,2018-07-24 01:34:37,2018-07-24 01:34:37,United States,-81.7045531,41.4860486,
narrow-path-brewing-company,Narrow Path Brewing Company,micro,106 Karl Brown Way,,,Loveland,Ohio,,45140-2902,http://www.narrowpathbrewing.com,5133123414,2018-07-24 01:34:37,2018-07-24 01:34:37,United States,,,
neon-groundhog-brewery-majestic-oak-winery,Neon Groundhog Brewery - Majestic Oak Winery,micro,13554 Mohler Rd,,,Grand Rapids,Ohio,,43522-9648,http://www.majesticoakwinery.com,4198756474,2018-07-24 01:34:37,2018-07-24 01:34:37,United States,,,
new-bremen-brewing-company,New Bremen Brewing Company,planning,,,,New Bremen,Ohio,,45869-1328,http://www.gongoozlersbeer.com,,2018-07-24 01:34:37,2018-07-24 01:34:37,United States,,,
nine-giant-brewing,Nine Giant Brewing,brewpub,6095 Montgomery Rd,,,Cincinnati,Ohio,,45213-1617,http://www.ninegiant.com,5133664550,2018-07-24 01:34:37,2018-07-24 01:34:37,United States,-84.4276285,39.1822755,
noble-beast-brewing-co,Noble Beast Brewing Co.,brewpub,1470 Lakeside Ave E,,,Cleveland,Ohio,,44114-1137,http://noblebeastbeer.com,7175859216,2018-07-24 01:34:37,2018-07-24 01:34:37,United States,-81.68692334,41.50768107,
noble-creature-cask-house,Noble Creature Cask House,brewpub,126 E Rayen Ave,,,Youngstown,Ohio,,44503-1619,http://www.noblecreaturebeer.com,2347191827,2018-07-24 01:34:37,2018-07-24 01:34:37,United States,-80.64576162,41.10227929999999,
nocterra-brewing-co,Nocterra Brewing Co,micro,41 Depot St,,,Powell,Ohio,,43065,https://nocterrabrewing.com/,614-896-8000,2020-10-11 18:36:00,2020-10-11 18:36:00,United States,-83.07849809999998,40.1596311,
north-high-brewing,North High Brewing,micro,1125 Cleveland Ave,,,Columbus,Ohio,,43201-2900,http://www.northhighbrewing.com,6142263244,2018-07-24 01:34:37,2018-07-24 01:34:37,United States,-82.982658,39.992787,
northern-row-brewery-and-distillery,Northern Row Brewery & Distillery,micro,111 W McMicken Ave,,,Cincinnati,Ohio,,45202-4915,http://www.northernrow.com,5136736689,2018-07-24 01:34:37,2018-07-24 01:34:37,United States,-84.51924466,39.11836855,
nowhere-in-particular-brewing-company,Nowhere In Particular Brewing Company,proprietor,6826 Loop Rd,,,Dayton,Ohio,,45459-2159,http://www.nipbrewco.com,5133487282,2018-07-24 01:34:37,2018-07-24 01:34:37,United States,,,
numbers-brewing-company,Numbers Brewing Company,brewpub,127 N Beaver St,,,Lisbon,Ohio,,44432-1121,,3308705305,2018-07-24 01:34:37,2018-07-24 01:34:37,United States,-80.76970138,40.77253357,
off-track-brewing-company,Off Track Brewing Company,micro,227 Stark Street,,,Cincinnati,Ohio,,45214,http://www.OffTrackBrewingCompany.com,5136044527,2018-07-24 01:34:37,2018-07-24 01:34:37,United States,-84.522243,39.118674,
ohio-brewing-company,Ohio Brewing Company,micro,2250 Front St,,,Cuyahoga Falls,Ohio,,44221-2510,http://www.ohiobrewing.com,2342086243,2018-07-24 01:34:37,2018-07-24 01:34:37,United States,-81.4748217,41.14441160000001,
old-dog-alehouse-&-brewery,Old Dog Alehouse & Brewery,micro,13 W William St,,,Delaware,Ohio,,43015,https://www.olddogalehouse.com/menu,740-990-4506,2020-10-11 19:00:00,2020-10-11 19:00:00,United States,-83.09985259999998,40.2984874,
old-firehouse-brewery,Old Firehouse Brewery,micro,237 W Main St,,,Williamsburg,Ohio,,45176-1342,http://www.oldfirehousebrewery.com,5135369071,2018-07-24 01:34:37,2018-07-24 01:34:37,United States,-84.05307618,39.05398396,
old-mill-craft-beer,Old Mill Craft Beer,micro,2376 State Route 850,,,Bidwell,Ohio,,45614-9590,,7402459463,2018-07-24 01:34:37,2018-07-24 01:34:37,United States,,,
olentangy-river-brewing-company,Olentangy River Brewing Company,micro,303 Green Meadows Dr S,,,Lewis Center,Ohio,,43035,http://www.olentangybrew.com/,740-803-1561,2020-10-11 18:42:00,2020-10-11 18:42:00,United States,-83.0798709,40.16182420000001,
on-the-fly-brewing-company,On The Fly Brewing Company,planning,,,,Sunbury,Ohio,,43074-9022,http://www.ontheflybrewing.com,6145618735,2018-07-24 01:34:37,2018-07-24 01:34:37,United States,,,
outerbelt-brewing-company,Outerbelt Brewing Company,planning,,,,Carroll,Ohio,,43112,http://www.outerbeltbrewing.com,6143096796,2018-07-24 01:34:37,2018-07-24 01:34:37,United States,,,
paladin-brewing,Paladin Brewing,micro,6520 Mahoning Ave,,,Austintown,Ohio,,44515-2012,http://www.paladinbrewing.com,3305506338,2018-07-24 01:34:37,2018-07-24 01:34:37,United States,-80.78742748,41.099487,
paradigm-shift-brewing,Paradigm Shift Brewing,micro,128 North Ave NE,,,Massillon,Ohio,,44646-5526,http://www.paradigmshiftbrew.com,3308800008,2018-07-24 01:34:37,2018-07-24 01:34:37,United States,-81.52183929,40.79865814,
paradune-brewing,Paradune Brewing,micro,10551 1/2 County Rd 286,,,Huntsville,Ohio,,43324,,,2018-07-24 01:34:37,2018-07-24 01:34:37,United States,,,
paradune-brewing-company,Paradune Brewing Company,micro,20707 Township Rd 119,,,Belle Center,Ohio,,43310,http://www.paradunebrewing.com,9375891730,2018-07-24 01:34:37,2018-07-24 01:34:37,United States,,,
patron-saints-brewery,Patron Saints Brewery,micro,4730 W Bancroft St #8,,,Toledo,Ohio,,43615,http://www.PatronSaintsBrewery.com,,2018-07-24 01:34:37,2018-07-24 01:34:37,United States,-83.650886,41.662495,
pedestrian-brewing,Pedestrian Brewing,planning,,,,Lakewood,Ohio,,44107-3309,http://pedestrian.beer,2162620740,2018-07-24 01:34:37,2018-07-24 01:34:37,United States,,,
permission-brewing-company,Permission Brewing Company,planning,,,,Columbus,Ohio,,43004,http://www.permissionbrewing.com,6143530762,2018-07-24 01:34:37,2018-07-24 01:34:37,United States,,,
pigskin-brewing-company,Pigskin Brewing Company,brewpub,81 Mill St Ste 150,,,Gahanna,Ohio,,43230-1718,,6149449311,2018-07-24 01:34:37,2018-07-24 01:34:37,United States,,,
pinups-and-pints,Pinups & Pints,micro,10963 Lower Valley Pike,,,Medway,Ohio,,45341-9706,http://www.pinupsandpints.com,9378491400,2018-07-24 01:34:37,2018-07-24 01:34:37,United States,-84.045082,39.860912,
platform-beer-co,Platform Beer Co,regional,4125 Lorain Ave,,,Cleveland,Ohio,,44113-3718,http://platformbeer.co,2162021386,2018-07-24 01:34:37,2018-07-24 01:34:37,United States,-81.7140045,41.4799605,
platform-beer-co-production-facility,Platform Beer Co - Production Facility,micro,3506 Vega Ave,,,Cleveland,Ohio,,44113-4900,http://www.platformbeer.co,,2018-07-24 01:34:37,2018-07-24 01:34:37,United States,-81.70785488,41.47449194,
platform-beer-co-taproom,Platform Beer Co Taproom,micro,408 N 6th St,,,Columbus,Ohio,,43215-2137,http://www.platformbeer.co,6148262285,2018-07-24 01:34:37,2020-10-11 18:13:00,United States,-82.99494969999998,39.97173,
platform-cincinnati,Platform Cincinnati,micro,916 Dalton Ave,,,Cincinnati,Ohio,,45203,,2162021386,2018-07-24 01:34:37,2018-07-24 01:34:37,United States,-84.5362431,39.10592991,
portsmouth-brewing-co/maults,Portsmouth Brewing Co/Maults,brewpub,224 Second St,,,Portsmouth,Ohio,,45662-0218,http://www.portsmouthohbrewing.com,7403546106,2018-07-24 01:34:37,2018-07-24 01:34:37,United States,,,
pretentious-barrel-house,Pretentious Barrel House,micro,745 Taylor Ave,,,Columbus,Ohio,,43219-2526,http://www.pretentiousbarrelhouse.com,6148877687,2018-07-24 01:34:37,2018-07-24 01:34:37,United States,-82.960769,39.981855,
put-in-bay-brewing-co,Put-In-Bay Brewing Co,brewpub,441 Catawba Ave,,,Put In Bay,Ohio,,43456-6536,http://www.putinbaybrewery.com,4192854677,2018-07-24 01:34:37,2018-07-24 01:34:37,United States,-82.81996476,41.65188956,
quarter-barrel-brewery,Quarter Barrel Brewery,brewpub,107 E Church St,,,Oxford,Ohio,,45056-1317,,5135232525,2018-07-24 01:34:37,2018-07-24 01:34:37,United States,-84.74045186,39.51142737,
quarter-barrel-brewery-and-pub,Quarter Barrel Brewery and Pub,brewpub,103 Main St,,,Hamilton,Ohio,,45013,,5135552525,2018-07-24 01:34:37,2018-07-24 01:34:37,United States,-84.3556606,39.1246414,
queen-city-brewery-of-cincinnati,Queen City Brewery of Cincinnati,micro,11253 Williamson Rd,,,Cincinnati,Ohio,,45241-2230,,,2018-07-24 01:34:37,2018-07-24 01:34:37,United States,,,
rshea-brewing,R.Shea Brewing,micro,1662 Merriman Rd,,,Akron,Ohio,,44313-9000,http://www.rsheabrewing.com,3307945654,2018-07-24 01:34:37,2018-07-24 01:34:37,United States,-81.55341503,41.13489995,
railroad-brewing-company,Railroad Brewing Company,micro,1010 Center Rd,,,Avon,Ohio,,44011-1206,http://www.railroadbrewingcompany.com,4407238234,2018-07-24 01:34:37,2018-07-24 01:34:37,United States,-82.01953725,41.4754617,
ramblin-reds-brewing-company,Ramblin Reds Brewing Company,brewpub,1493 N Shoop Ave Unit A,,,Wauseon,Ohio,,43567-2801,http://www.northriverbrewingco.com,4193352000,2018-07-24 01:34:37,2018-07-24 01:34:37,United States,,,
random-precision-brewing-company,Random Precision Brewing Company,micro,2365 W Dublin Granville Rd,,,Columbus,Ohio,,43235-2700,http://www.randomprecisionbrewing.com,6143893864,2018-07-24 01:34:37,2018-07-24 01:34:37,United States,-83.05232,40.090144,
restoration-brew-worx,Restoration Brew Worx,brewpub,25 N Sandusky St,,,Delaware,Ohio,,43015-1901,http://www.restorationbrewworx.com,,2018-07-24 01:34:37,2018-07-24 01:34:37,United States,-83.0677272,40.30056202,
revel-urban-winery-/-revel-otr,Revel Urban Winery / Revel OTR,brewpub,111 E 12th St,,,Cincinnati,Ohio,,45202,http://www.revelotr.com,5135799463,2018-07-24 01:34:37,2018-07-24 01:34:37,United States,-84.5126641,39.1085275,
rhinegeist-brewery,Rhinegeist Brewery,regional,1910 Elm St,,,Cincinnati,Ohio,,45202-7751,http://www.rhinegeist.com,5133811356,2018-07-24 01:34:37,2018-07-24 01:34:37,United States,-84.51992076,39.1172,
ridge-runner-brewing-llc,Ridge Runner Brewing LLC,planning,,,,Wauseon,Ohio,,43567-9294,,,2018-07-24 01:34:37,2018-07-24 01:34:37,United States,,,
rivals-brewing-company,Rivals Brewing Company,planning,,,,middleburg hts,Ohio,,44130,https://www.facebook.com/RivalsBrewingCo/,3306316700,2018-07-24 01:34:37,2018-07-24 01:34:37,United States,,,
rivals-sports-grille,Rivals Sports Grille,contract,6710 Smith Rd,,,Middleburg Heights,Ohio,,44130-2656,http://www.rivalscleveland.com,2162670005,2018-07-24 01:34:37,2018-07-24 01:34:37,United States,-81.80433472,41.38531549,
rivertown-brewing-co-monroe-barrel-house,Rivertown Brewing Co - Monroe Barrel House,micro,6550 Hamilton Lebanon Rd,,,Monroe,Ohio,,45044-9285,http://www.rivertownbrewery.com,5133607839,2018-07-24 01:34:37,2018-07-24 01:34:37,United States,-84.41215417,39.44575612,
rock-bottom-brewery-cincinnati,Rock Bottom Brewery - Cincinnati,brewpub,10 Fountain Square Plz,,,Cincinnati,Ohio,,45202-3102,http://www.rockbottom.com,5136211588,2018-07-24 01:34:37,2018-07-24 01:34:37,United States,,,
rockmill-brewing-co,Rockmill Brewing Co,micro,5705 Lithopolis Rd NW,,,Lancaster,Ohio,,43130-9515,http://www.rockmillbrewery.com,7402058076,2018-07-24 01:34:37,2018-07-24 01:34:37,United States,,,
rocky-river-brewing-co,Rocky River Brewing Co,brewpub,21290 Center Ridge Rd,,,Rocky River,Ohio,,44116-3204,http://www.rockyriverbrewco.com,4408952739,2018-07-24 01:34:37,2018-07-24 01:34:37,United States,-81.8553198,41.46100065,
rolling-mill-brewing-company,Rolling Mill Brewing Company,micro,916 1st Ave,,,Middletown,Ohio,,45044-8217,http://www.rollingmillbc.com,5132174444,2018-07-24 01:34:37,2018-07-24 01:34:37,United States,-84.40683123,39.51616686,
roobrew,Roobrew,contract,,,,Akron,Ohio,,44311-1051,http://www.roobrew.com,3307033947,2018-07-24 01:34:37,2018-07-24 01:34:37,United States,,,
roundhouse-depot-brewing,Roundhouse Depot Brewing,micro,217 W Chillicothe Ave,,,Bellefontaine,Ohio,,43311,,5403231295,2018-07-24 01:34:37,2018-07-24 01:34:37,United States,-83.76289625,40.35981532,
royal-docks-brewhouse-and-cannery,Royal Docks Brewhouse and Cannery,micro,5646 Wales Ave NW,,,Massillon,Ohio,,44646,,,2018-07-24 01:34:37,2018-07-24 01:34:37,United States,-81.498326,40.844016,
royal-docks-brewing-company,Royal Docks Brewing Company,contract,7162 Fulton Dr NW,,,Canton,Ohio,,44718-1523,http://www.docks.beer,3303539103,2018-07-24 01:34:37,2018-07-24 01:34:37,United States,,,
saint-hazards-brewery,Saint Hazards Brewery,brewpub,1233 Fox Road,,,Middle Bass Island,Ohio,,43446,,4192856121,2018-07-24 01:34:37,2018-07-24 01:34:37,United States,,,
sandy-springs-brewing-company,Sandy Springs Brewing Company,brewpub,232 N Market St,,,Minerva,Ohio,,44657-1616,http://www.sandyspringsbrewery.com,3304516926,2018-07-24 01:34:37,2018-07-24 01:34:37,United States,-81.10382014,40.72956679,
saucy-brew-works,Saucy Brew Works,brewpub,2885 Detroit Ave,,,Cleveland,Ohio,,44113-2765,http://www.saucybrewworks.com,2166662568,2018-07-24 01:34:37,2018-07-24 01:34:37,United States,-81.7105691,41.48947929999999,
seventh-son-brewing-co,Seventh Son Brewing Co,micro,1101 N 4th St,,,Columbus,Ohio,,43201-3683,http://www.seventhsonbrewing.com,6144212337,2018-07-24 01:34:37,2020-10-11 18:13:00,United States,-83.00194040000002,39.985351,
shale-brewing-co,Shale Brewing Co,micro,7253 Whipple Ave NW,,,North Canton,Ohio,,44720,http://www.shalebrewing.com,3307768812,2018-07-24 01:34:37,2018-07-24 01:34:37,United States,-81.42242399999998,40.866706,
sibling-revelry-brewing,Sibling Revelry Brewing,micro,29305 Clemens Rd,,,Westlake,Ohio,,44145-1008,http://www.siblingrevelrybrewing.com,4404718589,2018-07-24 01:34:37,2018-07-24 01:34:37,United States,-81.94620111,41.47040238,
sideswipe-brewing,Sideswipe Brewing,micro,2419 Scioto Harper Dr,,,Columbus,Ohio,,43204-3420,http://www.sideswipebrewing.com,6147199654,2018-07-24 01:34:37,2018-07-24 01:34:37,United States,-83.06626767,39.96723751,
sixth-sense-brewing-company,Sixth Sense Brewing Company,micro,175 Main St.,,,Jackson,Ohio,,45640,http://www.sixthsensebrewing.com,7405773681,2018-07-24 01:34:37,2018-07-24 01:34:37,United States,-82.63876433,39.05323989,
smokehouse-brewing,Smokehouse Brewing,brewpub,1130 Dublin Rd,,,Columbus,Ohio,,43215-1039,http://www.smokehousebrewing.com,6144850227,2018-07-24 01:34:37,2018-07-24 01:34:37,United States,-83.047935,39.97371500000001,
snow-belt-brew,Snow Belt Brew,micro,9511 Kile Rd,,,Chardon,Ohio,,44024,,,2018-07-24 01:34:37,2018-07-24 01:34:37,United States,,,
sonder-brewing,Sonder Brewing,planning,,,,Maineville,Ohio,,45039-8103,http://www.sonderbrewery.com,6303473323,2018-07-24 01:34:37,2018-07-24 01:34:37,United States,,,
sons-of-toil-brewing-llc,Sons Of Toil Brewing LLC,micro,14090 Klein Rd,,,Mount Orab,Ohio,,45154-8312,http://www.sonsoftoilllc.com/,5132509082,2018-07-24 01:34:37,2018-07-24 01:34:37,United States,,,
southern-tier-brewing-co,Southern Tier Brewing Co,planning,,,,Cleveland,Ohio,,44115-1111,,,2018-07-24 01:34:37,2018-07-24 01:34:37,United States,,,
southside-brewing-co,Southside Brewing Co,brewpub,62920 Georgetown Rd,,,Cambridge,Ohio,,43725-9749,http://www.southsidebrewing.net,7404353222,2018-07-24 01:34:37,2018-07-24 01:34:37,United States,,,
spires-social-brewing-co,Spires Social Brewing Co.,micro,8757 Sancus Blvd,,,Columbus,Ohio,,43240,http://www.spiressocial.com,6144268057,2018-07-24 01:34:37,2020-10-11 18:55:00,United States,-83.004836,40.1473396,
staas-brewing-company,Staas Brewing Company,micro,31 W Winter St,,,Delaware,Ohio,,43015-1948,http://www.staasbrewing.com,7404174690,2018-07-24 01:34:37,2018-07-24 01:34:37,United States,-83.069285,40.300173,
star-city-brewing-company,Star City Brewing Company,micro,319 S 2nd St,,,Miamisburg,Ohio,,45342-2926,http://www.starcitybrewing.com,9377017827,2018-07-24 01:34:37,2018-07-24 01:34:37,United States,-84.28859645,39.6379944,
stein-brewing-company,Stein Brewing Company,planning,,,,Mount Vernon,Ohio,,43050-3323,http://www.SteinBrewCo.com,,2018-07-24 01:34:37,2018-07-24 01:34:37,United States,,,
streetside-brewery,Streetside Brewery,micro,4003 Eastern Ave,,,Cincinnati,Ohio,,45226-1747,,5136155877,2018-07-24 01:34:37,2018-07-24 01:34:37,United States,-84.43295078,39.10919541,
swine-city-brewing-company,Swine City Brewing Company,micro,4614 Industry Dr,,,Fairfield,Ohio,,45014-1923,http://www.swinecitybrewing.com,7045601214,2018-07-24 01:34:37,2018-07-24 01:34:37,United States,-84.53106178,39.34895418,
tafts-ale-house,Taft's Ale House,micro,1429 Race St,,,Cincinnati,Ohio,,45202-7009,,,2018-07-24 01:34:37,2018-07-24 01:34:37,United States,-84.51750995,39.111325,
tafts-brewing-co,Taft's Brewing Co,brewpub,4831 Spring Grove Ave,,,Cincinnati,Ohio,,45232-1938,,5138535016,2018-07-24 01:34:37,2018-07-24 01:34:37,United States,-84.5127071,39.1681213,
tailspin-brewing-co,Tailspin Brewing Co,micro,626 S 2nd St,,,Coldwater,Ohio,,45828-9603,http://Www.TailspinBrewing.co,4198529366,2018-07-24 01:34:37,2018-07-24 01:34:37,United States,-84.6288605,40.47316407,
tap-and-screw-brewery,Tap and Screw Brewery,brewpub,4721 Red Bank Rd,,,Cincinnati,Ohio,,45277,http://www.tapandscrew.com,5134511763,2018-07-24 01:34:37,2018-07-24 01:34:37,United States,-84.40434316,39.158691,
temperance-row-brewing-and-uptown-deli,Temperance Row Brewing and Uptown Deli,brewpub,41 N State St,,,Westerville,Ohio,,43081-2123,http://www.uptowndeliandbrew.com,6148912337,2018-07-24 01:34:37,2018-07-24 01:34:37,United States,-82.92806564,40.11493135,
terrestrial-brewing-company,Terrestrial Brewing Company,micro,7524 Father Frascati Dr,,,Cleveland,Ohio,,44102-2087,,2164659999,2018-07-24 01:34:37,2018-07-24 01:34:37,United States,-81.7361552,41.4869219,
the-blue-heron-brewery,The Blue Heron Brewery,planning,,,,Hinckley,Ohio,,44233,http://www.bookblueheron.com,,2018-07-24 01:34:37,2018-07-24 01:34:37,United States,,,
the-bottlehouse-brewery-and-meadery,The BottleHouse Brewery And Meadery,micro,2050 Lee Rd,,,Cleveland Heights,Ohio,,44118-2557,http://www.thebottlehousebrewingcompany.com,2162142120,2018-07-24 01:34:37,2018-07-24 01:34:37,United States,-81.56583509999999,41.503726,
the-brew-brothers-/-scioto-downs-racino,The Brew Brothers / Scioto Downs Racino,brewpub,6000 S. High Street,,,Columbus,Ohio,,43207,https://www.sciotodowns.com/venue/restaurants/brew-brothers?utm_source=gmb&utm_medium=brew%20brothers,614-295-4675,2018-07-24 01:34:37,2020-10-11 18:11:00,United States,-82.995426,39.922819,
the-brew-kettle-taproom-and-smokehouse,"The Brew Kettle, Taproom and Smokehouse",brewpub,8377 Pearl Rd,,,Strongsville,Ohio,,44136-1637,http://www.thebrewkettle.com,4402398788,2018-07-24 01:34:37,2018-07-24 01:34:37,United States,-81.8224061,41.3471323,
the-brew-mentor,The Brew Mentor,micro,9528 Diamond Centre Dr,,,Mentor,Ohio,,44060-1876,http://www.thebrewmentor.com,4409512739,2018-07-24 01:34:37,2018-07-24 01:34:37,United States,-81.30001012,41.71468462,
the-brick-oven-brewpub,The Brick Oven Brewpub,brewpub,604 Canton Rd,,,Akron,Ohio,,44312-2513,http://www.thebrickovenbrewpub.com,3304757005,2018-07-24 01:34:37,2018-07-24 01:34:37,United States,-81.43734194,41.04719534,
the-cleveland-brewery,The Cleveland Brewery,micro,777 E 185th St,,,Cleveland,Ohio,,44119-2170,http://Www.facebook.com/216brew,2165346992,2018-07-24 01:34:37,2018-07-24 01:34:37,United States,-81.549766,41.58642800000001,
the-common-beer-company,The Common Beer Company,planning,,,,Mason,Ohio,,45040,https://commonbeercompany.com/,5136580170,2018-07-24 01:34:37,2018-07-24 01:34:37,United States,,,
the-jolly-scholar,The Jolly Scholar,brewpub,11111 Euclid Ave,,,Cleveland,Ohio,,44106-1715,http://www.thejollyscholar.com,2163680090,2018-07-24 01:34:37,2018-07-24 01:34:37,United States,-81.60836498,41.5074076,
the-laird-arcade-brewery,The Laird Arcade Brewery,micro,114 S Washington St Ste D,,,Tiffin,Ohio,,44883-3915,,4196186489,2018-07-24 01:34:37,2018-07-24 01:34:37,United States,,,
the-lodge-restaurant-and-microbrewery,The Lodge Restaurant & Microbrewery,brewpub,29042 Hide AWay Hills Rd,,,Sugar Grove,Ohio,,43155,http://www.hideawayhillslodge.com,7405697944,2018-07-24 01:34:37,2018-07-24 01:34:37,United States,,,
the-phoenix-brewing-company,The Phoenix Brewing Company,micro,131 N Diamond St,,,Mansfield,Ohio,,44902-1331,http://www.phoenixbrewing.com,4195222552,2018-07-24 01:34:37,2018-07-24 01:34:37,United States,-82.51395188,40.76201837,
the-vine-n-hop-shop,The Vine N Hop Shop,micro,1327 N. Carpenter Rd.,,,Brunswick,Ohio,,44212,http://www.vinehop.com,3306236940,2018-07-24 01:34:37,2018-07-24 01:34:37,United States,,,
the-woodburn-brewery,The Woodburn Brewery,micro,2800 Woodburn Ave,,,Cincinnati,Ohio,,45206-1793,http://www.woodburnbrewery.com,5132212337,2018-07-24 01:34:37,2018-07-24 01:34:37,United States,-84.4768398,39.1289592,
third-eye-brewery,Third Eye Brewery,planning,,,,Cincinnati,Ohio,,45246,http://www.thirdeyebrewingcompany.com,,2018-07-24 01:34:37,2018-07-24 01:34:37,United States,,,
thirsty-dog-brewing-company,Thirsty Dog Brewing Company,micro,529 Grant St Ste 103,,,Akron,Ohio,,44311-1184,http://www.thirstydog.com,3302522739,2018-07-24 01:34:37,2018-07-24 01:34:37,United States,-81.51788487,41.0698532,
three-points-urban-brewery,Three Points Urban Brewery,micro,331 E 13th St,,,Cincinnati,Ohio,,45202-7307,http://www.3pointsbeer.com,5135555555,2018-07-24 01:34:37,2018-07-24 01:34:37,United States,-84.509442,39.11009082,
three-tigers-brewing-company,Three Tigers Brewing Company,brewpub,140 N Prospect St,,,Granville,Ohio,,43023-1337,http://www.threetigersbrewing.com,7409204680,2018-07-24 01:34:37,2018-07-24 01:34:37,United States,-82.51826713,40.06839886,
toxic-brew-company,Toxic Brew Company,brewpub,431 E 5th St,,,Dayton,Ohio,,45402-2911,http://www.toxicbrewcompany.com,9379853618,2018-07-24 01:34:37,2018-07-24 01:34:37,United States,-84.1843655,39.75724887,
trek-brewing,Trek Brewing,micro,1486 Granville Rd,,,Newark,Ohio,,43055-1538,http://www.trekbeer.com,,2018-07-24 01:34:37,2018-07-24 01:34:37,United States,-82.45564409,40.05722817,
twentynine-brewpub,TwentyNine Brewpub,brewpub,1775 Marion-Waldo Rd,,,Marion,Ohio,,43302,,7407514586,2018-07-24 01:34:37,2018-07-24 01:34:37,United States,-83.1163533,40.55509204,
twin-oast-brewing,Twin Oast Brewing,brewpub,3630 NE Catawba Rd,,,Catawba Island,Ohio,,43452,http://www.twinoast.com,4195736126,2018-07-24 01:34:37,2018-07-24 01:34:37,United States,-82.832581,41.578044,
two-bandits-brewing-company,Two Bandits Brewing Company,brewpub,106 E High St,,,Hicksville,Ohio,,43526,,4195421087,2018-07-24 01:34:37,2018-07-24 01:34:37,United States,-84.76170108,41.29361163,
two-monks-brewing-company,Two Monks Brewing Company,micro,352 Massillon Rd,,,Akron,Ohio,,44312-2021,http://www.2monksbru.com,2347382337,2018-07-24 01:34:37,2018-07-24 01:34:37,United States,-81.46292368,41.05205025,
uniontown-brewing-co,Uniontown Brewing Co.,brewpub,105 W Main St,,,Ashland,Ohio,,44805-2221,http://www.uniontownbrewing.com,4199088542,2018-07-24 01:34:37,2018-07-24 01:34:37,United States,-82.31638932,40.8686238,
upside-brewing,Upside Brewing,brewpub,5692 N Main St,,,Sylvania,Ohio,,43560-1928,http://www.facebook.com/UpsideBrewing,4198826061,2018-07-24 01:34:37,2018-07-24 01:34:37,United States,,,
urban-artifact,Urban Artifact,micro,1660 Blue Rock St,,,Cincinnati,Ohio,,45223-2554,http://www.artifactbeer.com,,2018-07-24 01:34:37,2018-07-24 01:34:37,United States,-84.54196282,39.16078270000001,
valley-vineyards-winery-and-cellar-dweller-brewing,Valley Vineyards Winery & Cellar Dweller Brewing,brewpub,2276 E US Highway 22 and 3,,,Morrow,Ohio,,45152-9414,http://www.valleyvineyards.com,5138992485,2018-07-24 01:34:37,2018-07-24 01:34:37,United States,,,
veteran-brewhouse,Veteran Brewhouse,micro,829 CR 801,,,Ashland,Ohio,,44805,http://www.veteranbrewhouse.com,4196064014,2018-07-24 01:34:37,2018-07-24 01:34:37,United States,,,
virant-family-winery-/-black-angus-brewery,Virant Family Winery / Black Angus Brewery,micro,541 Atkins Rd,,,Geneva,Ohio,,44041,http://www.virantfamilywinery.com,4404666279,2018-07-24 01:34:37,2018-07-24 01:34:37,United States,,,
wadsworth-brewing-company,Wadsworth Brewing Company,brewpub,126 Main St,,,Wadsworth,Ohio,,44281-1432,http://www.wadsworthbrewingcompany.com,3304754935,2018-07-24 01:34:37,2018-07-24 01:34:37,United States,-81.72980288,41.02478661,
wandering-griffin,Wandering Griffin,planning,,,,Beavercreek,Ohio,,45324-9095,http://www.wanderinggriffin.com,9379565216,2018-07-24 01:34:37,2018-07-24 01:34:37,United States,,,
warped-wing-brewing-co,Warped Wing Brewing Co,micro,26 Wyandot St,,,Dayton,Ohio,,45402-2145,http://www.warpedwing.com,9372227003,2018-07-24 01:34:37,2018-07-24 01:34:37,United States,,,
weasel-boy-brewing-co-llc,Weasel Boy Brewing Co  LLC,brewpub,126 Muskingum Ave Unit E,,,Zanesville,Ohio,,43701-4921,http://www.weaselboybrewing.com,7404553767,2018-07-24 01:34:37,2018-07-24 01:34:37,United States,,,
west-east-brewing-co,West East Brewing Co,contract,4125 Lorain Ave,,,Cleveland,Ohio,,44113-3718,,2162021386,2018-07-24 01:34:37,2018-07-24 01:34:37,United States,-81.7140045,41.4799605,
west-side-brewing,West Side Brewing,micro,3044 Harrison Ave,,,Cincinnati,Ohio,,45211-5752,http://www.westsidebrewing.com,5136612337,2018-07-24 01:34:37,2018-07-24 01:34:37,United States,-84.598433,39.14890246,
white-shutter-winery-and-brewery,White Shutter Winery and Brewery,micro,3794 County Hwy 56,,,Nevada,Ohio,,44849,http://www.whiteshutterwinery.com,4198352900,2018-07-24 01:34:37,2018-07-24 01:34:37,United States,,,
wiedemann-brewing-co-llc,"Wiedemann Brewing Co, LLC",micro,4811 Vine St,,,Cincinnati,Ohio,,45217-1217,http://www.wiedemannbeer.com,5138009560,2018-07-24 01:34:37,2018-07-24 01:34:37,United States,-84.47461690000002,39.2072785,
wild-side-brewing-company,Wild Side Brewing Company,micro,24194 Front St,,,Grand Rapids,Ohio,,43522,http://www.wildsidebrewing.com,4193892776,2018-07-24 01:34:37,2018-07-24 01:34:37,United States,-83.86731385,41.41253259,
willoughby-brewing-co,Willoughby Brewing Co,brewpub,4057 Erie St,,,Willoughby,Ohio,,44094-7804,http://www.willoughbybrewing.com,4409750202,2018-07-24 01:34:37,2018-07-24 01:34:37,United States,-81.40548972,41.64152155,
wolfs-ridge-brewing,Wolf's Ridge Brewing,micro,215 N 4th St,,,Columbus,Ohio,,43215-2510,http://www.wolfsridgebrewing.com,6144293936,2018-07-24 01:34:37,2018-07-24 01:34:37,United States,-82.99517953,39.9577586,
wooly-pig-farm-brewery,Wooly Pig Farm Brewery,micro,23631 Township Road 167,,,Fresno,Ohio,,43824-9704,http://www.woolypigfarmbrewery.com,7406935050,2018-07-24 01:34:37,2018-07-24 01:34:37,United States,-81.73572372,40.2914144,
working-class-brewery,Working Class Brewery,micro,17448 Lorain Ave,,,Cleveland,Ohio,,44111-4028,http://www.workingclassbrewery.com,2164175112,2018-07-24 01:34:37,2018-07-24 01:34:37,United States,-81.820461,41.44993,
y-bridge-brewing-company,Y Bridge Brewing Company,micro,1417 Linden Ave,,,Zanesville,Ohio,,43701,,7408684265,2018-07-24 01:34:37,2018-07-24 01:34:37,United States,-82.00422961,39.95603429,
yellow-springs-brewery,Yellow Springs Brewery,micro,305 N Walnut St Ste B,,,Yellow Springs,Ohio,,45387-2059,http://www.yellowspringsbrewery.com,9377670222,2018-07-24 01:34:37,2018-07-24 01:34:37,United States,,,
zaftig-brewing-co,Zaftig Brewing Co.,micro,7020 Huntley Rd Ste A,,,Columbus,Ohio,,43229-1050,http://www.drinkzaftig.com,6146362537,2018-07-24 01:34:37,2020-10-11 18:13:00,United States,-83.0003532,40.1063329,