id,name,brewery_type,street,city,state,postal_code,website_url,phone,created_at,updated_at,country,longitude,latitude,tags
10th-district-brewing-company,10th District Brewing Company,micro,491 Washington St,Abington,Massachusetts,02351-2419,http://www.10thdistrictbrewing.com,7813071554,2018-07-24 01:33:29.932861,2018-08-24 00:40:55.685575,United States,-70.9459414892185,42.1059175414395,
rapscallion-ales,Rapscallion Ales,micro,5 Strawberry Hill Rd,Acton,Massachusetts,01720-5706,http://www.drinkrapscallion.com,5083477500,2018-07-24 01:33:31.788903,2018-08-24 00:41:42.118365,United States,-71.4158546071126,42.4919605,
true-west-brewing-company,True West Brewing Company,brewpub,525 Massachusetts Ave Ste 107,Acton,Massachusetts,01720-2962,http://www.brewtruewest.com,9782061600,2018-07-24 01:33:32.206494,2018-08-11 21:37:44.175644,United States,,,
barewolf-brewing,BareWolf Brewing,micro,12 Oakland St,Amesbury,Massachusetts,01913,http://www.barewolfbrewing.com,9783906540,2018-07-24 01:33:30.142799,2018-08-24 00:41:00.813237,United States,-70.9233651776547,42.856069285464,
brewery-silvaticus,Brewery Silvaticus,brewpub,9 Water St,Amesbury,Massachusetts,01913-2936,http://www.silvaticusbeers.com,9785042337,2018-07-24 01:33:30.536976,2018-08-24 00:41:08.672545,United States,-70.9295559,42.8573815,
amherst-brewing-co-/-hangar-pub-and-grill,Amherst Brewing Co / Hangar Pub and Grill,brewpub,10 University Dr,Amherst,Massachusetts,01002-2243,http://www.amherstbrewing.com,4132534400,2018-07-24 01:33:30.049963,2018-08-24 00:40:58.846335,United States,-72.5318418,42.3728635,
high-horse-brewery-and-bistro,High Horse Brewery and Bistro,contract,24 N Pleasant St,Amherst,Massachusetts,01002-1703,http://www.highhorsebrewing.com,4132303034,2018-07-24 01:33:31.101326,2018-08-24 00:41:22.94714,United States,-72.5201343,42.376218,
oak-and-iron-brewing-co,Oak & Iron Brewing Co,brewpub,18 Red Spring Rd,Andover,Massachusetts,01810-3448,http://www.oakandironbrewing.com,9784754077,2018-07-24 01:33:31.622953,2018-08-24 00:41:37.236512,United States,-71.1478857877187,42.656149077407,
paramount-brewing-company,Paramount Brewing Company,planning,,Andover,Massachusetts,01810-5011,,6178691388,2018-07-24 01:33:31.723714,2018-08-11 21:37:43.08113,United States,,,
skyroc-brewery,Skyroc Brewery,micro,11 Riverbank Rd,Attleboro,Massachusetts,02703-,http://www.skyrocbrewery.com,7743312336,2018-07-24 01:33:31.952281,2018-08-24 00:41:46.875055,United States,-71.287889167702,41.9446296728284,
stone-cow-brewery,Stone Cow Brewery,micro,500 West St (Route 122),Barre,Massachusetts,01005,,4135526048,2018-07-24 01:33:32.087499,2018-08-11 21:37:43.893504,United States,,,
arcpoint-brewing-co,Arcpoint Brewing Co,micro,,Belchertown,Massachusetts,01007-9305,http://www.arcpointbrewco.com,5187964977,2018-07-24 01:33:30.102671,2018-08-11 21:37:38.45953,United States,,,
berkley-beer-company,Berkley Beer Company,micro,,Berkley,Massachusetts,02779-1101,http://www.berkleybeer.com,5083269954,2018-07-24 01:33:30.246262,2018-08-11 21:37:38.771821,United States,,,
gentile-brewing-company,Gentile Brewing Company,micro,59 Park St # 1,Beverly,Massachusetts,01915-4253,http://www.gentilebrewing.com,9789696496,2018-07-24 01:33:31.021788,2018-08-11 21:37:41.134639,United States,,,
old-planters-brewing-co,Old Planters Brewing Co.,micro,100 Corning St,Beverly,Massachusetts,01915-3837,http://www.oldplanters.com,9785226446,2018-07-24 01:33:31.673601,2018-08-24 00:41:38.541192,United States,-70.8628713936456,42.554996452917,
brewery-in-planning-bolton,Brewery In Planning - Bolton,planning,,Bolton,Massachusetts,01740-1027,http://sites.google.com/site/greenroadbrewing/,9788955931,2018-07-24 01:33:30.38811,2018-08-11 21:37:39.106674,United States,,,
bolton-beer-works,Bolton Beer Works,brewpub,100 Wattaquadock Hill Rd,Bolton,Massachusetts,01740-1238,http://boltonbeerworks.com,9787795521,2018-07-24 01:33:30.31106,2018-08-24 00:41:05.734116,United States,-71.619812,42.430173,
deadwood-brewery-/-boston-bowl,Deadwood Brewery / Boston Bowl,brewpub,820 William T Morrissey Blvd,Boston,Massachusetts,02122-3404,http://www.deadwoodbrewery.com,6177401440,2018-07-24 01:33:30.852745,2018-08-24 00:41:15.440932,United States,-71.047997482376,42.2948560502166,
slesar-bros-brewing-co-boston-beer-works,Slesar Bros Brewing Co - Boston Beer Works,brewpub,112 Canal St,Boston,Massachusetts,02114-1805,http://www.beerworks.net,6178962337,2018-07-24 01:33:31.966141,2018-08-24 00:41:47.343583,United States,-71.0603412,42.364473,
backlash-beer-co,Backlash Beer Co,contract,,Boston,Massachusetts,2215,http://backlashbeer.com/,,2018-07-24 01:33:30.116609,2018-08-11 21:37:38.486156,United States,,,
boston-beer-co,Boston Beer Co,micro,1 Design Center Pl Ste 850,Boston,Massachusetts,02210-2300,,6173685000,2018-07-24 01:33:30.335772,2018-08-11 21:37:38.969329,United States,,,
cheeky-monkey-brewing-co-/-lucky-strike-jillians,Cheeky Monkey Brewing Co / Lucky Strike Jillians,brewpub,3 Lansdowne St,Boston,Massachusetts,02215-3412,http://www.cheekymonkeyboston.com,6178590030,2018-07-24 01:33:30.758145,2018-08-24 00:41:13.247512,United States,-71.0946215,42.34729,
democracy-brewing,Democracy Brewing,brewpub,35 Temple Pl,Boston,Massachusetts,02111,http://www.democracybrewing.com,8572172739,2018-07-24 01:33:30.87399,2018-08-24 00:41:15.98947,United States,-71.0623157813541,42.3552962282976,
night-shift-brewing,Night Shift Brewing,planning,,Boston,Massachusetts,02114,,,2018-07-24 01:33:31.571664,2018-08-11 21:37:42.6344,United States,,,
harpoon-brewery,Harpoon Brewery,regional,306 Northern Ave Ste 2,Boston,Massachusetts,02210-2367,http://www.harpoonbrewery.com,6175749551,2018-07-24 01:33:31.076706,2018-08-24 00:41:22.031971,United States,-71.0348293,42.3465637,
mighty-squirrel,Mighty Squirrel,contract,745 Atlantic Ave,Boston,Massachusetts,02111-2735,http://www.mightysquirrel.com,7602120802,2018-07-24 01:33:31.460349,2018-08-24 00:41:32.100226,United States,-71.0569929,42.3502282,
slesar-bros-brewing-co-boston-beer-works,Slesar Bros Brewing Co - Boston Beer Works,brewpub,61 Brookline Ave,Boston,Massachusetts,02215-3406,http://www.beerworks.net,6175362337,2018-07-24 01:33:31.978305,2018-08-24 00:41:47.788778,United States,-71.1077246938776,42.3388300816327,
boston-beer-co,Boston Beer Co,micro,30 Germania St Ste 1,Boston,Massachusetts,02130-2312,http://www.samueladams.com,6173685000,2018-07-24 01:33:30.351609,2018-08-11 21:37:39.002163,United States,,,
widowmaker-brewing,Widowmaker Brewing,micro,220 Wood Rd,Braintree,Massachusetts,02184-2408,http://www.widowmakerbrew.wordpress.com,7812549856,2018-07-24 01:33:32.334247,2018-08-11 21:37:44.449805,United States,,,
black-hat-brew-works,Black Hat Brew Works,micro,25 Scotland Blvd # 1,Bridgewater,Massachusetts,02324-2302,http://www.blackhatbrewworks.com,5088075172,2018-07-24 01:33:30.286704,2018-08-11 21:37:38.855572,United States,,,
brewery-in-planning-brookline,Brewery in Planning - Brookline,planning,,Brookline,Massachusetts,02446-2209,,,2018-07-24 01:33:30.400121,2018-08-11 21:37:39.149519,United States,,,
lamplighter-brewing-co,Lamplighter Brewing Co.,micro,284 Broadway,Cambridge,Massachusetts,02139-1808,http://www.lamplighterbrewing.com,6179450450,2018-07-24 01:33:31.304875,2018-08-11 21:37:42.077983,United States,,,
cambridge-brewing-co,Cambridge Brewing Co,brewpub,1 Kendall Sq Ste B1102,Cambridge,Massachusetts,02139-1592,http://www.cambridgebrewingcompany.com,6174941994,2018-07-24 01:33:30.668824,2018-08-11 21:37:39.765326,United States,,,
trillium-brewing,Trillium Brewing,regional,110 Shawmut Rd,Canton,Massachusetts,02021-1412,http://www.trilliumbrewing.com,6174538745,2018-07-24 01:33:32.1781,2018-08-24 00:41:52.830227,United States,-71.1527702,42.1847202,
charlton-beer-company,Charlton Beer Company,micro,,Charlton,Massachusetts,01507,http://www.charltonbeercompany.com,5082485627,2018-07-24 01:33:30.745496,2018-08-11 21:37:39.997874,United States,,,
tree-house-brewery,Tree House Brewery,regional,129 Sturbridge Rd,Charlton,Massachusetts,01507-5330,http://www.treehousebrew.com,4139491891,2018-07-24 01:33:32.165189,2018-08-24 00:41:52.412806,United States,-72.0125532,42.1366948,
mystic-brewery,Mystic Brewery,micro,174 Williams St,Chelsea,Massachusetts,02150-3804,,,2018-07-24 01:33:31.507658,2018-08-24 00:41:33.582388,United States,-71.0445104,42.3915659,
brewery-in-planning-south-hadley-ma,"Brewery In Planning- South Hadley, MA.",planning,,Chicopee,Massachusetts,01020-2216,http://www.leadfootbrewing.com,4132460741,2018-07-24 01:33:30.524413,2018-08-11 21:37:39.485494,United States,,,
stoneman-brewery,Stoneman Brewery,micro,20 Stetson Bros Rd,Colrain,Massachusetts,01340-9733,,4136245195,2018-07-24 01:33:32.100161,2018-08-11 21:37:43.925685,United States,,,
saltbox-brewery,Saltbox Brewery,brewpub,84 Commonwealth Ave,Concord,Massachusetts,01742-2904,http://www.saltboxkitchen.com,9782123585,2018-07-24 01:33:31.867104,2018-08-24 00:41:44.597216,United States,-71.3946825833333,42.4569080625,
shire-breu-hous,Shire Breu Hous,brewpub,63 Flansburg Ave,Dalton,Massachusetts,01226,http://www.shire.beer,4138428313,2018-07-24 01:33:31.929123,2018-08-24 00:41:46.010506,United States,-73.1730985,42.4745867,
anawan-brewing-company,Anawan Brewing Company,planning,,Dighton,Massachusetts,02764,http://www.anawanbrewingco.com,7742296300,2018-07-24 01:33:30.075858,2018-08-11 21:37:38.401993,United States,,,
dorchester-brewing-company,Dorchester Brewing Company,micro,1250 Massachusetts Ave,Dorchester,Massachusetts,02125-1698,http://www.dorchesterbrewing.com,6175140900,2018-07-24 01:33:30.911981,2018-08-24 00:41:16.877904,United States,-71.0615585,42.3204879,
timberyard-brewing-co,Timberyard Brewing Co.,planning,,East Brookfield,Massachusetts,01515,http://timberyardbrewing.com,4135526048,2018-07-24 01:33:32.139919,2018-08-11 21:37:44.020638,United States,,,
bear-and-bramble-brewing-company,Bear and Bramble Brewing Company,micro,10 Payson Ave # 1,Easthampton,Massachusetts,01027-2207,,,2018-07-24 01:33:30.221394,2018-08-11 21:37:38.716261,United States,,,
new-city-brewery,New City Brewery,micro,180 Pleasant St Ste 2,Easthampton,Massachusetts,01027-1297,,4135292000,2018-07-24 01:33:31.547156,2018-08-11 21:37:42.552132,United States,,,
fort-hill-brewery,Fort Hill Brewery,micro,30 Fort Hill Rd,Easthampton,Massachusetts,01027-1268,http://www.forthillbrewery.com,4132035754,2018-07-24 01:33:31.007637,2018-08-24 00:41:20.144595,United States,-72.6414309757094,42.2850315371962,
opa-opa-brewery,Opa Opa Brewery,contract,19 Wemelco Way,Easthampton,Massachusetts,01027,http://www.opaopasteakhousebrewery.com,4135270808,2018-07-24 01:33:31.686041,2018-08-24 00:41:38.968666,United States,-72.6919129873619,42.2546704774428,
abandoned-building-brewery,Abandoned Building Brewery,micro,142 Pleasant St Unit 103A,Easthampton,Massachusetts,01027-2805,http://www.abandonedbuildingbrewery.com,4132827062,2018-07-24 01:33:29.982808,2018-08-11 21:37:38.259151,United States,,,
bad-martha-farmers-brewery,Bad Martha Farmer's Brewery,brewpub,270 Upper Main St,Edgartown,Massachusetts,02539-,http://www.badmarthabeer.com,5089394415,2018-07-24 01:33:30.129902,2018-08-24 00:40:59.760978,United States,-70.52732,41.394402,
bone-up-brewing-co,Bone Up Brewing Co.,micro,38 Norman St,Everett,Massachusetts,02149-1932,http://www.boneup.beer,7816919092,2018-07-24 01:33:30.323267,2018-08-24 00:41:06.198098,United States,-71.0663396,42.405551,
down-the-road-brewery,Down the Road Brewery,micro,199 Ashland Street,Everett,Massachusetts,02149,http://www.downtheroadbrewery.com,6174544255,2018-07-24 01:33:30.924855,2018-08-24 00:41:17.302149,United States,-71.061481,42.397645,
night-shift-brewing-inc,"Night Shift Brewing, Inc",regional,87 Santilli Hwy,Everett,Massachusetts,02149-1906,http://www.nightshiftbrewing.com,6172944233,2018-07-24 01:33:31.58515,2018-08-24 00:41:35.783207,United States,-71.0677001,42.4059393,
aquatic-brewing-llc,Aquatic Brewing LLC,planning,,Falmouth,Massachusetts,02540-3299,http://www.aquaticbrewing.com,5084442155,2018-07-24 01:33:30.088394,2018-08-11 21:37:38.43247,United States,,,
homefield-brewing,Homefield Brewing,brewpub,3 Arnold Rd,Fiskdale,Massachusetts,01518-,http://www.homefieldbrewing.com,7742426365,2018-07-24 01:33:31.151304,2018-08-11 21:37:41.652613,United States,,,
river-styx-brewing,River Styx Brewing,micro,166 Boulder Dr Ste 112,Fitchburg,Massachusetts,01420-3168,http://www.riverstyxbrewing.com,9786965176,2018-07-24 01:33:31.827528,2018-08-24 00:41:43.1816,United States,-71.7946112,42.5817291,
brew-practitioners-llc,"Brew Practitioners, LLC.",micro,36 Main St,Florence,Massachusetts,01062-3152,http://www.brewpractitioners.com,4135842444,2018-07-24 01:33:30.375089,2018-08-11 21:37:39.053973,United States,,,
building-8-brewing,Building 8 Brewing,micro,320 Riverside Dr Ste 8,Florence,Massachusetts,01062-2750,,4132501602,2018-07-24 01:33:30.623652,2018-08-11 21:37:39.662574,United States,,,
saltmarsh-brewery,Saltmarsh Brewery,planning,,Foxboro,Massachusetts,02035-2299,http://adam@saltmarshbrewery.com,6177996627,2018-07-24 01:33:31.879098,2018-08-11 21:37:43.441926,United States,,,
exhibit-a-brewing-co,Exhibit 'A' Brewing Co.,micro,81 Morton St,Framingham,Massachusetts,01702-7153,http://www.exhibit-A-brewing.com,,2018-07-24 01:33:30.979893,2018-08-24 00:41:19.161385,United States,-71.4018708794239,42.27880435,
john-harvards-brew-house-framingham,John Harvards Brew House - Framingham,brewpub,1 Worcester Rd,Framingham,Massachusetts,01701-5359,http://www.johnharvards.com,5088752337,2018-07-24 01:33:31.266792,2018-08-24 00:41:27.695368,United States,-71.3961924451932,42.30411485,
jacks-abby-brewing,Jack's Abby Brewing,regional,100 Clinton St,Framingham,Massachusetts,01702-6748,http://www.jacksabbybrewing.com,5088720900,2018-07-24 01:33:31.241731,2018-08-24 00:41:27.212436,United States,-71.4109021,42.2800852,
moon-hill-brewing-co-inc,"Moon Hill Brewing Co., Inc.",brewpub,74 Parker St,Gardner,Massachusetts,01440-3809,http://www.gardnerale.com,9786690122,2018-07-24 01:33:31.494696,2018-08-24 00:41:33.151172,United States,-71.997003,42.5759013333333,
cape-ann-lanes,Cape Ann Lanes,planning,,Gloucester,Massachusetts,01930-2256,,9788799714,2018-07-24 01:33:30.696158,2018-08-11 21:37:39.833808,United States,,,
cape-ann-brewing-co,Cape Ann Brewing Co,brewpub,11 Rogers St,Gloucester,Massachusetts,01930-5014,,9782827399,2018-07-24 01:33:30.681116,2018-08-24 00:41:11.944651,United States,-70.6650934421008,42.6116160165143,
barrington-brewery-and-restaurant,Barrington Brewery and Restaurant,brewpub,420 Stockbridge Rd Ste 4,Great Barrington,Massachusetts,01230-9512,http://www.barringtonbrewery.net,4135288282,2018-07-24 01:33:30.181814,2018-08-11 21:37:38.629664,United States,,,
leftys-brewing-co,Lefty's Brewing Co,micro,301 Wells St,Greenfield,Massachusetts,01301,http://www.leftysbrew.com,4136486111,2018-07-24 01:33:31.317333,2018-08-24 00:41:28.581095,United States,-72.6068606666667,42.6012160416667,
the-peoples-pint-/-franklin-county-brewing-co,The Peoples Pint / Franklin County Brewing Co,brewpub,76 Hope St,Greenfield,Massachusetts,01301-3573,http://www.thepeoplespint.com,4137730333,2018-07-24 01:33:32.112129,2018-08-24 00:41:51.094337,United States,-72.5976922905978,42.5818759898982,
scantic-river-brewery,Scantic River Brewery,micro,25 Mill Rd,Hampden,Massachusetts,01036-9624,http://www.scanticriverbrewery.com,4132049163,2018-07-24 01:33:31.892421,2018-08-24 00:41:45.094572,United States,-72.5833168788771,42.0430361118982,
burkes-alewerks,Burke's Alewerks,micro,200 Webster St Ste 3,Hanover,Massachusetts,02339-1230,http://www.burkesalewerks.com,7813128207,2018-07-24 01:33:30.642083,2018-08-11 21:37:39.702025,United States,,,
the-tap-brewing-company,The Tap Brewing Company,brewpub,100 Washington St,Haverhill,Massachusetts,01832-5500,http://www.tapbrewingcompany.com,6178358315,2018-07-24 01:33:32.125069,2018-08-24 00:41:51.51922,United States,-71.084935,42.7728879,
entitled-beer-company,Entitled Beer Company,proprietor,21 North St,Hingham,Massachusetts,02043-,http://www.entitledbrewing.com,7817401035,2018-07-24 01:33:30.964934,2018-08-24 00:41:18.710141,United States,-70.8861847258737,42.2436072296139,
hingham-beer-works,Hingham Beer Works,brewpub,18 Shipyard Dr Ste 1K,Hingham,Massachusetts,02043-1670,,7817492337,2018-07-24 01:33:31.113489,2018-08-11 21:37:41.484468,United States,,,
start-line-brewing-company,Start Line Brewing Company,micro,151R Hayden Rowe St,Hopkinton,Massachusetts,01748-2511,http://www.startlinebrewing.com,5087612044,2018-07-24 01:33:32.050761,2018-08-24 00:41:49.168018,United States,-71.5132367573311,42.2103163400486,
medusa-brewing-company,Medusa Brewing Company,micro,111 Main St,Hudson,Massachusetts,01749-2210,http://www.medusabrewing.com,5083950122,2018-07-24 01:33:31.433271,2018-08-24 00:41:31.240248,United States,-71.566681,42.3909986,
vitamin-sea-brewing,Vitamin Sea Brewing,planning,,Hull,Massachusetts,02045-2907,,7815894569,2018-07-24 01:33:32.256322,2018-08-11 21:37:44.301716,United States,,,
brewery-in-planning-hull,Brewery in Planning - Hull,planning,,Hull,Massachusetts,02641,http://www.hullbound.com,5084543486,2018-07-24 01:33:30.413533,2018-08-11 21:37:39.189215,United States,,,
barnstable-brewing,Barnstable Brewing,micro,485 W Main St,Hyannis,Massachusetts,02601-3644,http://www.barnstablebrewing.com,7744706989,2018-07-24 01:33:30.155448,2018-08-24 00:41:01.290465,United States,-70.311595943756,41.6491351739202,
cape-cod-beer,Cape Cod Beer,micro,1336 Phinneys Ln Ste 2-2,Hyannis,Massachusetts,02601-1875,http://www.capecodbeer.com,5087904200,2018-07-24 01:33:30.70887,2018-08-11 21:37:39.887927,United States,,,
brewery-in-planning-ipswich,Brewery in Planning - Ipswich,planning,,Ipswich,Massachusetts,01938-1074,,,2018-07-24 01:33:30.42697,2018-08-11 21:37:39.222531,United States,,,
ipswich-ale-brewery,Ipswich Ale Brewery,regional,2 Brewery Pl,Ipswich,Massachusetts,01938-1196,http://www.ipswichalebrewery.com,9783563329,2018-07-24 01:33:31.214853,2018-08-11 21:37:41.910609,United States,,,
true-north-ale-company,True North Ale Company,micro,116 County Rd,Ipswich,Massachusetts,01938-2501,http://www.TrueNorthAles.com,9783126473,2018-07-24 01:33:32.193482,2018-08-24 00:41:53.328507,United States,-70.837236,42.669841,
turtle-swamp-brewing,Turtle Swamp Brewing,micro,3377 Washington St,Jamaica Plain,Massachusetts,02130-2617,http://www.turtleswampbrewing.com,6175220038,2018-07-24 01:33:32.219104,2018-08-24 00:41:54.264984,United States,-71.1123668,42.3014592,
navigation-brewing-co,Navigation Brewing Co,micro,122 Western Ave,Lowell,Massachusetts,01851-1433,http://www.navigationbrewing.com,,2018-07-24 01:33:31.534149,2018-08-24 00:41:34.456003,United States,-71.3246481212121,42.640349969697,
lowell-beer-works,Lowell Beer Works,brewpub,203 Cabot St,Lowell,Massachusetts,01854-,,9789372337,2018-07-24 01:33:31.358877,2018-08-24 00:41:29.864924,United States,-71.3164361224202,42.6505753,
merrimack-ales,Merrimack Ales,micro,92 Bolt St,Lowell,Massachusetts,01852-5316,http://www.merrimackales.com,9787017225,2018-07-24 01:33:31.447959,2018-08-24 00:41:31.659668,United States,-71.300252,42.625366,
scottish-bloodline-brewing,Scottish Bloodline Brewing,planning,,Lowell,Massachusetts,01851-4638,http://Www.scottishbloodlinebrewing.com,9784556163,2018-07-24 01:33:31.904873,2018-08-11 21:37:43.501393,United States,,,
brewery-in-planning-ludlow,Brewery in Planning - Ludlow,planning,,Ludlow,Massachusetts,01056-3517,,,2018-07-24 01:33:30.439853,2018-08-11 21:37:39.282539,United States,,,
iron-duke-brewing-co,Iron Duke Brewing Co,micro,100 State St Ste 122,Ludlow,Massachusetts,01056-3435,http://www.irondukebrewing.com,4136246258,2018-07-24 01:33:31.227272,2018-08-11 21:37:41.939355,United States,,,
vanished-valley-brewing-company,Vanished Valley Brewing Company,micro,782 Center Street,"Ludlow ",Massachusetts,01056,http://www.vanishedvalley.com,4132710503,2018-07-24 01:33:32.244647,2018-08-24 00:41:55.205198,United States,-72.4702163876732,42.1829274074559,
bent-water-brewing-company,Bent Water Brewing Company,micro,180 Commercial St Ste 18,Lynn,Massachusetts,01905-3058,http://www.bentwaterbrewing.com,,2018-07-24 01:33:30.233994,2018-08-11 21:37:38.744335,United States,,,
idle-hands-craft-ales,Idle Hands Craft Ales,micro,89 Commercial St,Malden,Massachusetts,02148-5509,http://www.idlehandscraftales.com,7813336070,2018-07-24 01:33:31.188506,2018-08-24 00:41:25.475082,United States,-71.0747308442765,42.4243819,
marblehead-brewing-company,Marblehead Brewing Company,micro,124 Pleasant St,Marblehead,Massachusetts,01945,http://www.marbleheadbrewing.co,7817970211,2018-07-24 01:33:31.383304,2018-08-24 00:41:30.343654,United States,-70.8573661020408,42.5012538571429,
stellwagen-beer-company,Stellwagen Beer Company,planning,,Marshfield,Massachusetts,02050,http://www.stellwagenbeer.com,7817899162,2018-07-24 01:33:32.062908,2018-08-11 21:37:43.836131,United States,,,
brewery-in-planning-mashpee,Brewery in Planning - Mashpee,planning,,Mashpee,Massachusetts,02649-2248,http://www.karmawheelbrewing.com,5082749278,2018-07-24 01:33:30.453333,2018-08-11 21:37:39.314253,United States,,,
naukabout-brewery,Naukabout Brewery,micro,13 Lake Ave,Mashpee,Massachusetts,02649-2075,http://www.naukabout.com,7743130200,2018-07-24 01:33:31.521118,2018-08-24 00:41:34.018117,United States,-70.4842590100248,41.649362388751,
amorys-tomb-brewing-co,Amorys Tomb Brewing Co,micro,76 Main St,Maynard,Massachusetts,01754-2516,http://amorystomb.com,9782430875,2018-07-24 01:33:30.063307,2018-08-24 00:40:59.326948,United States,-71.4531564394476,42.43203845,
battle-road-brewing-co,Battle Road Brewing Co,micro,5 Clock Tower Pl,Maynard,Massachusetts,01754-2530,http://www.battleroadbh.com,9782985229,2018-07-24 01:33:30.195308,2018-08-24 00:41:02.245222,United States,-71.4541611252225,42.43001225,
7th-wave-brewing,7th Wave Brewing,micro,120 N Meadows Rd Ste 8,Medfield,Massachusetts,02052-1594,http://www.7thwavebrewing.com,6176453397,2018-07-24 01:33:29.970514,2018-08-11 21:37:38.232649,United States,,,
zelus-beer-company,ZeLUS Beer Company,contract,120 N Meadows Rd,Medfield,Massachusetts,02052-1594,http://www.zelusbeer.com,6275100270,2018-07-24 01:33:32.379824,2018-08-24 00:41:57.900035,United States,-71.335472,42.200799,
craftroots-brewing-llc,"CraftRoots Brewing, LLC.",micro,4 Industrial Rd Ste 8,Milford,Massachusetts,01757-3589,http://www.craftrootsbrewing.com,5083811920,2018-07-24 01:33:30.827613,2018-08-11 21:37:40.566544,United States,,,
element-brewing-co,Element Brewing Co,micro,16 Bridge St,Millers Falls,Massachusetts,01349-1336,http://www.elementbeer.com,4138356340,2018-07-24 01:33:30.952262,2018-08-24 00:41:18.209818,United States,-72.4951603879466,42.5795092914357,
cisco-brewers,Cisco Brewers,micro,5 Bartlett Farm Rd,Nantucket,Massachusetts,02554-4341,http://www.ciscobrewers.com,5083255929,2018-07-24 01:33:30.775775,2018-08-24 00:41:13.666331,United States,-70.1292844954849,41.2613581544694,
lookout-farm-brewing-and-cider-co,Lookout Farm Brewing And Cider Co,micro,89 Pleasant St,Natick,Massachusetts,01760-5669,http://www.lookoutfarmbrewing.com,5086511539,2018-07-24 01:33:31.332293,2018-08-24 00:41:29.025816,United States,-71.3709688823615,42.3223551642537,
moby-dick-brewing-co,Moby Dick Brewing Co.,brewpub,16 S Water St,New Bedford,Massachusetts,02740-7235,http://www.mobydickbrewing.com,7742026961,2018-07-24 01:33:31.472534,2018-08-24 00:41:32.621498,United States,-70.9225132461967,41.6338210074871,
greasy-luck-brewery,Greasy Luck Brewery,brewpub,791 Purchase St,New Bedford,Massachusetts,02740-6345,http://www.greasyluckbrewery.com,7744254600,2018-07-24 01:33:31.048489,2018-08-24 00:41:21.12769,United States,-70.9260752678464,41.6350707856424,
brewery-in-planning-petersham,Brewery In Planning - Petersham,planning,,New Salem,Massachusetts,01355,,,2018-07-24 01:33:30.467175,2018-08-11 21:37:39.345449,United States,,,
newburyport-brewing-co,Newburyport Brewing Co,micro,4 New Pasture Rd,Newburyport,Massachusetts,01950-4040,http://www.nbptbrewing.com,9784638700,2018-07-24 01:33:31.559571,2018-08-24 00:41:35.361791,United States,-70.8871558174512,42.8019577017051,
riverwalk-brewing-co,Riverwalk Brewing Co.,micro,40 Parker St,Newburyport,Massachusetts,01950-4056,http://www.riverwalkbrewing.com,9784992337,2018-07-24 01:33:31.839758,2018-08-24 00:41:43.6755,United States,-70.8672672695409,42.79921535,
hopsters,Hopsters,brewpub,292 Centre St,Newton,Massachusetts,02458-1618,http://www.hopstersbrew.com,6179160752,2018-07-24 01:33:31.176164,2018-08-24 00:41:25.042744,United States,-71.1852104,42.3560516,
bright-ideas-brewing,Bright Ideas Brewing,micro,111 Mass Moca Way,North Adams,Massachusetts,01247-2411,http://www.brightideasbrewing.com,4133464460,2018-07-24 01:33:30.586059,2018-08-11 21:37:39.631716,United States,,,
shovel-town-brewery-inc,"Shovel Town Brewery, Inc.",brewpub,50 Oliver St Rear,North Easton,Massachusetts,02356-1446,,5082057151,2018-07-24 01:33:31.940817,2018-08-11 21:37:43.613698,United States,,,
goat-creek-brewing,Goat Creek Brewing,planning,,Northampton,Massachusetts,01062-1326,,,2018-07-24 01:33:31.035035,2018-08-11 21:37:41.181381,United States,,,
northampton-brewery,Northampton Brewery,brewpub,11 Brewster Ct,Northampton,Massachusetts,01060-3801,http://www.northamptonbrewery.com,4135849903,2018-07-24 01:33:31.597663,2018-08-24 00:41:36.22975,United States,-72.6303406,42.317397,
bog-iron-brewing-co,Bog Iron Brewing Co,micro,33 W Main St,Norton,Massachusetts,02766-2711,,5089520555,2018-07-24 01:33:30.298772,2018-08-24 00:41:05.26829,United States,-71.1884994212408,41.9665846823839,
percival-brewing-company,Percival Brewing Company,micro,83 Morse St,Norwood,Massachusetts,02122,http://www.percivalbeercompany.com,7816644705,2018-07-24 01:33:31.735845,2018-08-24 00:41:40.339979,United States,-71.2072322984867,42.1722630460252,
castle-island-brewing-co,Castle Island Brewing Co.,micro,31 Astor Ave,Norwood,Massachusetts,02062-5016,http://www.castleislandbeer.com,7819512029,2018-07-24 01:33:30.721319,2018-08-24 00:41:12.832117,United States,-71.1918643775713,42.1693129661749,
offshore-ale-co,Offshore Ale Co,brewpub,30 Kennebec Ave,Oak Bluffs,Massachusetts,02557,http://www.offshoreale.com,5086932626,2018-07-24 01:33:31.647989,2018-08-24 00:41:37.670054,United States,-70.5579095857058,41.4548832424099,
honest-weight-artisan-beer,Honest Weight Artisan Beer,micro,131 W Main St Ste 104,Orange,Massachusetts,01364-1159,http://www.honestweightbeer.com,4135376659,2018-07-24 01:33:31.164051,2018-08-11 21:37:41.722251,United States,,,
hog-island-beer-company,Hog Island Beer Company,micro,PO Box 1901,Orleans,Massachusetts,02653-1901,http://www.hogislandbeerco.com,5082552337,2018-07-24 01:33:31.138811,2018-08-11 21:37:41.594557,United States,,,
wandering-star-brewing-co,Wandering Star Brewing Co,micro,11 Gifford St,Pittsfield,Massachusetts,01201-3701,http://www.wanderingstarbrewing.com,9175733942,2018-07-24 01:33:32.280079,2018-08-24 00:41:56.112804,United States,-73.2120230280269,42.4570644889269,
plymouth-beer-company-/-dirty-water-distillery,Plymouth Beer Company / Dirty Water Distillery,micro,10 Water St,Plymouth,Massachusetts,02360-3349,http://www.plymouthbeer.rocks,5085910589,2018-07-24 01:33:31.75011,2018-08-24 00:41:40.77548,United States,-70.6620267,41.9549491,
second-wind-brewing-company,Second Wind Brewing Company,micro,7 Howland St,Plymouth,Massachusetts,02360-3810,http://www.secondwindbrewing.com,5085915915,2018-07-24 01:33:31.916694,2018-08-24 00:41:45.584037,United States,-70.6665477965761,41.9585551017836,
independent-fermentations-brewing,Independent Fermentations Brewing,micro,127 Camelot Dr Ste 3,Plymouth,Massachusetts,02360-3039,http://www.independentfermentations.com,5087464634,2018-07-24 01:33:31.200855,2018-08-11 21:37:41.880084,United States,,,
mayflower-brewing-co,Mayflower Brewing Co,micro,12 Resnik Rd,Plymouth,Massachusetts,02360-7245,http://www.mayflowerbrewing.com,5087462674,2018-07-24 01:33:31.406801,2018-08-24 00:41:30.767987,United States,-70.7125549568343,41.9492602441054,
crue-brew-brewery,Crue Brew Brewery,micro,95 Ryan Dr Ste 6,Raynham,Massachusetts,02767-1992,http://www.cruebrewbrewery.com,5082726090,2018-07-24 01:33:30.840266,2018-08-11 21:37:40.614751,United States,,,
distraction-brewing-company,Distraction Brewing Company,planning,,Roslindale,Massachusetts,02131-3006,http://www.distractionbrewingco.com,,2018-07-24 01:33:30.89915,2018-08-11 21:37:40.800119,United States,,,
notch-brewing,Notch Brewing,micro,283R Derby St,Salem,Massachusetts,01970-,http://www.notchbrewing.com,9782389060,2018-07-24 01:33:31.610118,2018-08-24 00:41:36.767995,United States,-70.889896901293,42.5206254130724,
salem-beer-works,Salem Beer Works,brewpub,278 Derby St,Salem,Massachusetts,01970-3635,http://www.beerworks.net,9787452337,2018-07-24 01:33:31.854376,2018-08-24 00:41:44.151112,United States,-70.8898634038755,42.5207926242957,
cedar-point-brewery,Cedar Point Brewery,planning,,Scituate,Massachusetts,02066-1317,,7818311724,2018-07-24 01:33:30.733379,2018-08-11 21:37:39.971459,United States,,,
untold-brewing,Untold Brewing,micro,6 Old Country Way,Scituate,Massachusetts,02066-3773,http://www.untoldbrewing.com,7813780559,2018-07-24 01:33:32.231722,2018-08-24 00:41:54.696104,United States,-70.7475028582983,42.180807761562,
big-elm-brewing,Big Elm Brewing,micro,65 Silver St,Sheffield,Massachusetts,01257,http://www.bigelmbrewery.com,4132292348,2018-07-24 01:33:30.272528,2018-08-24 00:41:04.144706,United States,-73.351236,42.093595,
aeronaut-brewing-company,Aeronaut Brewing Company,micro,14 Tyler St,Somerville,Massachusetts,02143-3224,http://www.aeronautbrewing.com,6179874236,2018-07-24 01:33:29.995322,2018-08-24 00:40:57.942731,United States,-71.1062676,42.3819723,
remnant-brewing,Remnant Brewing,micro,2 Bow Market Way,Somerville,Massachusetts,02143,http://www.remnantsomerville.com,,2018-07-24 01:33:31.813795,2018-08-11 21:37:43.288949,United States,,,
somerville-brewing-company,Somerville Brewing Company,micro,15 Ward St,Somerville,Massachusetts,02143-4228,http://www.slumbrew.com,8004281150,2018-07-24 01:33:31.990713,2018-08-24 00:41:48.231103,United States,-71.0890345,42.3749103,
winter-hill-brewing-company,Winter Hill Brewing Company,brewpub,328 Broadway,Somerville,Massachusetts,02145-2803,http://www.winterhillbrewing.com,6177182337,2018-07-24 01:33:32.34958,2018-08-11 21:37:44.478416,United States,,,
berkshire-brewing-co-inc,Berkshire Brewing Co Inc,regional,12 Railroad St,South Deerfield,Massachusetts,01373-0096,http://www.Berkshire-Brewing.com,4136656600,2018-07-24 01:33:30.25886,2018-08-24 00:41:03.580098,United States,-72.6102508608935,42.4777979726281,
devils-purse-brewing-co,Devil's Purse Brewing Co,micro,120 Great Western Rd,South Dennis,Massachusetts,02660-3715,http://www.devilspurse.com,5086947171,2018-07-24 01:33:30.886052,2018-08-24 00:41:16.421965,United States,-70.1416854,41.6885379,
drunken-rabbit-brewing,Drunken Rabbit Brewing,micro,749A New Ludlow Rd,South Hadley,Massachusetts,01020,http://www.rabbit.beer,4137282739,2018-07-24 01:33:30.938075,2018-08-24 00:41:17.764563,United States,-72.553245,42.217914,
westfield-river-brewing-co,Westfield River Brewing Co,micro,707 College Hwy,Southwick,Massachusetts,01077-9733,http://www.westfieldriverbrewing.com,4133748425,2018-07-24 01:33:32.308053,2018-08-24 00:41:56.58132,United States,-72.765248,42.062268,
spencer-brewery,Spencer Brewery,micro,167 N Spencer Rd,Spencer,Massachusetts,01562-1232,http://www.spencerbrewery.com,5088855756,2018-07-24 01:33:32.036292,2018-08-24 00:41:48.673239,United States,-72.0133159,42.2976331,
white-lion-brewing-company,White Lion Brewing Company,contract,36 Garland St,Springfield,Massachusetts,01118-2128,http://www.whitelionbrewing.com,4133261829,2018-07-24 01:33:32.320737,2018-08-24 00:41:57.003082,United States,-72.5338092445335,42.089818555939,
still-river-brewery,Still River Brewery,micro,121 Clinton Shore Dr.,Still River,Massachusetts,01467-0157,,,2018-07-24 01:33:32.075095,2018-08-11 21:37:43.864782,United States,,,
brewery-in-planning-stockbridge,Brewery In Planning - Stockbridge,planning,,Stockbridge,Massachusetts,01262-1202,,,2018-07-24 01:33:30.483603,2018-08-11 21:37:39.374023,United States,,,
altruist-brewing-company,Altruist Brewing Company,brewpub,559 Main St Unit 105,Sturbridge,Massachusetts,01518-1208,http://www.altruistbrewing.com,7742418022,2018-07-24 01:33:30.037413,2018-08-11 21:37:38.319867,United States,,,
bay-state-beer-company,Bay State Beer Company,micro,,Sturbridge,Massachusetts,01566-1568,http://www.baystatebeer.com,6174130939,2018-07-24 01:33:30.209263,2018-08-11 21:37:38.686659,United States,,,
brick-and-feather-brewery,Brick and Feather Brewery,micro,78 11th St,Turners Falls,Massachusetts,01376-1020,http://www.brickandfeatherbrewery.com,4138632574,2018-07-24 01:33:30.572898,2018-08-11 21:37:39.599656,United States,,,
red-bird,Red Bird,planning,,Waltham,Massachusetts,02453-5208,http://www.redbirdwaltham.com,7818915486,2018-07-24 01:33:31.801657,2018-08-11 21:37:43.254019,United States,,,
portico-brewing-co,Portico Brewing Co,contract,256 Moody Street,Waltham,Massachusetts,02453,,,2018-07-24 01:33:31.763044,2018-08-24 00:41:41.204646,United States,-71.2366218,42.3718244,
brazo-fuerte-artisanal-beer,Brazo Fuerte Artisanal Beer,proprietor,15 Main St Ste 125,Watertown,Massachusetts,02472-4403,http://www.brazofuertebeer.com,6176008140,2018-07-24 01:33:30.36337,2018-08-11 21:37:39.029349,United States,,,
kretschmann-brewing-company,Kretschmann Brewing Company,micro,9 Frederick St,Webster,Massachusetts,01570-2286,http://kbcbrewery.com,5086717711,2018-07-24 01:33:31.293086,2018-08-24 00:41:28.144719,United States,-71.8807960968361,42.0500419070128,
henry-and-fran-brewing,Henry And Fran Brewing,micro,185 Laurel St,West Boylston,Massachusetts,01583-1535,,4253273457,2018-07-24 01:33:31.089641,2018-08-24 00:41:22.468031,United States,-71.8102670314576,42.3916689698943,
off-the-cuff-brewing-company,Off The Cuff Brewing Company,planning,,West Brookfield,Massachusetts,01585-6023,,4132810525,2018-07-24 01:33:31.634835,2018-08-11 21:37:42.798073,United States,,,
cold-harbor-brewing-company,Cold Harbor Brewing Company,micro,108 Milk St Ste 6,Westborough,Massachusetts,01581-1228,http://www.coldharborbrewing.com,,2018-07-24 01:33:30.81183,2018-08-11 21:37:40.519809,United States,,,
owen-olearys-restaurant-and-brewery,Owen OLearys Restaurant and Brewery,brewpub,17 Connector Rd,Westborough,Massachusetts,01581-3916,http://www.owenolearys.com,5083669262,2018-07-24 01:33:31.710946,2018-08-24 00:41:39.893868,United States,-71.5859197866303,42.2899655860842,
kismet-brewing-company,Kismet Brewing Company,planning,,Westfield,Massachusetts,01085,http://www.kismetbrewing.com,9789957711,2018-07-24 01:33:31.279716,2018-08-11 21:37:42.024769,United States,,,
tin-bridge-brewing,Tin Bridge Brewing,micro,487 E Main St,Westfield,Massachusetts,01085,http://www.tinbridgebrewing.com,4136426418,2018-07-24 01:33:32.152787,2018-08-24 00:41:51.986835,United States,-72.7196733636976,42.1126850185216,
outlook-farm-brewery,Outlook Farm Brewery,micro,136 Main Rd,Westhampton,Massachusetts,01027-9673,http://www.outlookfarm.com,4135299388,2018-07-24 01:33:31.698613,2018-08-24 00:41:39.445771,United States,-72.772262,42.285973,
wachusett-brewing-co,Wachusett Brewing Co,regional,175 State Rd E,Westminster,Massachusetts,01473-1208,http://www.wachusettbrew.com,9788749965,2018-07-24 01:33:32.268252,2018-08-24 00:41:55.642676,United States,-71.872940157432,42.557835421284,
buzzards-bay-brewing-co,Buzzards Bay Brewing Co,micro,98 Horseneck Rd,Westport,Massachusetts,02790-1399,http://www.buzzardsbrew.com,5086362288,2018-07-24 01:33:30.655062,2018-08-24 00:41:11.09863,United States,-71.0497046109378,41.5520745592303,
barrel-house-z,Barrel House Z,micro,95 Woodrock Rd,Weymouth,Massachusetts,02189-2335,http://www.barrelhousez.net,3392017888,2018-07-24 01:33:30.1687,2018-08-11 21:37:38.601035,United States,,,
hitchcock-brewing-company,Hitchcock Brewing Company,micro,129 Christian Ln,Whately,Massachusetts,01093,http://www.hitchcockbrewing.com,4136952400,2018-07-24 01:33:31.125616,2018-08-24 00:41:23.978207,United States,-72.6064122239763,42.4460651094895,
purgatory-beer-co-llc,"Purgatory Beer Co, LLC",micro,670 Linwood Ave Bldg C,Whitinsville,Massachusetts,01588-2068,http://www.purgatorybeer.com,7745450243,2018-07-24 01:33:31.776423,2018-08-11 21:37:43.195655,United States,,,
old-colony-brewing,Old Colony Brewing,micro,605 Bedford St Unit 1,Whitman,Massachusetts,02382-2088,http://www.oldcolonybrew.com,7815237105,2018-07-24 01:33:31.66062,2018-08-11 21:37:42.906912,United States,,,
brewmasters-tavern-/-brewmasters-brewing-services,Brewmasters Tavern / Brewmasters Brewing Services,micro,4 Main St,Williamsburg,Massachusetts,01096-9428,,4132682199,2018-07-24 01:33:30.561154,2018-08-24 00:41:09.225066,United States,-72.7305059,42.3923659,
3-beards-beer-company,3 Beards Beer Company,contract,4 Main St,Williamsburg,Massachusetts,01096,http://www.3beardsbeer.com,6173837039,2018-07-24 01:33:29.944674,2018-08-24 00:40:56.152198,United States,-72.7305059,42.3923659,
brewery-in-planning-winchester-ma,"Brewery in Planning - Winchester, MA",planning,,Winchester,Massachusetts,01890,,6174381338,2018-07-24 01:33:30.511168,2018-08-11 21:37:39.451284,United States,,,
lord-hobo-brewing-co,Lord Hobo Brewing Co,regional,5 Draper St,Woburn,Massachusetts,01801-4521,http://lordhobobrewing.com,7812810809,2018-07-24 01:33:31.346249,2018-08-24 00:41:29.437005,United States,-71.1289231911404,42.47603755,
3cross-fermentation-cooperative,3cross Fermentation Cooperative,micro,4 Knowlton Ave,Worcester,Massachusetts,01603,http://www.3cross.coop,5086158195,2018-07-24 01:33:29.957597,2018-08-24 00:40:56.595037,United States,-71.8305759340224,42.2436487455576,
flying-dreams-brewing-co,Flying Dreams Brewing Co.,micro,455B Park Ave,Worcester,Massachusetts,01610,http://www.flyingdreamsbrewing.com,5089268251,2018-07-24 01:33:30.993567,2018-08-24 00:41:19.667359,United States,-71.8261885714286,42.2541995714286,
greater-good-imperial-brew-co,Greater Good Imperial Brew Co,brewpub,55 Millbrook St,Worcester,Massachusetts,01606,http://www.greatergoodimperials.com,,2018-07-24 01:33:31.060791,2018-08-24 00:41:21.561723,United States,-71.8035550289181,42.2891295038281,
wormtown-brewery,Wormtown Brewery,micro,72 Shrewsbury St,Worcester,Massachusetts,01604-4625,http://www.wormtownbrewery.com,7742391555,2018-07-24 01:33:32.365592,2018-08-24 00:41:57.429666,United States,-71.7912262,42.2634992,
brewery-in-planning-watertown,Brewery In Planning - Watertown,planning,,Worcester,Massachusetts,01608-2064,http://www.redemptionrock.beer,9786605526,2018-07-24 01:33:30.498942,2018-08-11 21:37:39.416794,United States,,,
lyons-den-brewing-co,Lyons Den Brewing Co.,planning,,Wrentham,Massachusetts,02093,,,2018-07-24 01:33:31.37077,2018-08-11 21:37:42.222256,United States,,,