id,name,brewery_type,street,city,state,postal_code,website_url,phone,created_at,updated_at,country,longitude,latitude,tags
railhouse-brewery,Railhouse Brewery,micro,105 E South St Unit C,Aberdeen,North Carolina,28315-,http://www.railhousebrewery.com,9107835280,2018-07-24 01:33:57.874058,2018-08-11 21:38:51.787854,United States,,,
quick-trigger-brewing-company,Quick Trigger Brewing Company,brewpub,118 Main St W,Ahoskie,North Carolina,27910-3302,http://www.quicktriggerbrewing.com,2523326844,2018-07-24 01:33:57.860718,2018-08-24 15:42:31.190998,United States,-76.9863065,36.2857593,
hoppy-trout-brewing-company,Hoppy Trout Brewing Company,brewpub,911 Main St,Andrews,North Carolina,28901-7087,http://www.hoppytroutbrewing.com,8288352111,2018-07-24 01:33:56.706113,2018-08-24 15:41:57.814852,United States,-83.8165709,35.2016188,
andrews-brewing-co-at-calaboose-cellars,Andrews Brewing Co At Calaboose Cellars,micro,575 Aquone Rd,Andrews,North Carolina,28901-7004,http://www.calaboosecellars.com,8283212006,2018-07-24 01:33:54.842593,2018-08-24 15:40:58.760418,United States,-83.8148779865557,35.199581640194,
franklin-brewing-company-llc,"Franklin Brewing Company, LLC",planning,,Angier,North Carolina,27501-6094,http://www.franklin-brewing.com,,2018-07-24 01:33:56.275546,2018-08-11 21:38:48.034643,United States,,,
vicious-fishes-brewery,Vicious Fishes Brewery,micro,219 Fish Dr,Angier,North Carolina,27501-6077,http://www.viciousfishes.com,9196393369,2018-07-24 01:33:58.716532,2018-08-24 15:43:00.664416,United States,-78.749408,35.507541,
southern-peak-brewery,Southern Peak Brewery,micro,950 Windy Rd Ste 100,Apex,North Carolina,27502-2410,http://www.southernpeakbrewery.com,9192084515,2018-07-24 01:33:58.148609,2018-08-24 15:42:42.239297,United States,-78.8439995,35.7461806,
brueprint-brewing-company-llc,Brueprint Brewing Company LLC,micro,1229 Perry Rd Ste 101,Apex,North Carolina,27502-6898,http://www.brueprint.com,9199718846,2018-07-24 01:33:55.625279,2018-08-24 15:41:21.752184,United States,-78.8501437546017,35.7088481931982,
wicked-weed-funkatorium,Wicked Weed Funkatorium,large,95 Old Shoals Rd,Arden,North Carolina,28704-9401,http://www.wickedweedbrewing.com,8285759599,2018-07-24 01:33:58.904637,2018-08-24 15:43:07.283827,United States,-82.524955526838,35.4674064,
mills-river-brewery,Mills River Brewery,brewpub,330 Rockwood Rd Ste 103,Arden,North Carolina,28704-8216,http://www.millsriverbrewery.net,8285852396,2018-07-24 01:33:57.241962,2018-08-11 21:38:50.32188,United States,,,
wicked-weed-funk-house,Wicked Weed Funk House,large,95 Old Shoals Rd,Arden,North Carolina,28704-9401,http://www.wickedweedbrewing.com,,2018-07-24 01:33:58.891252,2018-08-24 15:43:06.864349,United States,-82.524955526838,35.4674064,
four-saints-brewing,Four Saints Brewing,micro,218 S Fayetteville St,Asheboro,North Carolina,27203-5725,http://www.foursaintsbrewing.com,3366103722,2018-07-24 01:33:56.260775,2018-08-24 15:41:43.245509,United States,-79.8144777142857,35.7036855714286,
archetype-brewing,Archetype Brewing,micro,265 Haywood Rd,Asheville,North Carolina,28806-4545,http://www.archetypebrewing.com,8285054177,2018-07-24 01:33:54.882189,2018-08-11 21:38:44.638478,United States,,,
biltmore-brewing-company,Biltmore Brewing Company,proprietor,1 N Pack Sq C/O Biltmore Winery Estates,Asheville,North Carolina,28801-3462,http://www.biltmore.com,8004113812,2018-07-24 01:33:55.167716,2018-08-11 21:38:45.283178,United States,,,
asheville-brewing-co,Asheville Brewing Co,brewpub,77 Coxe Ave,Asheville,North Carolina,28801-3621,http://www.ashevillepizza.com,8282554077,2018-07-24 01:33:54.910237,2018-08-24 15:41:00.271537,United States,-82.5553054474744,35.5917763,
bens-tune-up-/-bens-beer,Ben's Tune-Up / Ben's Beer,brewpub,195 Hilliard Ave,Asheville,North Carolina,28801-3616,http://www.benstuneup.com,8284247580,2018-07-24 01:33:55.102921,2018-08-24 15:41:05.480998,United States,-82.5557931,35.5912756,
bhramari-brewhouse,Bhramari Brewhouse,micro,101 S Lexington Ave,Asheville,North Carolina,28801-3309,http://www.bhramaribrewing.com,8282147981,2018-07-24 01:33:55.115889,2018-08-24 15:41:06.02324,United States,-82.55191879386,35.5916676262246,
burial-beer-co-forestry-camp,Burial Beer Co Forestry Camp,micro,,Asheville,North Carolina,28803-2719,,,2018-07-24 01:33:55.678209,2018-08-11 21:38:46.710668,United States,,,
catawba-brewing-co-asheville,Catawba Brewing Co - Asheville,micro,63 Brook St Ste 1,Asheville,North Carolina,28803-2685,http://www.catawbavalleybrewingcompany.com,8284247290,2018-07-24 01:33:55.755781,2018-08-11 21:38:46.880129,United States,,,
burial-beer-co,Burial Beer Co,micro,40 Collier Ave,Asheville,North Carolina,28801-4024,http://www.burialbeer.com,,2018-07-24 01:33:55.666087,2018-08-24 15:41:23.454876,United States,-82.5537906230192,35.5879562,
green-man-brewing-co,Green Man Brewing Co,micro,27 Buxton Ave,Asheville,North Carolina,28801-4019,http://www.greenmanbrewery.com,8282525502,2018-07-24 01:33:56.470437,2018-08-24 15:41:50.096611,United States,-82.5536715280212,35.5886248998363,
habitat-brewing-co,Habitat Brewing Co,micro,174 Broadway St,Asheville,North Carolina,28801-2305,http://www.habitatbrewing.com,7047018141,2018-07-24 01:33:56.498245,2018-08-24 15:41:50.670853,United States,-82.5533973,35.5986648,
hillman-beer,Hillman Beer,brewpub,25 Sweeten Creek Rd,Asheville,North Carolina,28803-2318,http://www.hillmanbeer.com,8285051312,2018-07-24 01:33:56.619982,2018-08-24 15:41:54.892505,United States,-82.520631,35.5139103,
hi-wire-brewing-big-top-production-facility,Hi-Wire Brewing Big Top Production Facility,micro,2 Huntsman Pl,Asheville,North Carolina,28803-2600,http://www.hiwirebrewing.com,,2018-07-24 01:33:56.632661,2018-08-24 15:41:55.361913,United States,-82.5456631071331,35.5702055141848,
hi-wire-brewing-south-slope-specialty-brewery,Hi-Wire Brewing South Slope Specialty Brewery,micro,197 Hilliard Ave,Asheville,North Carolina,28801-3616,http://www.hiwirebrewing.com,8285759675,2018-07-24 01:33:56.645725,2018-08-24 15:41:55.811907,United States,-82.5560374689874,35.5912314973118,
lexington-avenue-brewery-the-lab,Lexington Avenue Brewery - The LAB,brewpub,39 N Lexington Ave,Asheville,North Carolina,28801-2827,http://www.lexavebrew.com,8282520212,2018-07-24 01:33:56.964942,2018-08-24 15:42:05.678573,United States,-82.5532489,35.5961485,
one-world-brewing,One World Brewing,micro,10 Patton Ave Ste 002,Asheville,North Carolina,28801-3302,http://www.oneworldbrewing.com,8287855580,2018-07-24 01:33:57.648101,2018-08-11 21:38:51.269496,United States,,,
new-belgium-brewing-co,New Belgium Brewing Co,regional,21 Craven St,Asheville,North Carolina,28806-,http://www.newbelgium.com,8885989552,2018-07-24 01:33:57.439807,2018-08-24 15:42:19.453621,United States,-82.571942933736,35.5879302,
sweeten-creek-brewing,Sweeten Creek Brewing,brewpub,1127 Sweeten Creek Rd,Asheville,North Carolina,28803-1728,http://www.sweetencreekbrewing.com,8285752785,2018-07-24 01:33:58.273528,2018-08-24 15:42:46.662258,United States,-82.520631,35.5139103,
upcountry-brewing,UpCountry Brewing,brewpub,1042 Haywood Rd,Asheville,North Carolina,28806-2639,http://upcountrybrewing.com/,8285752400,2018-07-24 01:33:58.663255,2018-08-11 21:38:53.56132,United States,,,
twin-leaf-brewery,Twin Leaf Brewery,micro,144 Coxe Ave,Asheville,North Carolina,28801-4026,http://www.twinleafbrewery.com,8283332221,2018-07-24 01:33:58.625282,2018-08-24 15:42:57.619728,United States,-82.5545418535317,35.58942485,
wedge-brewing-co,Wedge Brewing Co,micro,37 Paynes Way Ste 100,Asheville,North Carolina,28801-2626,http://www.wedgebrewing.com,8285052792,2018-07-24 01:33:58.757708,2018-08-24 15:43:02.16273,United States,-82.5665920052359,35.5865571,
white-labs-kitchen-and-tap,White Labs Kitchen and Tap,brewpub,172 S Charlotte St,Asheville,North Carolina,28801,,8289743868,2018-07-24 01:33:58.825012,2018-08-24 15:43:04.595016,United States,-82.5490695,35.5911334,
brouwerij-cursus-keme,Brouwerij Cursus Keme,brewpub,155 Thompson St,Asheville,North Carolina,28803-1443,,,2018-07-24 01:33:55.598922,2018-08-24 15:41:20.581816,United States,-82.5257283663686,35.5743884286413,
french-broad-river-brewing-co,French Broad River Brewing Co,micro,101 Fairview Rd Ste D,Asheville,North Carolina,28803-4301,http://www.frenchbroadbrewery.com,8282770222,2018-07-24 01:33:56.302221,2018-08-11 21:38:48.111798,United States,,,
highland-brewing-co,Highland Brewing Co,regional,12 Old Charlotte Hwy Ste H,Asheville,North Carolina,28803-9419,http://www.highlandbrewing.com,8282993816,2018-07-24 01:33:56.606827,2018-08-11 21:38:48.763052,United States,,,
oyster-house-brewing-co,Oyster House Brewing Co.,brewpub,625 Haywood Rd,Asheville,North Carolina,28806-3255,http://www.oysterhousebeers.com,8285759370,2018-07-24 01:33:57.714107,2018-08-11 21:38:51.414687,United States,,,
thirsty-monk-brewery,Thirsty Monk Brewery,brewpub,92 Patton Ave,Asheville,North Carolina,28801-3315,http://www.monkpub.com,8282545470,2018-07-24 01:33:58.421978,2018-08-24 15:42:51.462306,United States,-82.5553147520814,35.59410425,
wicked-weed-brewing,Wicked Weed Brewing,large,91 Biltmore Ave,Asheville,North Carolina,28801-3626,http://www.wickedweedbrewing.com,8285759599,2018-07-24 01:33:58.865259,2018-08-24 15:43:05.943755,United States,-82.5510683176403,35.5916712,
flat-top-mountain-brewery,Flat Top Mountain Brewery,micro,567 Main St E,Banner Elk,North Carolina,28604-8974,http://www.flattopbrew.com,8288988677,2018-07-24 01:33:56.139058,2018-08-24 15:41:40.198474,United States,-81.8665760187748,36.165102561231,
bear-creek-brews,Bear Creek Brews,micro,10538 Nc 902 Hwy,Bear Creek,North Carolina,27207-9269,http://www.bearcreekbrews.com,9192003930,2018-07-24 01:33:55.050066,2018-08-11 21:38:44.918157,United States,,,
mill-whistle-brewing,Mill Whistle Brewing,micro,1354 Lennoxville Rd,Beaufort,North Carolina,28616,,,2018-07-24 01:33:57.228579,2018-08-24 15:42:13.359243,United States,-76.6504293369565,34.7173879891304,
beech-mountain-brewing-company,Beech Mountain Brewing Company,micro,1007 Beech Mountain Pkwy,Beech Mountain,North Carolina,28604-8018,http://www.beechmountainresort.com,8283872011,2018-07-24 01:33:55.076483,2018-08-24 15:41:04.994664,United States,-81.8733560040101,36.1681958415096,
brewery-in-planning-belmont,Brewery in Planning - Belmont,planning,,Belmont,North Carolina,28012-8868,,7048272299,2018-07-24 01:33:55.43782,2018-08-11 21:38:46.02275,United States,,,
rivermen-brewing-co,Rivermen Brewing Co,brewpub,1500 River Dr,Belmont,North Carolina,28012-3586,http://www.rivermenbrewingcompany.com,7043634698,2018-07-24 01:33:57.95558,2018-08-24 15:42:34.101646,United States,-81.015546,35.240249,
york-chester-brewing-company,York Chester Brewing Company,micro,1500 River Dr Ste 250,Belmont,North Carolina,28012-3587,http://www.yorkchesterbrew.com,7047555104,2018-07-24 01:33:58.997865,2018-08-11 21:38:54.451709,United States,,,
pisgah-brewing-co,Pisgah Brewing Co,micro,150 Eastside Dr,Black Mountain,North Carolina,28711-8208,http://www.pisgahbrewing.com,8286690190,2018-07-24 01:33:57.789226,2018-08-24 15:42:28.512474,United States,-82.35826,35.6079376,
lookout-brewing-company,Lookout Brewing Company,micro,103 S Ridgeway Ave,Black Mountain,North Carolina,28711-3550,http://www.lookoutbrewing.com,8283575169,2018-07-24 01:33:57.052242,2018-08-24 15:42:08.230351,United States,-82.3179459321174,35.619217,
blowing-rock-brewing-company,Blowing Rock Brewing Company,brewpub,152 Sunset Dr,Blowing Rock,North Carolina,28605-7205,http://www.blowingrockbrewing.com,8284149600,2018-07-24 01:33:55.21865,2018-08-24 15:41:10.512069,United States,-81.677229,36.1327196,
appalachian-mountain-brewery-boone,Appalachian Mountain Brewery - Boone,micro,163 Boone Creek Dr,Boone,North Carolina,28607-7911,http://www.appalachianmountainbrewery.com,8282631111,2018-07-24 01:33:54.870065,2018-08-24 15:40:59.814286,United States,-81.668461,36.2033414,
booneshine-brewing-company,Booneshine Brewing Company,micro,465 Industrial Park Dr.,Boone,North Carolina,28607,http://www.booneshine.beer,8282634305,2018-07-24 01:33:55.346445,2018-08-24 15:41:15.021492,United States,-81.645208,36.222104,
ivory-tower-brewery,Ivory Tower Brewery,planning,,Boone,North Carolina,28608-0001,http://ivorytowerscience.com,8282627847,2018-07-24 01:33:56.79795,2018-08-11 21:38:49.327785,United States,,,
lost-province-brewing-company-llc,"Lost Province Brewing Company, LLC",brewpub,130 N. Depot Street PO Box 614,Boone,North Carolina,28607-3603,http://www.lostprovince.com,8282653506,2018-07-24 01:33:57.079794,2018-08-11 21:38:49.950082,United States,,,
oskar-blues-brewery-brevard,Oskar Blues Brewery - Brevard,regional,342 Mountain Industrial Dr,Brevard,North Carolina,28712-5122,http://www.oskarblues.com,3037760724,2018-07-24 01:33:57.66185,2018-08-24 15:42:26.098624,United States,-82.7069595,35.2536956,
brevard-brewing-co,Brevard Brewing Co,micro,63 E Main St,Brevard,North Carolina,28712-3746,http://www.brevard-brewing.com,,2018-07-24 01:33:55.386596,2018-08-24 15:41:16.776296,United States,-82.7303593,35.2319789,
peaks-and-creeks-brewing-company,Peaks and Creeks Brewing Company,micro,212 King St Ste B,Brevard,North Carolina,28712,http://www.brevardlumberyard.com,8285504765,2018-07-24 01:33:57.726689,2018-08-11 21:38:51.442105,United States,,,
mountain-layers-brewing-company,Mountain Layers Brewing Company,micro,90 Everett Street,Bryson City,North Carolina,28713,http://www.mtnlayersbeer.com,8285380115,2018-07-24 01:33:57.30488,2018-08-24 15:42:15.312574,United States,-83.446029,35.428795,
nantahala-brewing-co,Nantahala Brewing Co,micro,61 Depot Street,Bryson City,North Carolina,28713-0483,http://www.nantahalabrewing.com,8287886185,2018-07-24 01:33:57.331104,2018-08-24 15:42:16.362314,United States,-83.446278,35.4311525,
homeplace-beer-co,Homeplace Beer Co,micro,6 South Main Street Area C,Burnsville,North Carolina,28714,http://www.homeplacebeer.com,8285365147,2018-07-24 01:33:56.669989,2018-08-11 21:38:48.908314,United States,,,
wicked-weed-brewing,Wicked Weed Brewing,large,145 Jacob Holme Way,Candler,North Carolina,28715-0209,http://www.wickedweedbrewing.com,4846789424,2018-07-24 01:33:58.878356,2018-08-11 21:38:54.042353,United States,,,
bearwaters-brewing-co,BearWaters Brewing Co,brewpub,101 Park St,Canton,North Carolina,28716-4319,http://www.bwbrewing.com,8282734200,2018-07-24 01:33:55.062823,2018-08-24 15:41:04.510674,United States,-82.843001,35.53137,
good-hops-brewing-llc,Good Hops Brewing LLC,micro,811 Harper Ave,Carolina Beach,North Carolina,28428-4202,http://www.goodhopsbrewing.com,7067131594,2018-07-24 01:33:56.432692,2018-08-24 15:41:49.084825,United States,-77.9038203981021,34.0408072094185,
dingo-dog-brewing-co,Dingo Dog Brewing Co,micro,,Carrboro,North Carolina,27510,http://www.dingodogbrewing.com,9198859793,2018-07-24 01:33:55.953263,2018-08-11 21:38:47.329529,United States,,,
vecino-brewing,Vecino Brewing,brewpub,300 E Main St,Carrboro,North Carolina,27510-2359,http://www.vecinobrewing.com,9196495101,2018-07-24 01:33:58.703039,2018-08-24 15:43:00.204121,United States,-79.0689722,35.9100127,
steel-string-craft-brewery,Steel String Craft Brewery,brewpub,106 S Greensboro St Ste A,Carrboro,North Carolina,27510-2266,http://www.steelstringbrewery.com,9192407215,2018-07-24 01:33:58.219267,2018-08-11 21:38:52.586271,United States,,,
bond-brothers-beer-company,Bond Brothers Beer Company,micro,202 E Cedar St,Cary,North Carolina,27511-3440,http://www.bondbrothersbeer.com,9194592670,2018-07-24 01:33:55.308292,2018-08-24 15:41:13.489685,United States,-78.7779744445373,35.78798475,
fortnight-brewing-company,Fortnight Brewing Company,micro,211 Powers Ferry Rd,Cary,North Carolina,27519-1510,http://www.fortnightbrewing.com,9194340742,2018-07-24 01:33:56.246813,2018-08-24 15:41:42.724285,United States,-78.9113371364432,35.8057623142808,
jordan-lake-brewing-co,Jordan Lake Brewing Co,micro,320 E Durham Rd,Cary,North Carolina,27513-4043,http://jordanlakebrewing.com,9196945096,2018-07-24 01:33:56.836521,2018-08-24 15:42:01.248505,United States,-78.7753789727503,35.7902230560576,
carolina-brewery-chapel-hill,Carolina Brewery - Chapel Hill,brewpub,460 W Franklin St,Chapel Hill,North Carolina,27516,http://www.carolinabrewery.com,9199421800,2018-07-24 01:33:55.704046,2018-08-24 15:41:24.412973,United States,-79.0627304,35.9106269,
starpoint-brewing-llc,"Starpoint Brewing, LLC",micro,901 Clarence Dr,Chapel Hill,North Carolina,27516-3145,http://starpointbrewing.com,9195232302,2018-07-24 01:33:58.192331,2018-08-11 21:38:52.514276,United States,,,
starpoint-brewing-llc-/-beer-study,"Starpoint Brewing, LLC / Beer Study",micro,2501 University Dr Ste 4,Chapel Hill,North Carolina,22707,http://www.drinkdurham.com,9842197538,2018-07-24 01:33:58.204657,2018-08-11 21:38:52.552106,United States,,,
top-of-the-hill-restaurant-and-brewery,Top Of The Hill Restaurant and Brewery,brewpub,100 E Franklin St Ste F,Chapel Hill,North Carolina,27514-3629,http://www.thetopofthehill.com,9199298676,2018-07-24 01:33:58.515646,2018-08-11 21:38:53.241296,United States,,,
sugar-creek-brewing-co,Sugar Creek Brewing Co.,micro,215 Southside Dr,Charlotte,North Carolina,28217-1727,http://www.sugarcreekbrewing.com,7044082021,2018-07-24 01:33:58.245622,2018-08-24 15:42:45.726613,United States,-80.8804506495102,35.1857169251298,
brewers,Brewers,planning,,Charlotte,North Carolina,28217,,,2018-07-24 01:33:55.399121,2018-08-11 21:38:45.927518,United States,,,
birdsong-brewing-co,Birdsong Brewing Co.,micro,1016 N Davidson St,Charlotte,North Carolina,28206-3371,http://www.birdsongbrewing.com,7043321810,2018-07-24 01:33:55.181444,2018-08-24 15:41:08.775434,United States,-80.8270427213458,35.2306075317639,
catawba-brewing-co-charlotte,Catawba Brewing Co - Charlotte,micro,933 Louise Ave Ste 105,Charlotte,North Carolina,28204-2299,,9804986145,2018-07-24 01:33:55.769101,2018-08-11 21:38:46.908023,United States,,,
blue-blaze-brewing,Blue Blaze Brewing,micro,528 S Turner Ave,Charlotte,North Carolina,28208-4259,http://www.blueblazebrewing.com,9808592586,2018-07-24 01:33:55.231006,2018-08-24 15:41:11.013886,United States,-80.8671084275996,35.2413880896314,
bold-missy-brewery,Bold Missy Brewery,brewpub,610 Anderson St,Charlotte,North Carolina,28205-1208,http://www.boldmissybrewery.com,9802994184,2018-07-24 01:33:55.282583,2018-08-24 15:41:12.506748,United States,-80.7964289950614,35.2496085155633,
divine-barrel-brewing,Divine Barrel Brewing,micro,3701 N Davidson St Ste 203,Charlotte,North Carolina,28205-1303,http://www.divinebarrel.com,9802371803,2018-07-24 01:33:55.978155,2018-08-11 21:38:47.390977,United States,,,
free-range-brewing,Free Range Brewing,micro,2320 N Davidson St Unit D,Charlotte,North Carolina,28205-1832,http://www.freerangebrewing.com,9802019096,2018-07-24 01:33:56.289778,2018-08-11 21:38:48.064808,United States,,,
heist-brewery,Heist Brewery,brewpub,2909 N Davidson St,Charlotte,North Carolina,28205-1190,http://www.heistbrewery.com,7043758260,2018-07-24 01:33:56.551006,2018-08-24 15:41:52.37599,United States,-80.8090455102041,35.2451927959184,
hyde-brewing,Hyde Brewing,brewpub,2911 Griffith St,Charlotte,North Carolina,28203-5429,http://hydebrewing.com/,7046095363,2018-07-24 01:33:56.747195,2018-08-24 15:41:59.266116,United States,-80.8691060198553,35.2008341673193,
legion-brewing-company,Legion Brewing Company,brewpub,1906 Commonwealth Ave,Charlotte,North Carolina,28205-5020,http://www.legionbrewing.com,8444675683,2018-07-24 01:33:56.939703,2018-08-24 15:42:04.677938,United States,-80.8132231632653,35.2187007346939,
lenny-boy-brewing-co,Lenny Boy Brewing Co,micro,3000 S Tryon St,Charlotte,North Carolina,28217-1342,http://www.discoverlennyboy.com,9805851728,2018-07-24 01:33:56.952605,2018-08-24 15:42:05.202207,United States,-80.8736241159645,35.20146285,
new-realm-brewing,New Realm Brewing,planning,,Charlotte,North Carolina,28203,,,2018-07-24 01:33:57.453001,2018-08-11 21:38:50.804228,United States,,,
pilot-brewing,Pilot Brewing,planning,,Charlotte,North Carolina,28205,,,2018-07-24 01:33:57.750762,2018-08-11 21:38:51.508056,United States,,,
noda-brewing-co-ne,NoDa Brewing Co - NE,regional,2921 N Tryon St,Charlotte,North Carolina,28206-2762,http://www.nodabrewing.com,7044511394,2018-07-24 01:33:57.533676,2018-08-24 15:42:22.629267,United States,-80.7190968,35.3342735,
noda-brewing-co-og,NoDa Brewing Co - OG,micro,2229 N Davidson St,Charlotte,North Carolina,28205-1829,,7044511394,2018-07-24 01:33:57.546247,2018-08-24 15:42:23.113347,United States,-80.8151327142857,35.2397174285714,
rock-bottom-brewery-charlotte,Rock Bottom Brewery- Charlotte,brewpub,401 N Tryon St Ste 100,Charlotte,North Carolina,28202-2108,,7043342739,2018-07-24 01:33:57.969071,2018-08-11 21:38:52.038585,United States,,,
salud-cerveceria,Salud Cerveceria,brewpub,3306-B N Davidson St,Charlotte,North Carolina,28205-1036,http://www.saludbeershop.com,7045782941,2018-07-24 01:33:57.995697,2018-08-11 21:38:52.095925,United States,,,
seven-jars-products,Seven Jars Products,micro,6148-B Brookshire Blvd,Charlotte,North Carolina,28216,http://sevenjars.com/brewery,7049190278,2018-07-24 01:33:58.053622,2018-08-11 21:38:52.217173,United States,,,
sycamore-brewing,Sycamore Brewing,brewpub,2161 Hawkins St Ste A,Charlotte,North Carolina,28203-5396,http://www.sycamorebrew.com,7049103821,2018-07-24 01:33:58.286167,2018-08-11 21:38:52.731954,United States,,,
resident-culture-brewing-company-llc,Resident Culture Brewing Company LLC,micro,2101 Central Ave,Charlotte,North Carolina,28205-5203,http://www.residentculturebrewing.com,7043331862,2018-07-24 01:33:57.941399,2018-08-24 15:42:33.639472,United States,-80.8054236526316,35.2199558631579,
the-olde-mecklenburg-brewery,The Olde Mecklenburg Brewery,regional,4150 Yancey Rd,Charlotte,North Carolina,28217-1738,http://www.oldemeckbrew.com,7045255644,2018-07-24 01:33:58.381448,2018-08-24 15:42:50.010277,United States,-80.8819534530266,35.18741705,
the-sycamore-brewing-cannery,The Sycamore Brewing Cannery,micro,401 W 24th St,Charlotte,North Carolina,28206-2664,,7049103821,2018-07-24 01:33:58.406793,2018-08-24 15:42:50.994985,United States,-80.825601,35.246262,
thirsty-nomad-brewing,Thirsty Nomad Brewing,micro,4402 Stuart Andrew Blvd Ste A,Charlotte,North Carolina,28217-1520,http://www.thirstynomadbrewing.com,7049400947,2018-07-24 01:33:58.434905,2018-08-11 21:38:53.064592,United States,,,
traust-brewing-co,Traust Brewing Co.,planning,,Charlotte,North Carolina,28205,http://www.traustbrewing.com,9805053111,2018-07-24 01:33:58.528385,2018-08-11 21:38:53.269093,United States,,,
wooden-robot,Wooden Robot,micro,1440 S Tryon St Ste 110,Charlotte,North Carolina,28203-4263,http://www.woodenrobotbrewery.com,7723594993,2018-07-24 01:33:58.944496,2018-08-11 21:38:54.318363,United States,,,
wooden-robot,Wooden Robot,planning,,Charlotte,North Carolina,28203-4263,,7723594993,2018-07-24 01:33:58.957586,2018-08-11 21:38:54.352205,United States,,,
three-spirits-brewery,Three Spirits Brewery,micro,5046 Old Pineville Rd Ste 200,Charlotte,North Carolina,28217-3033,http://www.threespiritsbrewery.com,9802074881,2018-07-24 01:33:58.461526,2018-08-24 15:42:52.973901,United States,-80.8784230204082,35.1718311020408,
triple-c-brewing,Triple C Brewing,micro,2900 Griffith St,Charlotte,North Carolina,28203-5430,http://www.triplecbrewing.com,7043723212,2018-07-24 01:33:58.541709,2018-08-24 15:42:54.883984,United States,-80.8695657952456,35.20109925,
unknown-brewing-company,Unknown Brewing Company,micro,1327 S Mint St,Charlotte,North Carolina,28203-4121,http://www.unknownbrewing.com,9802372628,2018-07-24 01:33:58.638018,2018-08-24 15:42:58.081049,United States,-80.8575419035654,35.2205129,
kind-beer-distributing,Kind Beer Distributing,contract,6014 McDaniel Ln Ste C,Charlotte,North Carolina,28213-7351,http://www.kindbeers.com,9105154140,2018-07-24 01:33:56.875073,2018-08-11 21:38:49.509806,United States,,,
deep-river-brewing-company,Deep River Brewing Company,micro,700 W Main St Ste 102,Clayton,North Carolina,27520-1657,http://www.deepriverbrewing.com,9193683243,2018-07-24 01:33:55.939849,2018-08-11 21:38:47.302245,United States,,,
other-side-of-the-moon-brewery-/-full-moon-oyster-bar,Other Side of the Moon Brewery / Full Moon Oyster Bar,brewpub,1477 River Ridge Dr,Clemmons,North Carolina,27012,http://www.fullmoonoysterbar.com,3367128200,2018-07-24 01:33:57.674679,2018-08-24 15:42:26.62436,United States,-80.3912598,36.0738908,
twenty-six-acres-brewing-company,Twenty-Six Acres Brewing Company,micro,7285 Westwinds Blvd NW,Concord,North Carolina,28027-3310,http://www.26acres.com,9802772337,2018-07-24 01:33:58.611029,2018-08-24 15:42:57.186196,United States,-80.7219270261999,35.3861774847151,
commoners-brewing-company,Commoners Brewing Company,micro,1048 Copperfield Blvd Ste 101,Concord,North Carolina,28025,http://www.commonersbrewingcompany.com,7048866002,2018-07-24 01:33:55.856297,2018-08-11 21:38:47.113632,United States,,,
cabarrus-brewing-company,Cabarrus Brewing Company,micro,329 McGill Ave NW,Concord,North Carolina,28027-6149,http://www.cabarrusbrewing.com,7044904487,2018-07-24 01:33:55.691211,2018-08-24 15:41:23.920154,United States,-80.6060002786602,35.4157357821076,
high-branch-brewing-co,High Branch Brewing Co,micro,325 McGill Ave NW Ste 148,Concord,North Carolina,28027-0011,,,2018-07-24 01:33:56.593045,2018-08-11 21:38:48.732491,United States,,,
red-hill-brewing-co,Red Hill Brewing Co,micro,21 Union St S,Concord,North Carolina,28025-5009,http://www.redhillbrewing.com,7047842337,2018-07-24 01:33:57.901197,2018-08-24 15:42:32.603074,United States,-80.5806658,35.41030435,
eleven-lakes-brewing-company,Eleven Lakes Brewing Company,micro,10228 Bailey Rd Ste 201,Cornelius,North Carolina,28031-9420,http://www.elevenlakesbrewing.com,7044000927,2018-07-24 01:33:56.088073,2018-08-24 15:41:38.237322,United States,-80.8605492789893,35.4540068565198,
ass-clown-brewing-co,Ass Clown Brewing Co,micro,10620 Bailey Rd Ste E,Cornelius,North Carolina,28031-9364,http://www.assclownbrewery.com,9805050399,2018-07-24 01:33:54.922847,2018-08-11 21:38:44.700177,United States,,,
d9-brewing-company,D9 Brewing Company,micro,11138 Treynorth Dr Ste C,Cornelius,North Carolina,28031-8186,http://www.d9brewing.com,7044579368,2018-07-24 01:33:55.924576,2018-08-11 21:38:47.272671,United States,,,
northern-outer-banks-brewing-company,Northern Outer Banks Brewing Company,micro,520 Old Stoney Rd,Corolla,North Carolina,27927,http://www.northernobxbrewing.com,2522071890,2018-07-24 01:33:57.558574,2018-08-11 21:38:51.063981,United States,,,
ole-dallas-brewery,Ole Dallas Brewery,micro,,Dallas,North Carolina,28034-9793,http://www.oledallasbrewery.com,7042661472,2018-07-24 01:33:57.635149,2018-08-11 21:38:51.243225,United States,,,
off-main-brewing,Off Main Brewing,planning,,Davidson,North Carolina,28036-6945,http://OffMainBrewing.com,5124153075,2018-07-24 01:33:57.595821,2018-08-11 21:38:51.159236,United States,,,
bull-durham-beer-co,Bull Durham Beer Co,micro,409 Blackwell St,Durham,North Carolina,27701-3972,http://www.bulldurhambeer.com,9197443568,2018-07-24 01:33:55.653107,2018-08-24 15:41:22.982849,United States,-78.90481567784,35.9915653,
ponysaurus-brewing-company,Ponysaurus Brewing Company,brewpub,219 Hood St,Durham,North Carolina,27701-3715,http://www.ponysaurusbrewing.com,9784827701,2018-07-24 01:33:57.813725,2018-08-24 15:42:29.557838,United States,-78.8939992244898,35.990086244898,
barrel-culture-brewing-and-blending,Barrel Culture Brewing And Blending,proprietor,4913 S Alston Ave,Durham,North Carolina,27713-4424,,,2018-07-24 01:33:54.990729,2018-08-24 15:41:03.447147,United States,-78.8889165519659,35.8944573651364,
durty-bull-brewing-co,Durty Bull Brewing Co.,micro,206 Broadway St Ste 104,Durham,North Carolina,27701-2404,http://www.durtybull.com,9196882337,2018-07-24 01:33:56.034213,2018-08-11 21:38:47.513038,United States,,,
fullsteam-brewery,Fullsteam Brewery,micro,726 Rigsbee Ave,Durham,North Carolina,27701-2139,http://www.fullsteam.ag,9196822337,2018-07-24 01:33:56.342175,2018-08-24 15:41:45.739266,United States,-78.8995943502541,36.00310675,
hi-wire-brewing-taproom,Hi-Wire Brewing Taproom,planning,,Durham,North Carolina,27701,,,2018-07-24 01:33:56.657728,2018-08-11 21:38:48.877808,United States,,,
modern-romance-brewery,Modern Romance Brewery,planning,,Durham,North Carolina,27703-5133,http://www.drinkmodern.com,9192594469,2018-07-24 01:33:57.25511,2018-08-11 21:38:50.353567,United States,,,
the-glass-jug,The Glass Jug,micro,5410 Nc Highway 55 Ste V,Durham,North Carolina,27713-7802,http://www.glass-jug.com,9198186907,2018-07-24 01:33:58.341455,2018-08-11 21:38:52.856514,United States,,,
bull-city-burger-and-brewery,Bull City Burger And Brewery,brewpub,107 E Parrish St Ste 105,Durham,North Carolina,27701-3318,http://www.bullcityburgerandbrewery.com,9196802333,2018-07-24 01:33:55.638752,2018-08-11 21:38:46.602475,United States,,,
ghost-harbor-brewing-company,Ghost Harbor Brewing Company,micro,606 B E Colonial Ave,Elizabeth City,North Carolina,27909,http://www.ghostharborbrewing.com,2525991030,2018-07-24 01:33:56.380381,2018-08-24 15:41:47.030702,United States,-76.2187962244898,36.3004222857143,
angry-troll-brewing-/-222-public-house,Angry Troll Brewing / 222 Public House,brewpub,222 E Main St Ste U2,Elkin,North Carolina,28621-3493,http://www.angrytrollbrewing.com,3362582251,2018-07-24 01:33:54.855685,2018-08-11 21:38:44.581094,United States,,,
skull-camp-brewing,Skull Camp Brewing,micro,1980 N Bridge St,Elkin,North Carolina,28621-2106,http://www.skullcampbrewing.com,3363525595,2018-07-24 01:33:58.096695,2018-08-24 15:42:40.34196,United States,-80.8524565963092,36.2833978851372,
turgua-brewing-co,Turgua Brewing Co,micro,27 Firefly Hollow Dr,Fairview,North Carolina,28730-1648,http://www.turguabrewing.com,8282220984,2018-07-24 01:33:58.596542,2018-08-11 21:38:53.422304,United States,,,
whistle-hop-brewing-company,Whistle Hop Brewing Company,micro,1288 Charlotte Hwy,Fairview,North Carolina,28730-8797,http://www.whistlehop.com,8283389447,2018-07-24 01:33:58.797844,2018-08-24 15:43:03.638535,United States,-82.416930726649,35.523144129188,
duck-rabbit-craft-brewery,Duck Rabbit Craft Brewery,micro,4519 West Pine St,Farmville,North Carolina,27828-8526,http://duckrabbitbrewery.com,2527537745,2018-07-24 01:33:56.020304,2018-08-24 15:41:35.445784,United States,-77.591863,35.5980644,
lake-gaston-brewing-company,Lake Gaston Brewing Company,brewpub,124 Hay St,Fayetteville,North Carolina,28301-5650,http://www.lakegastonbrew.com,9107790444,2018-07-24 01:33:56.912793,2018-08-24 15:42:03.638691,United States,-78.8788145510204,35.0528321020408,
mash-house-restaurant-and-brewery,Mash House Restaurant & Brewery,brewpub,4150 Sycamore Dairy Rd,Fayetteville,North Carolina,28303-3459,http://www.themashhouse.com,9108679223,2018-07-24 01:33:57.171315,2018-08-24 15:42:12.393594,United States,-78.956548307397,35.0746817120553,
brewery-in-planning-fayetteville,Brewery In Planning - Fayetteville,planning,,Fayetteville,North Carolina,28303-4660,,,2018-07-24 01:33:55.452344,2018-08-11 21:38:46.059823,United States,,,
bright-light-brewing-company,Bright Light Brewing Company,micro,444 W Russel St Ste 102,Fayetteville,North Carolina,28301,,9103390464,2018-07-24 01:33:55.56145,2018-08-11 21:38:46.406268,United States,,,
huske-hardware-house-brewing-co,Huske Hardware House Brewing Co,brewpub,405 Hay St,Fayetteville,North Carolina,28301-5537,http://www.huskehardware.com,9104265650,2018-07-24 01:33:56.734663,2018-08-24 15:41:58.78852,United States,-78.8824913061224,35.0539305102041,
blue-ridge-community-college,Blue Ridge Community College,planning,,Flat Rock,North Carolina,28731-4774,http://www.blueridge.edu,8286941674,2018-07-24 01:33:55.27043,2018-08-11 21:38:45.574556,United States,,,
blue-ghost-brewing-company,Blue Ghost Brewing Company,brewpub,125 Underwood Rd,Fletcher,North Carolina,28732-,http://www.blueghostbrewing.com,8283760159,2018-07-24 01:33:55.244729,2018-08-24 15:41:11.48972,United States,-82.530580304217,35.4368388,
currahee-brewing-company,Currahee Brewing Company,micro,100 Lakeside Dr,Franklin,North Carolina,28734-9706,http://www.curraheebrew.com,8286340078,2018-07-24 01:33:55.91042,2018-08-24 15:41:31.838379,United States,-83.3719478402946,35.1875471800016,
lazy-hiker-brewing-co,Lazy Hiker Brewing Co.,micro,188 W Main St,Franklin,North Carolina,28734-2949,http://www.lazyhikerbrewing.com,8283492337,2018-07-24 01:33:56.926494,2018-08-24 15:42:04.132895,United States,-83.3828255,35.1813336326531,
3rd-degree-brewhouse,3rd Degree Brewhouse,micro,1625 N Main St,Fuquay Varina,North Carolina,27526,http://www.facebook.com/3rddegreebrewhouse/,9192015457,2018-07-24 01:33:54.816645,2018-08-24 15:40:57.84585,United States,-78.794223,35.5914556,
aviator-brewing-company,Aviator Brewing Company,regional,209 Technology Park Ln,Fuquay Varina,North Carolina,27526-9311,http://www.aviatorbrew.com,9195672337,2018-07-24 01:33:54.935632,2018-08-24 15:41:01.328183,United States,-78.807389599939,35.6169598306954,
fainting-goat-brewing-company,Fainting Goat Brewing Company,micro,330 S Main St,Fuquay Varina,North Carolina,27526-2225,http://www.faintinggoatbeer.com,9193950642,2018-07-24 01:33:56.1138,2018-08-24 15:41:39.243776,United States,-78.8000193260112,35.5812855,
oaklyn-springs-brewery,Oaklyn Springs Brewery,planning,,Fuquay Varina,North Carolina,27526-5499,http://www.oaklynspringsbrewery.com,9192800046,2018-07-24 01:33:57.583148,2018-08-11 21:38:51.131007,United States,,,
mason-jar-lager-co,Mason Jar Lager Co.,micro,341 Broad St # 151,Fuquay Varina,North Carolina,27526-1703,http://www.masonjarlagerco.com,9195575303,2018-07-24 01:33:57.185643,2018-08-24 15:42:12.910579,United States,-78.8026696,35.6015909,
cavendish-brewing-company,Cavendish Brewing Company,micro,207 N Chester St,Gastonia,North Carolina,28052-2234,http://www.cavendishbrewing.com,7048300435,2018-07-24 01:33:55.785571,2018-08-24 15:41:27.654966,United States,-81.1874122346736,35.2657750702449,
morgan-ridge-vineyards-and-brewhouse,Morgan Ridge Vineyards & Brewhouse,brewpub,486 John Morgan Rd,Gold Hill,North Carolina,28071-9758,http://www.morganridgevineyard.com,7046390911,2018-07-24 01:33:57.280302,2018-08-11 21:38:50.414704,United States,,,
forgotten-road-ales,Forgotten Road Ales,planning,,Graham,North Carolina,27253,,4342031993,2018-07-24 01:33:56.23359,2018-08-11 21:38:47.945842,United States,,,
weeping-radish-farm-brewery,Weeping Radish Farm Brewery,micro,6810 Caratoke Hwy,Grandy,North Carolina,27939-9635,http://www.weepingradish.com,2524915205,2018-07-24 01:33:58.770848,2018-08-24 15:43:02.637472,United States,-75.891944,36.253775,
granite-falls-brewing-co,Granite Falls Brewing Co.,brewpub,47 Duke St,Granite Falls,North Carolina,28630-1807,http://www.GraniteFallsBrewing.com,8282121399,2018-07-24 01:33:56.457364,2018-08-24 15:41:49.586356,United States,-81.4285158,35.7894173,
bark-brewing-company,Bark Brewing Company,brewpub,3021 Spring Garden St,Greensboro,North Carolina,27403-1968,http://barkbrewingcompany.com,3368561406,2018-07-24 01:33:54.965272,2018-08-24 15:41:02.410861,United States,-79.8436043406271,36.0620103554184,
joymongers-brewing-co,Joymongers Brewing Co.,micro,576 N Eugene St,Greensboro,North Carolina,27401,http://www.joymongers.com,3367635255,2018-07-24 01:33:56.849679,2018-08-24 15:42:01.74712,United States,-79.7938094489796,36.0787189591837,
g-mansfield-inc,"G. Mansfield, Inc",planning,,Greensboro,North Carolina,27403-2744,,3363370757,2018-07-24 01:33:56.367045,2018-08-11 21:38:48.249522,United States,,,
gibbs-hundred-brewing-company,Gibb's Hundred Brewing Company,micro,504 State St,Greensboro,North Carolina,27405,http://www.gibbshundred.com,3367637087,2018-07-24 01:33:56.405101,2018-08-24 15:41:48.003393,United States,-79.783217,36.101006,
little-brother-brewing,Little Brother Brewing,micro,348 S Elm St,Greensboro,North Carolina,27401-2606,http://Www.littlebrotherbrew.com,7049990577,2018-07-24 01:33:56.991043,2018-08-24 15:42:06.206417,United States,-79.7907703,36.0686165,
natty-greenes-brewing-co,Natty Greene's Brewing Co,regional,1918 W Gate City Blvd,Greensboro,North Carolina,27403-2615,http://www.nattygreenes.com,3362741373,2018-07-24 01:33:57.345993,2018-08-24 15:42:16.957492,United States,-79.7923996,36.0646259,
pig-pounder-brewery,Pig Pounder Brewery,micro,1107 Grecade St,Greensboro,North Carolina,27408-8709,http://www.pigpounder.com,3365531290,2018-07-24 01:33:57.739035,2018-08-24 15:42:28.049164,United States,-79.804196,36.084466,
preyer-brewing-company,Preyer Brewing Company,micro,600 A-B Battleground Ave,Greensboro,North Carolina,27401-2015,http://www.preyerbrewing.com,3362569450,2018-07-24 01:33:57.827109,2018-08-11 21:38:51.703262,United States,,,
natty-greenes-pub-and-brewing-co,Natty Greene's Pub & Brewing Co,brewpub,345 S Elm St,Greensboro,North Carolina,27401-2603,http://www.nattygreenes.com,3368566111,2018-07-24 01:33:57.359505,2018-08-24 15:42:17.438649,United States,-79.7903852,36.0686458,
pitt-street-brewing-company,Pitt Street Brewing Company,micro,630 S Pitt St,Greenville,North Carolina,27834-3159,http://www.pittstreetbrewing.com,2522274151,2018-07-24 01:33:57.801579,2018-08-24 15:42:29.032567,United States,-77.3769482237884,35.6095882954837,
uptown-brewing-co,Uptown Brewing Co,micro,418 Evans St,Greenville,North Carolina,27858-1834,http://www.uptownbrewingcompany.com,2526712633,2018-07-24 01:33:58.67684,2018-08-11 21:38:53.591831,United States,,,
trollingwood-taproom-and-brewery,Trollingwood Taproom & Brewery,micro,707 Dickinson Ave,Greenville,North Carolina,27834-3147,http://www.trollingwoodbrewery.com,2522106295,2018-07-24 01:33:58.570251,2018-08-24 15:42:55.865506,United States,-77.37544525,35.60994375,
hayesville-brewing-co,Hayesville Brewing Co,brewpub,1568 Highway 64 W,Hayesville,North Carolina,28904-4651,http://www.facebook.com/leisa5678/,8288356010,2018-07-24 01:33:56.538105,2018-08-11 21:38:48.59876,United States,,,
southern-appalachian-brewery,Southern Appalachian Brewery,micro,822 Locust St Ste 100,Hendersonville,North Carolina,28792-3758,,8286841235,2018-07-24 01:33:58.135451,2018-08-11 21:38:52.390327,United States,,,
sanctuary-brewing-company,Sanctuary Brewing Company,micro,147 1st Ave E,Hendersonville,North Carolina,28792-5191,http://www.sanctuarybrewco.com,8285959956,2018-07-24 01:33:58.013046,2018-08-24 15:42:37.406902,United States,-82.458814122449,35.3145325918367,
triskelion-brewing-company,Triskelion Brewing Company,micro,340 7th Avenue East,Hendersonville,North Carolina,28792,http://www.triskelionbrewing.com,8283887051,2018-07-24 01:33:58.556152,2018-08-24 15:42:55.346688,United States,-82.4578969903109,35.3206001746298,
hickory-brewery-/-american-honor-ale-house-and-brewery,Hickory Brewery / American Honor Ale House and Brewery,micro,883 Highland Ave SE,Hickory,North Carolina,28602-1106,,8284149600,2018-07-24 01:33:56.564862,2018-08-24 15:41:52.900355,United States,-81.325497622729,35.7353351663058,
olde-hickory-brewery-and-amos-howards,Olde Hickory Brewery & Amos Howards,brewpub,2828 US Highway 70 SW,Hickory,North Carolina,28602-4645,http://www.amoshowards.com,8283238753,2018-07-24 01:33:57.622581,2018-08-11 21:38:51.211722,United States,,,
olde-hickory-brewery-production,Olde Hickory Brewery - Production,micro,2 3rd St SW,Hickory,North Carolina,28602-2941,,,2018-07-24 01:33:57.609545,2018-08-24 15:42:24.58235,United States,-81.342295024641,35.7313114,
jigsaw-brewing-llc,"Jigsaw Brewing, LLC",planning,,High Point,North Carolina,27260-5056,http://www.jigsawbrewing.com,,2018-07-24 01:33:56.810687,2018-08-11 21:38:49.35429,United States,,,
liberty-brewery-and-grill,Liberty Brewery & Grill,brewpub,914 Mall Loop Rd,High Point,North Carolina,27262-7654,http://www.hp.libertybreweryandgrill.com,3368824677,2018-07-24 01:33:56.977993,2018-08-11 21:38:49.74254,United States,,,
brown-truck-brewery,Brown Truck Brewery,micro,1234 N Main St,High Point,North Carolina,27262-3118,http://www.browntruckbrewery.com,3368861234,2018-07-24 01:33:55.611897,2018-08-24 15:41:21.185174,United States,-80.0158688027711,35.9709266,
satulah-mountain-brewing-co,Satulah Mountain Brewing Co,micro,454 Carolina Way,Highlands,North Carolina,28741,http://www.satulahmountainbrewing.com,8284829794,2018-07-24 01:33:58.040729,2018-08-24 15:42:38.400566,United States,-83.1955395142336,35.054006216911,
mystery-brewing-co,Mystery Brewing Co,brewpub,437 Dimmocks Mill Rd Ste 41,Hillsborough,North Carolina,27278-2379,http://www.mysterybrewing.com,9196978379,2018-07-24 01:33:57.317691,2018-08-24 15:42:15.921503,United States,-79.1135558,36.0695647,
bombshell-beer-company,Bombshell Beer Company,micro,120 Quantum Dr,Holly Springs,North Carolina,27540-8861,http://www.bombshellbeer.com,9198231933,2018-07-24 01:33:55.295301,2018-08-24 15:41:13,United States,-78.8358893183952,35.6584182505842,
carolina-brewing-co,Carolina Brewing Co,micro,140 Thomas Mill Rd,Holly Springs,North Carolina,27540-9372,http://www.carolinabrew.com,9195572337,2018-07-24 01:33:55.730236,2018-08-24 15:41:25.526586,United States,-78.85444105,35.6561051,
dirtbag-ales-brewery-and-taproom,Dirtbag Ales Brewery and Taproom,micro,3623 Legion Rd,Hope Mills,North Carolina,28348-8413,http://www.dirtbagales.com,9104262537,2018-07-24 01:33:55.965835,2018-08-24 15:41:33.473453,United States,-78.9220969691311,34.9939752576824,
brewery-in-planning-huntersville,Brewery In Planning - Huntersville,planning,,Huntersville,North Carolina,28078-2344,,,2018-07-24 01:33:55.476552,2018-08-11 21:38:46.233148,United States,,,
primal-brewery,Primal Brewery,micro,16432 Old Statesville Rd,Huntersville,North Carolina,28078-7245,http://www.primalbrewery.com,7049472920,2018-07-24 01:33:57.847465,2018-08-24 15:42:30.684984,United States,-80.8438406803482,35.4360323569646,
sweet-union-brewing,Sweet Union Brewing,micro,13717 E Independence Blvd,Indian Trail,North Carolina,28079-7600,http://www.sweetunionbrewing.com,7046285211,2018-07-24 01:33:58.258727,2018-08-11 21:38:52.678838,United States,,,
brewery-in-planning-jamestown,Brewery in Planning - Jamestown,planning,,Jamestown,North Carolina,27282,,,2018-07-24 01:33:55.488884,2018-08-11 21:38:46.263301,United States,,,
the-other-side-of-the-moon-jamestown,The Other Side of the Moon - Jamestown,brewpub,103 W Main St,Jamestown,North Carolina,27282,,3633072887,2018-07-24 01:33:58.394042,2018-08-24 15:42:50.49479,United States,-79.9376516451772,35.992845973017,
kernersville-brewing-company,Kernersville Brewing Company,micro,210 N Main St,Kernersville,North Carolina,27284-4004,,3368167283,2018-07-24 01:33:56.862453,2018-08-24 15:42:02.248758,United States,-80.0718157755102,36.1219160510204,
outer-banks-brewing-station,Outer Banks Brewing Station,brewpub,600 S Croatan Hwy,Kill Devil Hills,North Carolina,27948,http://www.obbrewing.com,2524492739,2018-07-24 01:33:57.689302,2018-08-24 15:42:27.102874,United States,-75.6592523146661,36.00947755,
mother-earth-brewing,Mother Earth Brewing,regional,311 N Herritage St,Kinston,North Carolina,28501-4823,http://www.motherearthbrewing.com,2522082437,2018-07-24 01:33:57.292826,2018-08-11 21:38:50.446268,United States,,,
hickory-nut-gorge-brewery,Hickory Nut Gorge Brewery,micro,615 Bottemless Pools Rd,Lake Lure,North Carolina,28746-5525,,,2018-07-24 01:33:56.579081,2018-08-11 21:38:48.706232,United States,,,
new-river-brewing,New River Brewing,micro,9211 NC Hwy 194 N Unit A,Lansing,North Carolina,28643,http://www.newriverbrewing.beer,9194528367,2018-07-24 01:33:57.466924,2018-08-11 21:38:50.83108,United States,,,
loes-brewing-company,Loe's Brewing Company,brewpub,1048 Harper Ave NW,Lenoir,North Carolina,28645-5085,http://www.loesbrewing.com,8287543652,2018-07-24 01:33:57.02537,2018-08-24 15:42:07.26506,United States,-81.5423534777728,35.91276115,
westbend-winery-and-brewery,Westbend Winery and Brewery,micro,5394 Williams Rd,Lewisville,North Carolina,27023-8278,http://www.westbendwineryandbrewery.com,3369459999,2018-07-24 01:33:58.783765,2018-08-24 15:43:03.122521,United States,-80.5045916479914,36.0886822750035,
goose-and-the-monkey-brew-house-llc,"Goose And The Monkey Brew House, LLC",planning,,Lexington,North Carolina,27292,http://www.gooseandthemonkeybrewhouse.com,3362405310,2018-07-24 01:33:56.444718,2018-08-11 21:38:48.410846,United States,,,
the-laboratory-mill-brewery,The Laboratory Mill Brewery,micro,848 Southfork Rd,Lincolnton,North Carolina,28092,,,2018-07-24 01:33:58.355273,2018-08-11 21:38:52.884883,United States,,,
untapped-territory-llc,"Untapped Territory, LLC",contract,326 E Main St Ste 1735,Lincolnton,North Carolina,28092-3335,,7042586466,2018-07-24 01:33:58.650277,2018-08-11 21:38:53.534639,United States,,,
brewery-in-planning-maggie-valley-nc,"Brewery in Planning - Maggie Valley, NC",planning,,Maggie Valley,North Carolina,28751-9500,http://meadowlarkmotel.com,8289261717,2018-07-24 01:33:55.501213,2018-08-11 21:38:46.292744,United States,,,
lost-colony-brewery-and-cafe,Lost Colony Brewery and Cafe,brewpub,208 Queen Elizabeth Ave,Manteo,North Carolina,27954-,http://www.lostcolonybrewery.com,2524736666,2018-07-24 01:33:57.06659,2018-08-24 15:42:08.698662,United States,-75.6695447386708,35.90949405,
mica-town-brewing,Mica Town Brewing,micro,25 Brown Dr,Marion,North Carolina,28752-4294,http://www.micatownbrewing.com,8285598300,2018-07-24 01:33:57.200484,2018-08-11 21:38:50.23785,United States,,,
mad-county-brewing,Mad County Brewing,brewpub,45 N Main St,Marshall,North Carolina,28753-0040,http://www.madisoncountybrewing.com,8286498600,2018-07-24 01:33:57.132673,2018-08-24 15:42:10.960077,United States,-82.6858548433499,35.7977289749748,
brewery-in-planning-matthews-nc,"Brewery in Planning - Matthews, NC",planning,,Matthews,North Carolina,28105-5316,http://www.matthewsbrew.com,7042886120,2018-07-24 01:33:55.513744,2018-08-11 21:38:46.319862,United States,,,
bright-penny-brewing-company,Bright Penny Brewing Company,contract,309 W Graham St,Mebane,North Carolina,27302-2311,http://www.brightpennybrewing.com,,2018-07-24 01:33:55.573686,2018-08-24 15:41:19.526793,United States,-79.2703015244269,36.0992687671133,
sierra-nevada-brewing-co,Sierra Nevada Brewing Co,regional,100 Sierra Nevada Way,Mills River,North Carolina,28732-8608,http://www.sierranevada.com,,2018-07-24 01:33:58.08234,2018-08-11 21:38:52.270074,United States,,,
barking-duck-brewing-company,Barking Duck Brewing Company,micro,4400 Morris Park Dr Ste R,Mint Hill,North Carolina,28227-9269,http://www.barkingduckbrew.com,9809386300,2018-07-24 01:33:54.978148,2018-08-11 21:38:44.828153,United States,,,
southern-range-brewing,Southern Range Brewing,brewpub,151 S Stewart St,Monroe,North Carolina,28112,http://www.southernrangebrewing.com,7042894049,2018-07-24 01:33:58.178155,2018-08-24 15:42:43.243742,United States,-80.5509134608754,34.9807363725295,
ghostface-brewing-company,Ghostface Brewing Company,brewpub,427 E Statesville Ave Ste 100,Mooresville,North Carolina,28115-2595,http://www.ghostfacebrewing.com,7047997433,2018-07-24 01:33:56.392883,2018-08-11 21:38:48.302535,United States,,,
jolly-roger-brew,Jolly Roger Brew,micro,236 Raceway Dr Ste 12,Mooresville,North Carolina,28117-6518,http://www.jollyrogerbrew.com,9194128132,2018-07-24 01:33:56.823767,2018-08-11 21:38:49.38595,United States,,,
king-canary-brewing-company,King Canary Brewing Company,micro,562 Williamson Rd,Mooresville,North Carolina,28117-9186,http://www.kingcanarybrewing.com,,2018-07-24 01:33:56.887527,2018-08-24 15:42:03.204878,United States,-80.8683812,35.5706022,
crystal-coast-brewing-company-llc,Crystal Coast Brewing Company LLC,micro,702 Arendell St,Morehead City,North Carolina,28557-4234,http://www.CrystalCoastBrewingCompany.com,7044513618,2018-07-24 01:33:55.897081,2018-08-24 15:41:31.325238,United States,-76.7113740769231,34.7210521923077,
tight-lines-pub,Tight Lines Pub,brewpub,709 Arendell St,Morehead City,North Carolina,28557-4214,http://www.tightlinesbrewing.com,2527730641,2018-07-24 01:33:58.474627,2018-08-24 15:42:53.450447,United States,-76.7116896153846,34.7210745384615,
catawba-brewing-co,Catawba Brewing Co,regional,212 S Green St,Morganton,North Carolina,28655-3525,http://www.CatawbaBrewing.com,8284306883,2018-07-24 01:33:55.742569,2018-08-24 15:41:26.207857,United States,-81.6854369458732,35.7447193415562,
fonta-flora-brewery,Fonta Flora Brewery,micro,317 N Green St,Morganton,North Carolina,28655-3324,http://www.fontaflora.com,8284750153,2018-07-24 01:33:56.17832,2018-08-24 15:41:41.291583,United States,-81.6909377667023,35.7476204,
thirsty-souls-community-brewing,Thirsty Souls Community Brewing,micro,238 Market St,Mount Airy,North Carolina,27030-3514,http://www.thirstysoulscommunitybrewing.com,,2018-07-24 01:33:58.447993,2018-08-24 15:42:52.456504,United States,-80.6087621,36.5008814,
skull-camp-brewing,Skull Camp Brewing,micro,765 Round Peak Church Rd,Mount Airy,North Carolina,27030-8421,http://www.skullcampbrewing.com,3363525595,2018-07-24 01:33:58.110053,2018-08-11 21:38:52.325543,United States,,,
white-elephant-beer-company,White Elephant Beer Company,micro,225 Market St,Mount Airy,North Carolina,27030-3513,http://www.whiteelephantbeer.com,3366488277,2018-07-24 01:33:58.811531,2018-08-24 15:43:04.078539,United States,-80.6090865,36.5006581,
valley-river-brewery-and-eatery,Valley River Brewery & Eatery,brewpub,71 Tennessee St,Murphy,North Carolina,28906-2938,http://www.valleyriverbrewery.com,8288372337,2018-07-24 01:33:58.689641,2018-08-24 15:42:59.685155,United States,-84.0352081706441,35.0889040369639,
fonta-flora-brewery-at-whipoorwill-farm,Fonta Flora Brewery At Whipoorwill Farm,micro,6751 NC HWY 126,Nebo,North Carolina,28761,,8284750153,2018-07-24 01:33:56.192399,2018-08-11 21:38:47.845813,United States,,,
beer-army,Beer Army,brewpub,,New Bern,North Carolina,28564-3051,,2522885814,2018-07-24 01:33:55.089811,2018-08-11 21:38:45.00571,United States,,,
brewery-99,Brewery 99,micro,417 Broad St Ste F,New Bern,North Carolina,28560-4900,http://www.brewery99.com,2522596393,2018-07-24 01:33:55.411181,2018-08-11 21:38:45.964216,United States,,,
shortway-brewing-company,Shortway Brewing Company,micro,230 Chatham Street,Newport,North Carolina,28570,http://www.shortwaybrewing.com,2527773065,2018-07-24 01:33:58.067509,2018-08-24 15:42:39.325791,United States,-76.859456691807,34.789988406904,
makai-brewing-company,Makai Brewing Company,micro,5850 Ocean Hwy W,Ocean Isle Beach,North Carolina,28469-3510,http://www.MakaiBrewingCompany.com,9105792739,2018-07-24 01:33:57.158218,2018-08-11 21:38:50.15582,United States,,,
1718-ocracoke-brewing,1718 Ocracoke Brewing,brewpub,1129 Irvin Garrish Hwy,Ocracoke,North Carolina,27960,http://www.ocracokebrewing.com,2529282337,2018-07-24 01:33:54.779974,2018-08-24 15:40:56.290278,United States,-75.9717606279572,35.1071536760532,
new-village-brewery-and-taproom,New Village Brewery and Taproom,micro,702 Broad St,Oriental,North Carolina,28571-9778,http://www.newvillagebrewery.com,2522496132,2018-07-24 01:33:57.493703,2018-08-24 15:42:21.071892,United States,-76.6947225721578,35.0292106726028,
tobacco-wood-brewing-company,Tobacco Wood Brewing Company,planning,,Oxford,North Carolina,27565,,9199391909,2018-07-24 01:33:58.502689,2018-08-11 21:38:53.205158,United States,,,
pinehurst-resort,Pinehurst Resort,planning,,Pinehurst,North Carolina,28374,,9102358703,2018-07-24 01:33:57.775711,2018-08-11 21:38:51.564079,United States,,,
pinehurst-brewery,Pinehurst Brewery,planning,,Pinehurst,North Carolina,28374,,,2018-07-24 01:33:57.763062,2018-08-11 21:38:51.533169,United States,,,
middle-james-brewing-company,Middle James Brewing Company,planning,,Pineville,North Carolina,28134,,,2018-07-24 01:33:57.214372,2018-08-11 21:38:50.263752,United States,,,
ecusta-brewing-co,Ecusta Brewing Co,micro,49 Pisgah Hwy Ste 3,"Pisgah Forest ",North Carolina,28768,http://www.ecustabrewing.com,8289662337,2018-07-24 01:33:56.047285,2018-08-11 21:38:47.539673,United States,,,
ecusta-brewing-co-drift-taproom,Ecusta Brewing Co - Drift Taproom,micro,49 Pisgah Hwy,Pisgah Forest,North Carolina,28768-8817,,8289662337,2018-07-24 01:33:56.061737,2018-08-11 21:38:47.569061,United States,,,
carolina-brewery-pittsboro,Carolina Brewery - Pittsboro,micro,120 Lowes Dr Ste 100,Pittsboro,North Carolina,27312-8872,http://www.carolinabrewery.com,9195452337,2018-07-24 01:33:55.717189,2018-08-24 15:41:24.94586,United States,-79.1652429,35.7438093,
nazzd-brew-works-and-pub,NAZZ'D Brew Works and Pub,planning,,Pittsboro,North Carolina,27312,http://www.nazzdbrew.com,9196042081,2018-07-24 01:33:57.373492,2018-08-11 21:38:50.640128,United States,,,
blind-squirrel-brewery,Blind Squirrel Brewery,micro,4716 South US Highway 19 E Suite B,Plumtree,North Carolina,28664-0173,http://www.blindsquirrelbrewery.com,8287652739,2018-07-24 01:33:55.206409,2018-08-11 21:38:45.402067,United States,,,
lynnwood-brewing-concern,Lynnwood Brewing Concern,brewpub,4821 Grove Barton Rd,Raleigh,North Carolina,27613-1900,http://www.lynnwoodbrewing.beer,9197850043,2018-07-24 01:33:57.119632,2018-08-24 15:42:10.378592,United States,-78.7162398859078,35.8706036775912,
1323-r-and-d,1323 R & D,micro,1323 Capital Blvd 1323 R and D,Raleigh,North Carolina,27603-1117,http://www.1323rnd.com,9199775654,2018-07-24 01:33:54.767792,2018-08-11 21:38:44.370195,United States,,,
big-boss-brewing-co,Big Boss Brewing Co,micro,1249 Wicker Dr Ste A,Raleigh,North Carolina,27604-1683,http://www.bigbossbrewing.com,9198340045,2018-07-24 01:33:55.128458,2018-08-11 21:38:45.190552,United States,,,
clouds-brewing,Clouds Brewing,micro,1233 Front St Ste E,Raleigh,North Carolina,27609-7534,http://www.cloudsbrewing.com,9197474863,2018-07-24 01:33:55.82941,2018-08-11 21:38:47.034699,United States,,,
collection-brewing-company,Collection Brewing Company,planning,,Raleigh,North Carolina,27614-8519,,,2018-07-24 01:33:55.842624,2018-08-11 21:38:47.086666,United States,,,
boylan-bridge-brewpub,Boylan Bridge Brewpub,brewpub,201 S BOYLAN AVE,Raleigh,North Carolina,27603-1803,http://www.boylanbridge.com,9198038927,2018-07-24 01:33:55.373345,2018-08-24 15:41:16.210311,United States,-78.649139,35.778465,
brewery-bhavana,Brewery Bhavana,micro,218 S Blount St,Raleigh,North Carolina,27601,http://brewerybhavana.com,4154701370,2018-07-24 01:33:55.423391,2018-08-24 15:41:17.844624,United States,-78.6366937955029,35.7778629763218,
compass-rose,Compass Rose,micro,"3201 Northside Dr, Ste. 101",Raleigh,North Carolina,27615-4126,http://www.compassrosebrewery.com,9198755683,2018-07-24 01:33:55.870498,2018-08-24 15:41:30.203963,United States,-78.582171,35.883411,
crank-arm-brewing-co,Crank Arm Brewing Co,micro,319 W Davie St,Raleigh,North Carolina,27601-1718,http://www.crankarmbrewing.com,,2018-07-24 01:33:55.883463,2018-08-24 15:41:30.791064,United States,-78.64405,35.7756043,
funguys-brewery,Funguys Brewery,micro,2408 Paula St,Raleigh,North Carolina,27608-1706,http://www.funguysbrewing.com,,2018-07-24 01:33:56.354601,2018-08-24 15:41:46.539125,United States,-78.6251336914828,35.8130982588262,
gizmo-brew-works,Gizmo Brew Works,micro,5907 Triangle Dr,Raleigh,North Carolina,27617-4742,http://www.gizmobrewworks.com,9197822099,2018-07-24 01:33:56.418194,2018-08-24 15:41:48.589885,United States,-78.7451357780827,35.8961171942153,
lonerider-brewing-co,Lonerider Brewing Co,regional,8816 Gulf Ct Ste 100,Raleigh,North Carolina,27617-4628,http://www.loneriderbeer.com,9194428004,2018-07-24 01:33:57.038453,2018-08-24 15:42:07.720257,United States,-78.762543949428,35.90357415,
lynnwood-brewing-concern,Lynnwood Brewing Concern,micro,1053 E Whitaker Mill Rd Ste 101,Raleigh,North Carolina,27604-5305,,5207779456,2018-07-24 01:33:57.10676,2018-08-24 15:42:09.875114,United States,-78.6243080737313,35.8078806132214,
nc-state-brewery,NC State Brewery,micro,400 Dan Allen Drive Campus Box 7624,Raleigh,North Carolina,27695-0001,http://www.fbns.ncsu.edu/Sheppard/,9195130802,2018-07-24 01:33:57.395359,2018-08-11 21:38:50.679624,United States,,,
oak-and-dagger-public-house,Oak and Dagger Public House,brewpub,18 Seaboard Ave Ste 150,Raleigh,North Carolina,27604-8010,http://www.oakanddagger.beer,9199459382,2018-07-24 01:33:57.570954,2018-08-11 21:38:51.090471,United States,,,
neuse-river-brewing-company,Neuse River Brewing Company,micro,518 Pershing Rd,Raleigh,North Carolina,27608-2624,http://www.neuseriverbrewing.com,9842328479,2018-07-24 01:33:57.409897,2018-08-24 15:42:18.4369,United States,-78.6334520510561,35.8045083014503,
nickelpoint-brewing-co,Nickelpoint Brewing Co,micro,506 Pershing Rd,Raleigh,North Carolina,27608-2624,http://www.nickelpointbrewing.com,9199165961,2018-07-24 01:33:57.521103,2018-08-24 15:42:22.026736,United States,-78.6336946752982,35.8045807951683,
raleigh-brewing-company,Raleigh Brewing Company,micro,3709 Neil St,Raleigh,North Carolina,27607-5415,http://www.raleighbrewingcompany.com,9194009086,2018-07-24 01:33:57.887664,2018-08-24 15:42:32.130268,United States,-78.6875149,35.7931167,
sub-noir-brewing-company,Sub Noir Brewing Company,micro,2039 Progress Ct,Raleigh,North Carolina,27608-2761,http://www.subnoir.net,9194802337,2018-07-24 01:33:58.232462,2018-08-24 15:42:45.206514,United States,-78.6231748,35.8091103,
tobacco-road-brewery,Tobacco Road Brewery,brewpub,505 W Jones St,Raleigh,North Carolina,27603-1428,http://www.tobaccoroadsportscafe.com,9193018793,2018-07-24 01:33:58.487923,2018-08-24 15:42:53.922186,United States,-78.6459896530612,35.7826975306122,
trophy-brewing-company,Trophy Brewing Company,micro,656 Maywood Ave,Raleigh,North Carolina,27603-2340,http://www.trophybrewing.com,9198034849,2018-07-24 01:33:58.583214,2018-08-24 15:42:56.316943,United States,-78.657447135714,35.7613626230434,
brices-brewing-company,Brice's Brewing Company,micro,1822 Garner Station Blvd,Raleigh,North Carolina,27603-3643,http://www.bricesbrewing.com,9842001803,2018-07-24 01:33:55.54931,2018-08-24 15:41:18.438205,United States,-78.6587157735483,35.7249310765714,
little-city-brewing-co,Little City Brewing Co.,micro,400 W North St Ste 120,Raleigh,North Carolina,27603-1570,http://Www.thelocalicon.com/little-city,9195027155,2018-07-24 01:33:57.012686,2018-08-11 21:38:49.815979,United States,,,
lucky-city-brewing-co,Lucky City Brewing Co.,planning,,Reidsville,North Carolina,27320-3810,http://www.luckycitybrewing.com,3364716758,2018-07-24 01:33:57.093513,2018-08-11 21:38:49.977388,United States,,,
bdd-brewing-company,BDD Brewing Company,micro,1147 Falls Rd Ste 107,Rocky Mount,North Carolina,27804,,9196327551,2018-07-24 01:33:55.03642,2018-08-24 15:41:03.978557,United States,-77.8020826666667,35.958026,
hopfly-brewing-company,HopFly Brewing Company,micro,1147 Falls Rd Suite 121,Rocky Mount,North Carolina,27804,,,2018-07-24 01:33:56.69412,2018-08-11 21:38:48.967442,United States,,,
koi-pond-brewing-co,Koi Pond Brewing Co,micro,1107 Falls Rd,Rocky Mount,North Carolina,27804-4407,http://www.koipondbrewing.com,2529035127,2018-07-24 01:33:56.900016,2018-08-11 21:38:49.563211,United States,,,
black-creek-brewery,Black Creek Brewery,micro,111 Depot St,Roxboro,North Carolina,27573-5503,,9195244319,2018-07-24 01:33:55.193814,2018-08-24 15:41:09.268164,United States,-78.9814636740729,36.3936208490969,
yellow-sun-brewing-company,Yellow Sun Brewing Company,micro,127 Trade St,Rutherfordton,North Carolina,28139-2849,http://www.yellowsunbrewing.com,8283750089,2018-07-24 01:33:58.984268,2018-08-24 15:43:09.703282,United States,-81.9581017,35.3666796,
morgan-ridge-railwalk-brewery-and-eatery,Morgan Ridge Railwalk Brewery & Eatery,brewpub,421 N Lee St,Salisbury,North Carolina,28144-4424,http://www.morganridgerailwalk.com,7047548379,2018-07-24 01:33:57.268035,2018-08-24 15:42:14.343553,United States,-80.4651030558603,35.6692005139709,
new-sarum-brewing,New Sarum Brewing,micro,109 N Lee St,Salisbury,North Carolina,28144,http://www.newsarumbrewing.com,7043105048,2018-07-24 01:33:57.479637,2018-08-24 15:42:20.567146,United States,-80.468531625012,35.6665272792247,
hugger-mugger-brewing-company,Hugger Mugger Brewing Company,micro,229 Wicker St,Sanford,North Carolina,27330,http://www.huggermuggerbrewing.com,,2018-07-24 01:33:56.717942,2018-08-24 15:41:58.28851,United States,-79.1789631428571,35.4789028571429,
sapphire-mountain-brewing-co,Sapphire Mountain Brewing Co,contract,50 Slicers Ave,Sapphire,North Carolina,28774-9405,http://www.sapphiremountainbrewingcompany.com,8287430220,2018-07-24 01:33:58.026633,2018-08-11 21:38:52.156308,United States,,,
haw-river-farmhouse-ales,Haw River Farmhouse Ales,micro,1713 Saxapahaw-Bethlehem Church Rd,Saxapahaw,North Carolina,27340-0390,http://www.hawriverales.com,3365259270,2018-07-24 01:33:56.525214,2018-08-24 15:41:51.212671,United States,-79.31872,35.946942,
groundlion-brewing,GroundLion Brewing,planning,,Seagrove,North Carolina,27341-0459,http://www.groundlionbrewing.com,9192705112,2018-07-24 01:33:56.484759,2018-08-11 21:38:48.491226,United States,,,
34-degree-north-experiment-station,34 Degree North Experiment Station,micro,4802 Main St,Shallotte,North Carolina,28470,,,2018-07-24 01:33:54.804143,2018-08-24 15:40:57.334307,United States,-78.3863651732097,33.9727036424402,
newgrass-brewing-company,Newgrass Brewing Company,micro,213 S Lafayette St,Shelby,North Carolina,28150-5349,http://www.newgrassbrewing.com,7049371280,2018-07-24 01:33:57.508598,2018-08-24 15:42:21.589531,United States,-81.5403575555556,35.2906197777778,
double-barley-brewing,Double Barley Brewing,brewpub,3174 US Highway 70 W,Smithfield,North Carolina,27577-7613,http://www.doublebarleybrewing.com,9199343433,2018-07-24 01:33:55.990108,2018-08-11 21:38:47.431692,United States,,,
hatchet-brewing-company,Hatchet Brewing Company,planning,,Southern Pines,North Carolina,28387-6164,http://www.hatchetbrewing.com,5715334898,2018-07-24 01:33:56.510627,2018-08-11 21:38:48.544348,United States,,,
southern-pines-brewing-company,Southern Pines Brewing Company,micro,565 Air Tool Dr Ste E,Southern Pines,North Carolina,28387-3469,http://www.southernpinesbrewing.com,9103659925,2018-07-24 01:33:58.162874,2018-08-11 21:38:52.458763,United States,,,
check-six-brewing-co,Check Six Brewing Co,micro,5130 Southport Supply Rd SE,Southport,North Carolina,28461-9261,http://www.checksixbeer.com,9104779280,2018-07-24 01:33:55.815377,2018-08-24 15:41:28.749662,United States,-78.0477587,33.952339,
dry-county-brewing,Dry County Brewing,brewpub,585 Oak Ave,Spruce Pine,North Carolina,28777-2727,http://www.drycountybrewing.com,8287654583,2018-07-24 01:33:56.004648,2018-08-24 15:41:34.943932,United States,-82.063578,35.9158912,
salty-turtle-beer-company,Salty Turtle Beer Company,micro,103 Triton Ln,Surf City,North Carolina,28445,http://www.saltyturtlebeer.com,9108032019,2018-07-24 01:33:57.982309,2018-08-11 21:38:52.066962,United States,,,
balsam-falls-brewing,Balsam Falls Brewing,micro,506 W Main St,Sylva,North Carolina,28779-5544,,8286311987,2018-07-24 01:33:54.949836,2018-08-24 15:41:01.787318,United States,-83.2218237,35.3737065,
innovation-brewing,Innovation Brewing,brewpub,414 W Main St,Sylva,North Carolina,28779-5548,http://www.innovationbrewing.com,8285869678,2018-07-24 01:33:56.773535,2018-08-24 15:41:59.754657,United States,-83.2220858919431,35.3736192260195,
tarboro-brewing-company,Tarboro Brewing Company,micro,526 N Main St,Tarboro,North Carolina,27886-4313,http://www.tarborobrewingcompany.com,2525636522,2018-07-24 01:33:58.298541,2018-08-24 15:42:47.642275,United States,-77.5355731668211,35.8985564050046,
3rd-rock-brewing-company,3rd Rock Brewing Company,micro,134 Industrial Park Dr,Trenton,North Carolina,28585-9593,http://www.3rockbrew.com,2526319213,2018-07-24 01:33:54.829277,2018-08-24 15:40:58.306771,United States,-77.3674928534173,35.0693987667722,
bottle-tree-beer-co,Bottle Tree Beer Co,contract,10 N Trade St Apt A,Tryon,North Carolina,28782-3476,http://www.bottletree.net,8642660133,2018-07-24 01:33:55.359644,2018-08-11 21:38:45.829431,United States,,,
the-levee-brewing-company-inc,"The Levee Brewing Company, Inc",planning,,Valdese,North Carolina,28690,http://www.theleveepub.com,8383901041,2018-07-24 01:33:58.368606,2018-08-11 21:38:52.91619,United States,,,
owls-roost-brewing,Owls Roost Brewing,planning,,Wake Forest,North Carolina,27587-2958,,9197491428,2018-07-24 01:33:57.701836,2018-08-11 21:38:51.385516,United States,,,
white-street-brewing-company,White Street Brewing Company,micro,218 S White St,Wake Forest,North Carolina,27587-2742,http://www.whitestreetbrewing.com,9196479439,2018-07-24 01:33:58.837665,2018-08-24 15:43:05.047303,United States,-78.5100617,35.9774896,
the-dreamchasers-brewery,The Dreamchaser's Brewery,micro,115 E North Main St,Waxhaw,North Carolina,28173-6029,http://www.dreamchasersbrewery.com,7048437326,2018-07-24 01:33:58.327929,2018-08-24 15:42:48.604401,United States,-80.7434991428571,34.9252405714286,
boojum-brewing-company,Boojum Brewing Company,micro,357 Dayton Dr,Waynesville,North Carolina,28786-6931,http://www.BoojumBrewing.com,8289440888,2018-07-24 01:33:55.321031,2018-08-24 15:41:13.982505,United States,-82.9938365724951,35.5257480367708,
frog-level-brewing-company,Frog Level Brewing Company,micro,56 Commerce St,Waynesville,North Carolina,28786-5738,http://www.froglevelbrewing.com,8284545664,2018-07-24 01:33:56.315782,2018-08-24 15:41:44.822119,United States,-82.9917807217592,35.4929673012807,
blue-mountain-pizza-and-brew-pub,Blue Mountain Pizza and Brew Pub,brewpub,55 N Main St,Weaverville,North Carolina,28787-6634,http://www.bluemountainpizza.com,8286588777,2018-07-24 01:33:55.257846,2018-08-24 15:41:12.024743,United States,-82.5593445733107,35.7084955262465,
eluvium-brewing-co,Eluvium Brewing Co.,micro,11 Florida Ave,Weaverville,North Carolina,28787,http://www.eluviumbrewing.com,8284841799,2018-07-24 01:33:56.10099,2018-08-24 15:41:38.720343,United States,-82.561573697509,35.6974141411376,
zebulon-artisan-ales,Zebulon Artisan Ales,micro,8 Merchents Alley,Weaverville,North Carolina,28787-8860,http://www.zebulonbrewing.com,,2018-07-24 01:33:59.010678,2018-08-11 21:38:54.485126,United States,,,
boondocks-brewing,Boondocks Brewing,brewpub,302 S Jefferson Ave,West Jefferson,North Carolina,28694-,http://www.boondocksbrew.com,3362465222,2018-07-24 01:33:55.334303,2018-08-24 15:41:14.498185,United States,-81.4913356734694,36.3994145918367,
red-oak-brewing-co,Red Oak Brewing Co,regional,6901 Konica Dr,Whitsett,North Carolina,27377-9787,http://www.redoakbrewery.com,3362993649,2018-07-24 01:33:57.91521,2018-08-11 21:38:51.910919,United States,,,
flytrap-brewing,Flytrap Brewing,micro,319 Walnut St,Wilmington,North Carolina,28401-4051,http://flytrapbrewing.com,9107692881,2018-07-24 01:33:56.164878,2018-08-24 15:41:40.833863,United States,-77.9454578768839,34.24034335,
brewery-in-planning-hendersonville,Brewery in Planning - Hendersonville,planning,,Wilmington,North Carolina,28403,,2526363543,2018-07-24 01:33:55.464169,2018-08-11 21:38:46.091984,United States,,,
bills-brewing-co,Bill's Brewing Co.,brewpub,4238 Market St.,Wilmington,North Carolina,28403,http://www.billsfrontporch.com,9107626333,2018-07-24 01:33:55.141687,2018-08-24 15:41:07.093448,United States,-77.892361,34.242224,
bills-front-porch-pub-and-brewery,Bill's Front Porch Pub and Brewery,brewpub,4238 Market St,Wilmington,North Carolina,28403-1409,http://www.billsfrontporch.com,9107626333,2018-07-24 01:33:55.155629,2018-08-24 15:41:07.537677,United States,-77.892361,34.242224,
broomtail-craft-brewery,Broomtail Craft Brewery,micro,6404 Amsterdam Way Ste 100,Wilmington,North Carolina,28405-2563,http://www.broomtailcraftbrewery.com,9102641369,2018-07-24 01:33:55.586139,2018-08-11 21:38:46.458955,United States,,,
flying-machine-brewing-company,Flying Machine Brewing Company,planning,,Wilmington,North Carolina,28403,http://www.facebook.com/flyingmachinebrewing,,2018-07-24 01:33:56.151616,2018-08-11 21:38:47.7645,United States,,,
edward-teach-brewing,Edward Teach Brewing,micro,604 N 4th St,Wilmington,North Carolina,28401,,9105235401,2018-07-24 01:33:56.075101,2018-08-24 15:41:37.58247,United States,-77.945422,34.242576,
front-street-brewery,Front Street Brewery,brewpub,9 N Front St,Wilmington,North Carolina,28401-4436,http://www.frontstreetbrewery.com,9102511935,2018-07-24 01:33:56.32879,2018-08-24 15:41:45.302332,United States,-77.9488688333333,34.2357825,
ironclad-brewery,Ironclad Brewery,micro,115 N 2nd St,Wilmington,North Carolina,28401-3936,http://www.ironcladbrewery.com,9107690290,2018-07-24 01:33:56.785889,2018-08-24 15:42:00.282261,United States,-77.9476721428571,34.2367162857143,
mad-mole-brewing-llc,Mad Mole Brewing LLC,micro,6309 Boathouse Rd Ste C,Wilmington,North Carolina,28403-3576,http://www.madmolebrewing.com,9108598115,2018-07-24 01:33:57.145437,2018-08-11 21:38:50.12258,United States,,,
new-anthem-beer-project,New Anthem Beer Project,micro,116 Dock St,Wilmington,North Carolina,28401-4433,http://www.newanthembeer.com,9103994683,2018-07-24 01:33:57.426218,2018-08-24 15:42:18.934463,United States,-77.9482695918367,34.2341397142857,
tek-mountain-brewing,Tek Mountain Brewing,micro,1844 Sir Tyler Dr,Wilmington,North Carolina,28405-8305,http://www.facebook.com/groups/TekMountainBrewing/,9104705334,2018-07-24 01:33:58.312611,2018-08-24 15:42:48.092962,United States,-77.8239016974168,34.242240420821,
watermans-brewing-co,Waterman's Brewing Co,brewpub,1610 Pavillion Pl,Wilmington,North Carolina,28403-3735,http://www.watermansbrewing.com,9108393103,2018-07-24 01:33:58.744483,2018-08-11 21:38:53.736223,United States,,,
waterline-brewing-co,Waterline Brewing Co.,micro,721 Surrey St,Wilmington,North Carolina,28401-5043,http://www.waterlinebrewing.com,9107778955,2018-07-24 01:33:58.729365,2018-08-24 15:43:01.138971,United States,-77.9488406652162,34.2260974602254,
wilmington-brewing-company,Wilmington Brewing Company,micro,824 S Kerr Ave,Wilmington,North Carolina,28403-8426,http://www.wilmingtonbeer.com,9103923315,2018-07-24 01:33:58.917606,2018-08-24 15:43:07.745597,United States,-77.8868023066094,34.2213165,
wrightsville-beach-brewery,Wrightsville Beach Brewery,brewpub,6201 Oleander Dr,Wilmington,North Carolina,28403-3535,http://www.wbbeer.com,9102564938,2018-07-24 01:33:58.97052,2018-08-24 15:43:09.259834,United States,-77.836851,34.210452,
217-brew-works,217 Brew Works,micro,217 South St S,Wilson,North Carolina,27893-4911,,2529916959,2018-07-24 01:33:54.791999,2018-08-24 15:40:56.790325,United States,-77.9120318,35.7227625,
brewery-in-planning-winston-salem,Brewery in Planning - Winston Salem,planning,,Winston Salem,North Carolina,27106-5015,,3366922022,2018-07-24 01:33:55.537345,2018-08-11 21:38:46.346496,United States,,,
cavern-brewing-at-lowes-foods,Cavern Brewing At Lowes Foods,brewpub,1381 Old Mill Cir Ste 200,Winston Salem,North Carolina,27103-1497,http://www.lowesfoods.com,3367753007,2018-07-24 01:33:55.800961,2018-08-11 21:38:46.961123,United States,,,
fiddlin-fish-brewing-company,Fiddlin' Fish Brewing Company,micro,772 N Trade St.,Winston Salem,North Carolina,27101,http://www.fiddlinfish.com,3364079671,2018-07-24 01:33:56.126628,2018-08-11 21:38:47.705762,United States,,,
foothills-brewing-co,Foothills Brewing Co,regional,3800 Kimwell Dr,Winston Salem,North Carolina,27103-6708,http://www.foothillsbrewing.com,3363544030,2018-07-24 01:33:56.204954,2018-08-24 15:41:41.732278,United States,-80.3268051463415,36.0481642621951,
foothills-brewing-co-brewpub,Foothills Brewing Co Brewpub,brewpub,638 W 4th St,Winston Salem,North Carolina,27101-2730,http://www.foothillsbrewing.com,3367773348,2018-07-24 01:33:56.219087,2018-08-24 15:41:42.237497,United States,-80.250852122449,36.0976512040816,
hoots-beer-co,HOOTS Beer Co.,micro,840 Mill Works St,Winston Salem,North Carolina,27101-1243,http://www.hootspublic.com,3366086026,2018-07-24 01:33:56.682074,2018-08-11 21:38:48.938322,United States,,,
small-batch-beer-co,Small Batch Beer Co,brewpub,241 W 5th St,Winston Salem,North Carolina,27101-2825,http://www.smallbatchws.com,3368936395,2018-07-24 01:33:58.122922,2018-08-24 15:42:41.271646,United States,-80.2465619387755,36.0998405714286,
wise-man-brewing,Wise Man Brewing,micro,826 Angelo Brothers Ave,Winston-Salem,North Carolina,27101,http://www.wisemanbrewing.com,3367250008,2018-07-24 01:33:58.93138,2018-08-11 21:38:54.276444,United States,,,
incendiary-brewing-company,Incendiary Brewing Company,planning,,Winston Salem,North Carolina,27101,http://www.incendiarybrewing.com,3369999999,2018-07-24 01:33:56.760792,2018-08-11 21:38:49.230113,United States,,,
zillicoah-beer-company,Zillicoah Beer Company,proprietor,870 Riverside Dr,Woodfin,North Carolina,28804-3222,,8284846502,2018-07-24 01:33:59.024647,2018-08-24 15:43:11.247669,United States,-82.5756108862719,35.6177654739794,
white-street-brewing-company-production-facility,White Street Brewing Company - Production Facility,micro,400 Park Ave,Youngsville,North Carolina,27596-8688,,9196479439,2018-07-24 01:33:58.852308,2018-08-24 15:43:05.510337,United States,-78.4861061647568,36.0396084799379,