obdb_id,name,brewery_type,street,address_2,address_3,city,state,county_province,postal_code,website_url,phone,country,longitude,latitude,tags
10-barrel-brewing-co-san-diego,10 Barrel Brewing Co,large,1501 E St,,,San Diego,California,,92101-6618,http://10barrel.com,6195782311,United States,-117.129593,32.714813,
101-north-brewing-company-petaluma,101 North Brewing Company,micro,1304 Scott St Ste D,,,Petaluma,California,,94954-7100,http://www.101northbeer.com,7077534934,United States,,,
14-cannons-brewing-company-westlake-village,14 Cannons Brewing Company,micro,31125 Via Colinas Ste 907,,,Westlake Village,California,,91362-3974,http://14cannons.com,8186996165,United States,-118.802397,34.15334,
1850-brewing-company-mariposa,1850 Brewing Company,micro,,,,Mariposa,California,,95338,http://www.1850restaurant.com,,United States,-119.9036592,37.570148,
2-tread-brewing-co-santa-rosa,2 Tread Brewing Co,brewpub,1018 Santa Rosa Plz,,,Santa Rosa,California,,95401-6399,http://www.2treadbrewing.com,4152330857,United States,-122.7167729,38.4387767,
21st-amendment-brewery-cafe-san-francisco,21st Amendment Brewery Cafe,brewpub,563 2nd St,,,San Francisco,California,,94107-1411,http://www.21st-amendment.com,4153690900,United States,-122.3925769,37.782448,
21st-amendment-brewery-san-leandro,21st Amendment Brewery,regional,2010 Williams St Unit A,,,San Leandro,California,,94577-2334,http://www.21st-Amendment.com,5105952111,United States,,,
2kids-brewing-company-san-diego,2Kids Brewing Company,micro,8680 Miralani Dr Ste 123,,,San Diego,California,,92126-6391,http://www.2kidsBrewing.com,8584805437,United States,-117.137429,32.896584,
3-disciples-brewing-sebastopol,3 Disciples Brewing,micro,,,,Sebastopol,California,,95472-5937,http://www.3disciplesbrewing.com/home,7072287309,United States,-122.8332502,38.3845125,
3-iron-brewing-company-colton,3 Iron Brewing Company,micro,898 Via Lata Ste A,,,Colton,California,,92324-3920,http://www.3ironbrewingco.com,9095334892,United States,,,
32-north-brewing-co-san-diego,32 North Brewing Co,micro,8655 Production Ave Ste A,,,San Diego,California,,92121-2258,,,United States,,,
411-broadway-ales-fresno,411 Broadway Ales,planning,,,,Fresno,California,,93721-2801,,5412706076,United States,-119.7088613,36.7295295,
47-hills-brewing-co-south-san-francisco,47 Hills Brewing Co,brewpub,137 S Linden Ave,,,South San Francisco,California,,94080-6410,http://47hillsbrewingcompany.com,6508678476,United States,-122.4136168,37.64425595,
5150-brewing-at-the-brass-tap-rocklin-rocklin,5150 Brewing At The Brass Tap Rocklin,micro,5150 Commons Dr Ste 101,,,Rocklin,California,,95677-3925,http://www.brasstaprocklin.com,9162462729,United States,-121.207331,38.8047402,
559-local-brewing-clovis,559 Local Brewing,micro,608 4th St,,,Clovis,California,,93612-1183,http://www.fresnobrewingcompany.com,5594731875,United States,-119.7017487,36.82517171,
6th-and-la-brea-los-angeles,6th and La Brea,brewpub,600 South La Brea Ave,,,Los Angeles,California,,90036,http://www.6thlabrea.com,,United States,-118.3440213,34.0730485,
7-sisters-brewing-co-san-luis-obispo,7 Sisters Brewing Co,brewpub,181 Tank Farm Rd Ste 110,,,San Luis Obispo,California,,93401-7082,http://www.7sistersbrewing.com,8058687133,United States,-120.6706375,35.2467278,
8-bit-brewing-company-murrieta,8 Bit Brewing Company,brewpub,26755 Jefferson Ave Ste F,,,Murrieta,California,,92562-6941,http://www.8bitbrewerycompany.com,9516772322,United States,,,
8one8-brewing-company-canoga-park,8one8 Brewing Company,micro,8951 de Soto Ave,,,Canoga Park,California,,91304-5901,http://www.818brewing.com,8188352286,United States,-118.5885323,34.2218019,
927-beer-company-cambria,927 Beer Company,micro,821 Cornwall St,,,Cambria,California,,93428-2434,http://www.cambriabeerco.com,8052035265,United States,-121.0985408,35.5666725,
abigaile-hermosa-beach,Abigaile,brewpub,1301 Manhattan Ave,,,Hermosa Beach,California,,90254-3666,http://abigailrestaurant.com,3107988227,United States,-118.4048656,33.8734519,
abnormal-beer-company-san-diego,Abnormal Beer Company,micro,16990 Via Tazon Ste 123,,,San Diego,California,,92127-1649,http://abnormalbeer.co,8586182463,United States,-117.08575,33.02391,
absolution-brewing-co-torrance,Absolution Brewing Co,micro,2878 Columbia St,,,Torrance,California,,90503-3808,http://www.absolutionbrewingcompany.com,3104904860,United States,-118.3378601,33.8431391,
absolution-by-the-sea-la-jolla,Absolution By the Sea,brewpub,7536 Fay Ave,,,La Jolla,California,,92037-4839,,6192024152,United States,-117.2740167,32.84083388,
acoustic-ales-brewing-experiment-san-diego,Acoustic Ales Brewing Experiment,micro,1795 Hancock St Ste P1,,,San Diego,California,,92110-2006,http://www.acousticales.com,6192992537,United States,,,
adobe-creek-brewing-company-novato,Adobe Creek Brewing Company,micro,67 Galli Dr Ste E,,,Novato,California,,94949-5718,http://www.adobecreekbrewing.com,4155064565,United States,,,
aftershock-brewing-co-temecula,Aftershock Brewing Co,micro,28822 Old Town Front St Ste 107,,,Temecula,California,,92590-2893,http://www.aftershockbrewingco.com,9519722256,United States,-117.1485306,33.49310382,
alameda-island-brewing-company-alameda,Alameda Island Brewing Company,micro,1716 Park St,,,Alameda,California,,94501-1416,http://www.alamedaislandbrewingcompany.com,5102178885,United States,-122.2394506,37.76833631,
alaro-craft-brewery-sacramento,Alaro Craft Brewery,brewpub,2004 Capitol Ave,,,Sacramento,California,,95811,http://www.alarobrewing.com,9164367711,United States,-121.4811835,38.57323961,
ale-house-brewing-co-san-jose,Ale House Brewing Co,micro,,,,San Jose,California,,95118-1605,,4083907574,United States,-121.8905833,37.3361905,
ale-industries-oakland,Ale Industries,micro,3096 E 10th St,,,Oakland,California,,94601-2960,http://www.aleindustries.com,9254705280,United States,-122.2281897,37.7761111,
alesmith-brewing-co-san-diego,AleSmith Brewing Co,regional,9990 Alesmith Ct,,,San Diego,California,,92126-4200,http://www.alesmith.com,8585499888,United States,,,
align-brewing-co-san-diego,Align Brewing Co,micro,8680 Miralani Dr,,,San Diego,California,,92126-6300,http://www.facebook.com/alignbrewing,,United States,-117.137429,32.896584,
all-american-ale-works-anaheim,All-American Ale Works,micro,5120 E La Palma Ave Ste 103,,,Anaheim,California,,92807-2082,http://www.all-americanaleworks.com,9517412771,United States,,,
almanac-beer-company-alameda,Almanac Beer Company,micro,651B W Tower Ave,,,Alameda,California,,94501-5047,http://almanacbeer.com,4159326531,United States,-122.3062832,37.78344977,
alosta-brewing-co-covina,Alosta Brewing Co,micro,692 Arrow Grand Cir,,,Covina,California,,91722-2122,http://www.alostabrewing.com,9094558707,United States,-117.8781466,34.10365026,
alpenglow-beer-co-lafayette,Alpenglow Beer Co,contract,,,,Lafayette,California,,94549-4621,http://www.buckwildbrew.com,,United States,-122.1180201,37.8857582,
alpha-acid-brewing-co-belmont,Alpha Acid Brewing Co,micro,121 Industrial Way Ste 12,,,Belmont,California,,94002-8208,,6503944728,United States,,,
alpine-beer-company-san-diego,Alpine Beer Company,brewpub,6550 Mira Mesa Blvd,,,San Diego,California,,92121-4100,http://www.alpinebrewing.com,6194452337,United States,-117.113975,32.9167796,
alta-brewing-company-san-diego,Alta Brewing Company,micro,1983 Julian Avenue,,,San Diego,California,,92113-1125,http://www.altabrewing.com,6197957300,United States,-117.1414712,32.7018758,
altamont-beer-works-livermore,Altamont Beer Works,micro,2402 Research Dr,,,Livermore,California,,94550-3850,http://www.altamontbeerworks.com,9254432337,United States,-121.7210974,37.67839114,
alvarado-street-brewery-and-grill-monterey,Alvarado Street Brewery & Grill,brewpub,426 Alvarado St,,,Monterey,California,,93940-2711,,8316552337,United States,-121.8946096,36.59857755,
alvarado-street-brewery-salinas,Alvarado Street Brewery,micro,1315 Dayton St Ste E,,,Salinas,California,,93901-4400,,,United States,,,
amador-brewing-company-plymouth,Amador Brewing Company,micro,9659 Main St,,,Plymouth,California,,95669-9570,http://www.amadorbrewing.com,2095071900,United States,-120.849271,38.4808723,
ambitious-ales-long-beach,Ambitious Ales,planning,,,,Long Beach,California,,90807-2907,http://www.ambitiousales.com,7142962550,United States,-118.1580493,33.78538945,
amplified-ale-works-miramar-studio-san-diego,Amplified Ale Works Miramar Studio,brewpub,9030 Kenamar Dr Ste 309,,,San Diego,California,,92121-2432,,6503804220,United States,,,
amplified-ale-works-san-diego,Amplified Ale Works,brewpub,4150 Mission Blvd Ste 208,,,San Diego,California,,92109-5054,http://www.amplifiedales.com,6195871400,United States,-117.2511178,32.7719729,
anacapa-brewing-co-ventura,Anacapa Brewing Co,brewpub,472 E Main St,,,Ventura,California,,93001-2627,http://www.anacapabrewing.com,8056432337,United States,-119.2935874,34.28073347,
anaheim-brewery-anaheim,Anaheim Brewery,micro,336 S Anaheim Blvd,,,Anaheim,California,,92805-3830,http://www.anaheimbrew.com,7147801888,United States,-117.9125249,33.8328226,
anchor-brewing-co-san-francisco,Anchor Brewing Co,large,1705 Mariposa St,,,San Francisco,California,,94107-2334,http://www.anchorbrewing.com,4158638350,United States,-122.4011065,37.7630772,
anderson-valley-brewing-co-boonville,Anderson Valley Brewing Co,regional,17700 CA-253,,,Boonville,California,,95415,http://www.avbc.com,7078952337,United States,,,
angel-city-brewery-los-angeles,Angel City Brewery,micro,216 S Alameda St,,,Los Angeles,California,,90012-4201,http://www.angelcitybrewery.com,2136221261,United States,-118.237715,34.04627065,
angry-horse-brewing-montebello,Angry Horse Brewing,micro,603 W Whittier Blvd,,,Montebello,California,,90640-5235,http://angryhorsebrewing.com,3235300015,United States,-118.1003743,34.0084152,
anheuser-busch-inc-a-fairfield-fairfield,Anheuser-Busch Inc â Fairfield,large,3101 Busch Dr,,,Fairfield,California,,94534-9726,,7074292000,United States,-122.0902992,38.2365838,
anheuser-busch-inc-los-angeles-van-nuys,Anheuser-Busch Inc - Los Angeles,large,15800 Roscoe Blvd,,,Van Nuys,California,,91406-1350,,8189895300,United States,-118.4721072,34.2213918,
arcana-brewing-company-carlsbad,Arcana Brewing Company,micro,5621 Palmer Way Ste C,,,Carlsbad,California,,92010-7254,http://www.arcanabrewing.com,,United States,,,
archaic-craft-brewery-at-centro-tustin,Archaic Craft Brewery At Centro,brewpub,140 E Main St,,,Tustin,California,,92780-4408,,7142588817,United States,-117.823173,33.7419754,
armistice-brewing-company-richmond,Armistice Brewing Company,micro,845 Marina Bay Pkwy Suite 1,,,Richmond,California,,94804-6420,http://www.armisticebrewing.com,5102304966,United States,,,
armstrong-brewing-co-south-san-francisco,Armstrong Brewing Co,micro,415 Grand Ave Ste 103,,,South San Francisco,California,,94080-3614,http://www.armstrongbrewing.com,6509898447,United States,,,
arrow-lodge-brewing-covina,Arrow Lodge Brewing,micro,720 E Arrow Hwy Ste C,,,Covina,California,,91722-2103,,6264832667,United States,,,
artifex-brewing-company-san-clemente,Artifex Brewing Company,micro,919 Calle Amanecer Ste A,,,San Clemente,California,,92673-6298,http://www.artifexbrewing.com,9494297805,United States,,,
arts-district-brewing-company-los-angeles,Arts District Brewing Company,brewpub,828 Traction Ave,,,Los Angeles,California,,90013-1816,,,United States,-118.2357029,34.04505443,
asylum-brewing-anaheim,Asylum Brewing,micro,2970 E. La Palma Ave. Suite D,,,Anaheim,California,,92806,http://Www.asylumbrewing.beer,9494495191,United States,,,
at-ease-brewing-sacramento,At Ease Brewing,planning,,,,Sacramento,California,,95811-3003,http://www.ateasebrewing.com,9167362267,United States,-121.4943996,38.5815719,
auburn-alehouse-auburn,Auburn Alehouse,brewpub,289 Washington St,,,Auburn,California,,95603-5036,http://www.auburnalehouse.com,5308852537,United States,-121.0789583,38.89612107,
automatic-brewing-co-blind-lady-alehouse-san-diego,Automatic Brewing Co. / Blind Lady Alehouse,brewpub,3416 Adams Ave,,,San Diego,California,,92116-2428,http://www.blindlady.blogspot.com,6192007522,United States,-117.120151,32.763588,
aztec-brewing-company-vista,Aztec Brewing Company,micro,2330 La Mirada Dr Ste 300,,,Vista,California,,92081-7871,http://www.aztecbrewery.com,7605987720,United States,,,
babes-bar-b-que-and-brewhouse-rancho-mirage,Babe's Bar-B-Que and Brewhouse,brewpub,71800 Highway 111 Ste A176,,,Rancho Mirage,California,,92270-4495,,7603468738,United States,,,
back-street-brewery-and-tasting-room-anaheim,Back Street Brewery & Tasting Room,micro,1884 S Santa Cruz St,,,Anaheim,California,,92805-6726,http://www.backstreetbrew.com,6572364050,United States,-117.8960894,33.79983678,
bagby-beer-company-oceanside,Bagby Beer Company,brewpub,601 S Coast Hwy,,,Oceanside,California,,92054-4120,http://www.bagbybeer.com,7602709075,United States,-117.373847,33.189591,
ballast-point-brewing-co-home-brew-mart-san-diego,Ballast Point Brewing Co / Home Brew Mart,large,5401 Linda Vista Rd Ste 406,,,San Diego,California,,92110-2402,http://www.ballastpoint.com,6198517681,United States,,,
ballast-point-brewing-company-anaheim,Ballast Point Brewing Company,planning,,,,Anaheim,California,,92802-2294,,,United States,-117.911732,33.8347516,
ballast-point-brewing-company-little-italy-san-diego,Ballast Point Brewing Company - Little Italy,large,2215 India St,,,San Diego,California,,92101-1725,http://www.ballastpoint.com,6192557213,United States,-117.169738,32.727777,
ballast-point-brewing-company-long-beach,Ballast Point Brewing Company,large,110 N Marina Dr,,,Long Beach,California,,90803-4601,http://www.ballastpoint.com,8586952739,United States,-118.114751,33.7464176,
ballast-point-brewing-company-san-diego-1,Ballast Point Brewing Company,large,9045 Carroll Way,,,San Diego,California,,92121-2405,http://www.ballastpoint.com,8586952739,United States,-117.1587251,32.88798083,
ballast-point-brewing-company-san-diego-2,Ballast Point Brewing Company,large,7606 Trade St,,,San Diego,California,,92121-2405,,8586952739,United States,-117.157081,32.889641,
bang-the-drum-brewery-san-luis-obispo,Bang the Drum Brewery,micro,950 Orcutt Rd,,,San Luis Obispo,California,,93401-6740,http://www.bangthedrumbrewery.com,8587762973,United States,-120.6452338,35.2615498,
barebottle-brewing-company-san-francisco,Barebottle Brewing Company,micro,1525 Cortland Ave,,,San Francisco,California,,94110-5714,http://www.barebottlebeer.com,4159268617,United States,-122.4090405,37.74000915,
barley-forge-brewing-costa-mesa,Barley Forge Brewing,micro,2957 Randolph Ave Ste B,,,Costa Mesa,California,,92626-4375,http://www.barleyforge.com,7146412084,United States,,,
barn-brewery-san-diego,Barn Brewery,micro,2850 El Cajon Blvd Ste 3,,,San Diego,California,,92104-1389,http://www.thebarnbrew.com,6199558228,United States,,,
barrel-brothers-brewing-company-llc-windsor,"Barrel Brothers Brewing Company, LLC",micro,399 Business Park Ct. #506,,,Windsor,California,,95492,http://barrelbrothersbrewing.com,7076969487,United States,,,
barrel-brothers-brewing-company-windsor,Barrel Brothers Brewing Company,micro,399 Business Park Ct Ste 506,,,Windsor,California,,95492-6652,http://www.barrelbrothersbrewing.com,7076969487,United States,,,
barrel-harbor-brewing-co-vista,Barrel Harbor Brewing Co.,micro,2575 Pioneer Ave Ste 104,,,Vista,California,,92081-8450,http://www.barrelharborbrewing.com,7607343949,United States,-117.221385,33.14879,
barrel-head-brewhouse-san-francisco,Barrel Head Brewhouse,brewpub,1785 Fulton St,,,San Francisco,California,,94117-1202,http://www.barrelheadsf.com,4154166989,United States,-122.4461033,37.77576514,
barrelhouse-brewing-paso-robles,Barrelhouse Brewing,micro,3055 Limestone Way,,,Paso Robles,California,,93446-5988,http://www.barrelhousebrewing.com,8052961128,United States,,,
bartlett-hall-san-francisco,Bartlett Hall,brewpub,242 Ofarrell St,,,San Francisco,California,,94102-2119,http://www.bartletthall.com,4154334332,United States,-122.4087293,37.78640638,
battlemage-brewing-co-vista,Battlemage Brewing Co,micro,2870 Scott St Ste 102,,,Vista,California,,92081-8556,http://www.battlemagebrewing.com,7602166425,United States,-117.227634,33.140153,
bay-bridge-brewing-co-chula-vista,Bay Bridge Brewing Co,micro,688 Marsat Ct Ste B,,,Chula Vista,California,,91911-4697,http://www.baybridgebrewing.com,6199347371,United States,,,
bay-city-brewing-co-san-diego,Bay City Brewing Co.,micro,3760 Hancock St,,,San Diego,California,,92110,http://www.baycitybrewingco.com,6197274926,United States,-117.2117833,32.7580759,
beach-chalet-brewing-co-san-francisco,Beach Chalet Brewing Co,brewpub,1000 Great Hwy,,,San Francisco,California,,94121-3268,http://www.beachchalet.com,4153868439,United States,-122.502981,37.7252994,
beach-grease-beer-company-vista,Beach Grease Beer Company,micro,1280 Activity Dr Ste B,,,Vista,California,,92081,http://www.beachgreasebeerco.com,,United States,,,
beachwood-bbq-and-brewing-long-beach,Beachwood BBQ & Brewing,brewpub,210 E 3rd St Ste A,,,Long Beach,California,,90802-3197,http://www.beachwoodbbq.com,5624364020,United States,,,
beachwood-blendery-long-beach,Beachwood Blendery,micro,247 Long Beach Blvd,,,Long Beach,California,,90802-3136,http://beachwoodbbq.com/blendery.html,,United States,-118.1894715,33.77015096,
beachwood-brewing-huntington-beach,Beachwood Brewing,micro,7631 Woodwind Dr Ste B,,,Huntington Beach,California,,92647-7117,http://www.beachwoodbbq.com,5103269575,United States,,,
bear-republic-brewing-co-healdsburg,Bear Republic Brewing Co,regional,345 Healdsburg Ave,,,Healdsburg,California,,95448-4105,http://www.bearrepublic.com,7074332337,United States,-122.8713046,38.6110317,
bear-republic-brewing-co-production-facility-cloverdale,Bear Republic Brewing Co - Production facility,regional,110 Sandholm Ln Ste 10,,,Cloverdale,California,,95425-4439,http://www.bearrepublic.com,7078942722,United States,,,
bear-republic-brewing-co-pub-and-restaurant-lakeside-rohnert-park,Bear Republic Brewing Co Pub & Restaurant - Lakeside,brewpub,5000 Roberts Lake Rd,,,Rohnert Park,California,,94928,http://bearrepublic.com,7075852722,United States,-122.7101405,38.3649703,
bear-roots-brewing-company-vista,Bear Roots Brewing Company,micro,1213 S Santa Fe Ave,,,Vista,California,,92083-7230,http://www.bearrootsbrewing.com,7607264204,United States,-117.226238,33.188251,
belching-beaver-brewery-oceanside,Belching Beaver Brewery,regional,1334 Rocky Point Dr,,,Oceanside,California,,92056-5864,,7607321415,United States,-117.292416,33.2139275,
belching-beaver-brewery-tavern-and-grill-vista,Belching Beaver Brewery Tavern & Grill,brewpub,302 E Broadway,,,Vista,California,,92084-6020,,7605995832,United States,-117.241029,33.2021182,
belching-beaver-brewery-vista-vista,Belching Beaver Brewery Vista,micro,980 Park Center Dr Ste A,,,Vista,California,,92081-8351,http://www.belchingbeaver.com,7605995832,United States,,,
belmont-brewing-co-long-beach,Belmont Brewing Co,brewpub,25 39th Pl,,,Long Beach,California,,90803-2806,http://www.belmontbrewing.com,5624333891,United States,-118.1480454,33.759551,
benchmark-brewing-co-san-diego,Benchmark Brewing Co,micro,6190 Fairmount Ave Ste G,,,San Diego,California,,92120-3428,http://www.benchmarkbrewing.com,6197952911,United States,,,
benoit-casper-brewing-richmond,Benoit-Casper Brewing,micro,1201 Pennsylvania Ave Ste E,,,Richmond,California,,94801-2300,http://www.bcbrewing.com,4086953449,United States,,,
berryessa-brewing-co-winters,Berryessa Brewing Co,micro,27260 State Highway 128,,,Winters,California,,95694-9066,http://www.berryessabrewingco.com,5303042202,United States,,,
berts-brewing-co-orange,Berts Brewing Co.,planning,,,,Orange,California,,92867-6942,,2069139711,United States,-117.8704931,33.7500378,
big-bear-lake-brewing-co-big-bear-lake,Big Bear Lake Brewing Co,brewpub,40827 Stone Rd,,,Big Bear Lake,California,,92315,http://www.bblbc.com,9098780283,United States,-116.9110287,34.2425583,
big-bear-mountain-brewery-big-bear-lake,Big Bear Mountain Brewery,brewpub,40260 Big Bear Blvd,,,Big Bear Lake,California,,92315,http://www.mountainbrewery.com,9098662337,United States,-116.923042,34.23876062,
big-sexy-brewing-company-sacramento,Big Sexy Brewing Company,micro,5861 88th St Ste 800,,,Sacramento,California,,95828-1131,http://www.bigsexybrewing.com,9163747332,United States,-121.3757237,38.52149864,
big-stump-brewing-company-sacramento,Big Stump Brewing Company,micro,1716 L St,,,Sacramento,California,,95811-4024,http://www.bigstumpbrewco.com/,9166687433,United States,-121.4263334,38.68887875,
bike-dog-brewing-co-west-sacramento,Bike Dog Brewing Co,micro,2534 Industrial Blvd Ste 110,,,West Sacramento,California,,95691-3471,,,United States,-121.5433734,38.5660851,
bird-street-brewing-lemoore,Bird Street Brewing,micro,242 Heinlen St,,,Lemoore,California,,93245-2947,http://www.birdstreetbrewing.com,5593094649,United States,-119.784711,36.30146756,
bison-brewing-co-san-jose,Bison Brewing Co,contract,1627 S 7th St,,,San Jose,California,,95112-5932,http://bisonbrew.com,5108125996,United States,-121.8665257,37.31531409,
bitter-brothers-brewing-co-san-diego,Bitter Brothers Brewing Co.,micro,4170 Morena Blvd Ste F,,,San Diego,California,,92117-5252,http://www.bitterbrothers.com,6199616690,United States,,,
bittersweet-brewing-company-llc-grover-beach,"Bittersweet Brewing Company, LLC",micro,191 S Oak Park Blvd Ste 3,,,Grover Beach,California,,93433-2265,http://www.bittersweetbrewing.com,,United States,,,
bjs-restaurant-and-brewery-brea-brea,BJs Restaurant & Brewery - Brea,brewpub,600 Brea Mall Dr,,,Brea,California,,92821-5764,http://www.bjsrestaurants.com,7149902095,United States,-117.8863245,33.9152037,
bjs-restaurant-and-brewery-west-covina-west-covina,BJs Restaurant & Brewery - West Covina,brewpub,2917 E Eastland Ctr Dr,,,West Covina,California,,91791-1603,http://www.bjsrestaurants.com,6268580054,United States,-117.8867988,34.07298952,
black-cock-brewing-company-orange,Black Cock Brewing Company,micro,1444 N Batavia St,,,Orange,California,,92867-3505,,7147448410,United States,-117.8620026,33.8274902,
black-doubt-brewing-company-mammoth-lakes,Black Doubt Brewing Company,micro,"452 Old Mammoth Rd, #104",,,Mammoth Lakes,California,,93546,http://www.blackdoubtbrewing.com,7605250462,United States,-118.9668019,37.6395882,
black-gold-brewing-co-taft,Black Gold Brewing Co,brewpub,508 Center St,,,Taft,California,,93268-3109,,6617656550,United States,-119.4591658,35.14109718,
black-hammer-brewing-san-francisco,Black Hammer Brewing,micro,544 Bryant St,,,San Francisco,California,,94107-1217,http://www.blackhammerbrewing.com,4155002273,United States,-122.3969947,37.780655,
black-magic-brewing-fountain-valley,Black Magic Brewing,planning,,,,Fountain Valley,California,,92708-6431,,,United States,-117.9627349,33.7038145,
black-market-brewing-co-temecula,Black Market Brewing Co,brewpub,41740 Enterprise Cir N Ste 109,,,Temecula,California,,92590-5652,,,United States,,,
black-plague-brewing-oceanside,Black Plague Brewing,micro,2550 Jason Ct,,,Oceanside,California,,92056-3592,http://www.blackplaguebrewing.com,7602072949,United States,-117.266825,33.215571,
black-sands-brewery-san-francisco,Black Sands Brewery,micro,701 Haight St,,,San Francisco,California,,94117-3316,,4155345194,United States,-122.433863,37.7715719,
blaker-brewing-ceres,Blaker Brewing,micro,1063 Montcalire Dr,,,Ceres,California,,95307,http://www.blakerbrewing.com,2095854040,United States,,,
blue-frog-brewing-company-fairfield,Blue Frog Brewing Company,micro,1740 Travis Blvd,,,Fairfield,California,,94533-3431,http://www.bluefrogbrewingcompany.com,7074292337,United States,-122.0600589,38.2585569,
blue-note-brewing-company-woodland,Blue Note Brewing Company,micro,750 Dead Cat Aly,,,Woodland,California,,95695-3435,http://www.bluenotebrewing.com,5303584677,United States,-121.7712396,38.67803633,
blue-oak-brewing-co-san-carlos,Blue Oak Brewing Co,micro,821 Cherry Ln,,,San Carlos,California,,94070-3306,http://blueoakbrewing.com,4152739676,United States,-122.2534864,37.51008173,
bluebird-brasserie-sherman-oaks,Bluebird Brasserie,brewpub,13730 Ventura Blvd,,,Sherman Oaks,California,,91423,http://www.bluebirdbrasserie.com,,United States,-118.4365891,34.1489109,
bns-brewing-and-distilling-co-santee,BNS Brewing & Distilling Co.,micro,10960 Wheatlands Ave Ste 101,,,Santee,California,,92071-5617,http://www.bnsbrewinganddistilling.com,6199560952,United States,,,
bolt-brewery-la-mesa,Bolt Brewery,brewpub,8179 Center St,,,La Mesa,California,,91942-2907,http://www.boltbrewery.com,6193037837,United States,-117.02043,32.771889,
bonaventure-brewing-co-los-angeles,Bonaventure Brewing Co,brewpub,404 S Figueroa St Ste 418A,,,Los Angeles,California,,90071-1797,http://www.bonaventurebrewing.com,2132360802,United States,,,
boomtown-brewery-los-angeles,Boomtown Brewery,micro,700 Jackson St,,,Los Angeles,California,,90012-3443,http://www.boomtownbrew.com,2136178497,United States,-118.233179,34.0507711,
bootleggers-brewery-fullerton-1,Bootleggers Brewery,micro,130 S Highland Ave,,,Fullerton,California,,92832-1803,,7148712337,United States,-117.928591,33.87004,
bootleggers-brewery-fullerton-2,Bootleggers Brewery,micro,1100 E Truslow Ave,,,Fullerton,California,,92831-4626,http://www.bootleggersbrewery.com,7148712337,United States,-117.9080095,33.86741253,
booze-brothers-brewing-co-vista,Booze Brothers Brewing Co.,brewpub,2545 Progress St,,,Vista,California,,92081-8483,http://www.boozebrothersbrewery.com,7602950217,United States,-117.218025,33.148212,
border-x-brewing-san-diego,Border X Brewing,micro,2181 Logan Ave,,,San Diego,California,,92113-2203,http://www.borderxbrewing.com,6195010503,United States,-117.1397541,32.6982174,
border-x-logan-san-diego,Border X Logan,brewpub,2181 Logan Ave,,,San Diego,California,,92113-2203,http://www.borderxbrewing.com,8584050528,United States,-117.1397541,32.6982174,
bottle-logic-brewing-anaheim,Bottle Logic Brewing,micro,1072 N Armando St,,,Anaheim,California,,92806-2605,http://www.bottlelogic.com,714660,United States,-117.8597226,33.8495705,
bravery-brewing-lancaster,Bravery Brewing,micro,42705 8th St W,,,Lancaster,California,,93534-7184,http://www.braverybrewing.com,6619514677,United States,-118.1456072,34.6582797,
breakwater-brewing-co-oceanside,Breakwater Brewing Co,brewpub,101 N Coast Hwy Ste C140,,,Oceanside,California,,92054-3015,http://www.breakwaterbrewing.com,7604336064,United States,,,
brew-rebellion-banning,Brew Rebellion,micro,33 S San Gorgonio Ave,,,Banning,California,,92220-6001,,9519074844,United States,-116.876825,33.92568489,
brew-rebellion-san-bernardino,Brew Rebellion,micro,195 N Del Rosa Dr,,,San Bernardino,California,,92408,http://www.brewrebellion.com,9519074844,United States,,,
brewbakers-brewing-co-visalia,Brewbakers Brewing Co,brewpub,219 E Main St,,,Visalia,California,,93291-6355,http://www.brewbakersbrewingco.com,5596272739,United States,-119.2906961,36.3300786,
brewcaipa-brewing-co-yucaipa,Brewcaipa Brewing Co.,micro,35058 Yucaipa Blvd,,,Yucaipa,California,,92399-4337,http://www.brewcaipa.com,9092722337,United States,-117.0403021,34.033958,
brewery-at-abigaile-hermosa-beach,Brewery At Abigaile,brewpub,1301 Manhattan Ave,,,Hermosa Beach,California,,90254-3666,http://www.abigailerestaurant.com,3107988227,United States,-118.4048656,33.8734519,
brewery-at-lake-tahoe-south-lake-tahoe,Brewery At Lake Tahoe,brewpub,3542 Lake Tahoe Blvd,,,South Lake Tahoe,California,,96150-8900,http://www.brewerylaketahoe.com,5305444369,United States,-119.9619157,38.94679433,
brewery-at-simmzys-burbank-burbank,Brewery At Simmzys Burbank,brewpub,3000 W Olive Ave,,,Burbank,California,,91505-4537,http://www.Simmzys.com,8189622500,United States,-118.3336262,34.1572656,
brewery-draconum-newhall,Brewery Draconum,micro,24407 Main St # 09,,,Newhall,California,,91321-2801,,6619931846,United States,-118.5298732,34.38122051,
brewery-twenty-five-hollister,Brewery Twenty Five,micro,106 3rd St,,,Hollister,California,,95023,http://www.brewerytwentyfive.com,8316367640,United States,-121.4008369,36.85359382,
brewheim-brewing-company-anaheim,Brewheim Brewing Company,planning,,,,Anaheim,California,,92806,http://www.brewheim.com,,United States,-117.911732,33.8347516,
brewjeria-company-hacienda-heights,Brewjeria Company,planning,,,,Hacienda Heights,California,,91745-1620,http://www.brewjeriacompany.com,,United States,-117.9686755,33.9930677,
brewlab-carpinteria,BrewLAB,micro,4191 Carpinteria Ave Ste 8,,,Carpinteria,California,,93013-3302,http://www.brewlabcraft.com/,,United States,,,
brewtality-san-jose,Brewtality,contract,930 McLaughlin Ave,,,San Jose,California,,95122-2611,http://www.brewtality.com,3104023349,United States,-121.8541694,37.3331712,
brewyard-beer-company-llc-glendale,Brewyard Beer Company LLC,micro,906 Western Ave,,,Glendale,California,,91201,http://www.brewyardbeercompany.com,8184099448,United States,-118.3018112,34.159644,
bridal-veil-brewing-mariposa,Bridal Veil Brewing,micro,5040 Ca-140 Ste C,,,Mariposa,California,,95338,http://www.facebook.com/Bridal-Veil-Brewing-114925729113371,2099667837,United States,,,
british-bulldog-brewery-chico,British Bulldog Brewery,micro,14540 Camaren Park Dr,,,Chico,California,,95973-8835,http://www.britishbulldogbrewery.com,5308928759,United States,-121.8468316,39.83081138,
brouwerij-west-san-pedro,Brouwerij West,micro,110 E 22nd St,,,San Pedro,California,,90731-7202,http://www.brouwerijwest.com,3108339330,United States,,,
bruehol-brewing-llc-benicia,Bruehol Brewing LLC,proprietor,4828 E 2nd St,,,Benicia,California,,94510-1023,http://www.bruehol.com,7073276768,United States,-122.1275637,38.08086313,
bruery-terreux-anaheim,Bruery Terreux,micro,1174 N Grove St,,,Anaheim,California,,92806-2129,http://www.thebruery.com,7149966258,United States,-117.8418759,33.85793692,
bruery-the-placentia,"Bruery, The",micro,717 Dunn Way,,,Placentia,California,,92870-6806,http://www.thebruery.com,7149966258,United States,-117.8791616,33.8623093,
buffalo-bills-brewery-hayward,Buffalo Bills Brewery,brewpub,1082 B St,,,Hayward,California,,94541-4108,http://www.buffalobillsbrewery.com,5108869823,United States,-122.0768666,37.6770284,
burgeon-beer-company-carlsbad,Burgeon Beer Company,micro,6350 Yarrow Dr Ste C,,,Carlsbad,California,,92011-1544,http://www.burgeonbeer.com,7608142548,United States,,,
burnin-daylight-brewing-company-lomita,Burnin Daylight Brewing Company,planning,,,,Lomita,California,,90717,,3107417621,United States,-118.3195014,33.8036545,
burning-beard-brewing-el-cajon,Burning Beard Brewing,micro,785 Vernon Way,,,El Cajon,California,,92020-1938,http://www.burningbeardbrewing.com,6194569185,United States,-116.9717836,32.81201287,
calicraft-brewing-co-walnut-creek,Calicraft Brewing Co,micro,2700 Mitchell Dr Bldg 2,,,Walnut Creek,California,,94598-1602,,,United States,,,
california-cider-co-sebastopol,California Cider Co.,planning,,,,Sebastopol,California,,95472,http://www.acecider.com,7078291101,United States,-122.8332502,38.3845125,
california-wild-ales-san-diego,California Wild Ales,contract,4204 Sorrento Valley Blvd,,,San Diego,California,,92121-1446,,,United States,-117.2146488,32.905002,
camino-brewing-co-llc-san-jose,Camino Brewing Co LLC,micro,718 S 1st St,,,San Jose,California,,95113,http://www.caminobrewing.com,,United States,-121.8823478,37.32530178,
campbell-brewing-co-campbell,Campbell Brewing Co,micro,200 E Campbell Ave,,,Campbell,California,,95008-2010,,4088662699,United States,-121.9332743,37.2870748,
can-of-worms-brewing-glendale,Can Of Worms Brewing,planning,,,,Glendale,California,,91214-1713,http://www.canofwormsbrewing.com,8187975520,United States,-118.2462486,34.192912,
canyon-club-brewery-moraga,Canyon Club Brewery,planning,,,,Moraga,California,,94556,http://www.canyonclub.works,8087992005,United States,-122.12883,37.834897,
canyon-lakes-golf-course-and-brewery-san-ramon,Canyon Lakes Golf Course & Brewery,brewpub,640 Bollinger Canyon Way,,,San Ramon,California,,94582-4971,http://www.canyonlakesgolfbrew.com,,United States,-121.94788,37.77114856,
captain-fattys-goleta,Captain Fatty's,micro,6483 Calle Real Ste D,,,Goleta,California,,93117-1541,http://www.captainfattys.com,,United States,,,
casa-agria-specialty-ales-oxnard,Casa Agria Specialty Ales,proprietor,701 del Norte Blvd Ste 310,,,Oxnard,California,,93030-7980,,8054851454,United States,,,
catalina-island-brew-house-avalon,Catalina Island Brew House,micro,417 Crescent Ave,,,Avalon,California,,90704,http://www.catalinaislandbrewhouse.com,3105906905,United States,-118.3256345,33.3434987,
cayucos-brewing-co-cayucos,Cayucos Brewing Co,contract,136 Ocean Front Ln,,,Cayucos,California,,93430-1649,http://www.cayucosbeer.com,8059951993,United States,-120.9021884,35.44711022,
cebula-craft-brewing-llc-dba-gamecraft-brewing-laguna-hills,Cebula Craft Brewing LLC dba GameCraft Brewing,planning,,,,Laguna Hills,California,,92653-1589,http://www.gamecraftbrewing.com,9497340910,United States,-117.6882067,33.5948758,
cedar-crest-brewing-and-wine-bar-red-bluff,Cedar Crest Brewing and Wine Bar,brewpub,615 Main St,,,Red Bluff,California,,96080-3343,http://www.facebook.com/enjoythestoreredbluff,5307279016,United States,-122.2344167,40.17675757,
cellarmaker-brewing-company-san-francisco,Cellarmaker Brewing Company,micro,1150 Howard St,,,San Francisco,California,,94103-3914,http://www.cellarmakerbrewing.com,4158633940,United States,-122.4106996,37.7771589,
central-coast-brewing-co-higuera-st-san-luis-obispo,Central Coast Brewing Co - Higuera St.,brewpub,6 Higuera St.,,,San Luis Obispo,California,,93401,,8057832739,United States,-120.6709908,35.2651725,
central-coast-brewing-co-monterey-st-san-luis-obispo,Central Coast Brewing Co - Monterey St.,micro,1422 Monterey St Ste B100,,,San Luis Obispo,California,,93401-2900,http://www.centralcoastbrewing.com,8057832739,United States,,,
cerveceria-del-pueblo-pasadena,Cerveceria Del Pueblo,planning,,,,Pasadena,California,,91105-1822,,,United States,-118.1444779,34.1476452,
channel-brewing-co-stockton,Channel Brewing Co.,micro,110 N San Joaquin St,,,Stockton,California,,95209-4506,http://www.channelbrewing.co,2094904133,United States,-121.2874106,37.95439196,
chapman-crafted-beer-orange,Chapman Crafted Beer,micro,123 N Cypress St,,,Orange,California,,92866-1309,http://www.chapmancrafted.beer,8448552337,United States,-117.856454,33.788493,
chau-tien-beer-company-fairfield,Chau Tien Beer Company,contract,,,,Fairfield,California,,94533-0244,http://www.paleale.com,7072808044,United States,-122.0399663,38.2493581,
chino-valley-brewery-ontario,Chino Valley Brewery,micro,"1609 E. Grove Ave, Unit 109",,,Ontario,California,,91761-5786,http://www.chinovalleybrewery.com,9512917117,United States,,,
chuckalek-independent-brewers-ramona,ChuckAlek Independent Brewers,brewpub,2330 Main St Ste C,,,Ramona,California,,92065-2539,http://www.chuckalek.com,,United States,,,
chula-vista-brewery-chula-vista,Chula Vista Brewery,micro,294 Third Ave,,,Chula Vista,California,,91910-2701,http://www.chulavistabrewery.com,6196168806,United States,-117.080369,32.641495,
circle-9-brewing-san-diego,Circle 9 Brewing,micro,7292 Opportunity Rd Ste C,,,San Diego,California,,92111-2223,http://www.circle9brewing.com,8586342537,United States,,,
cismontane-brewing-co-santa-ana,Cismontane Brewing Co,micro,1409 E Warner Ave Ste C,,,Santa Ana,California,,92705-5432,http://www.cismontanebrewing.com,9498882739,United States,,,
citizen-brewers-san-diego,Citizen Brewers,micro,5837 Mission Gorge Rd Ste A,,,San Diego,California,,92120-4060,http://www.citizenbrewers.com,7605877989,United States,,,
claimstake-brewing-company-rancho-cordova,Claimstake Brewing Company,micro,11366 Monier Park Pl,,,Rancho Cordova,California,,95742-6856,http://www.claimstakebrewing.com,9166615249,United States,-121.2607634,38.58185916,
clandestine-brewing-san-jose,Clandestine Brewing,micro,980 S 1st Ste B,,,San Jose,California,,95110-3127,http://www.clandestinebrewing.com,,United States,,,
claremont-craft-ales-claremont,Claremont Craft Ales,micro,1420 N Claremont Blvd Ste 204C,,,Claremont,California,,91711-3528,http://www.claremontcraftales.com,9096255350,United States,,,
clayton-brewing-co-san-dimas,Clayton Brewing Co,contract,661 W Arrow Hwy,,,San Dimas,California,,91773-2936,http://www.claytonbrewingco.com,9093944900,United States,-117.826752,34.1066017,
cleophus-quealy-beer-company-san-leandro,Cleophus Quealy Beer Company,micro,448 Hester St,,,San Leandro,California,,94577-1024,http://www.cleoph.us,,United States,-122.1914202,37.72210256,
climber-nine-brewing-cameron-park,Climber Nine Brewing,planning,,,,Cameron Park,California,,95682-8975,,,United States,-120.9851442,38.68200185,
cloverdale-ale-companys-ruth-mcgowans-brewpub-cloverdale,Cloverdale Ale Company's Ruth McGowan's Brewpub,brewpub,131 E 1st St,,,Cloverdale,California,,95425-3701,http://www.ruthmcgowansbrewpub.com,7078949610,United States,-123.0165729,38.80532322,
coachella-valley-brewing-co-thousand-palms,Coachella Valley Brewing Co,micro,30-640 Gunther St,,,Thousand Palms,California,,92276-2333,http://www.cvbco.com,7603435973,United States,-116.401697,33.826202,
coastal-star-brewing-company-santa-maria,Coastal Star Brewing Company,planning,,,,Santa Maria,California,,93455-1722,http://www.coastalstarbrewing.com,8053284677,United States,-120.4358577,34.9531295,
cold-water-brewery-and-grill-south-lake-tahoe,Cold Water Brewery and Grill,brewpub,2544 Lake Tahoe Blvd,,,South Lake Tahoe,California,,96150-7707,http://www.tahoecoldwaterbrewery.com,5305444677,United States,-119.986213,38.925231,
common-space-brewery-hawthorne,Common Space Brewery,micro,3411 W El Segundo Blvd,,,Hawthorne,California,,90250-4816,http://www.commonspace.la,3106662825,United States,-118.3328574,33.91653119,
congregation-ales-azusa,Congregation Ales,micro,619 N Azusa Ave Ste C,,,Azusa,California,,91702-2910,http://www.congregationalehouse.com,6263342337,United States,,,
constellation-brands-san-diego,Constellation Brands,large,9045 Caroll Way,,,San Diego,California,,92121,,,United States,,,
converge-brewing-company-paso-robles,Converge Brewing Company,planning,,,,Paso Robles,California,,93446-8360,,3076908538,United States,-120.6912456,35.6267654,
cool-beerwerks-cool,Cool Beerwerks,brewpub,5020 Ellinghouse Dr,,,Cool,California,,95614-9569,http://www.cbwbeer.com,5308855866,United States,,,
cooperage-brewing-co-santa-rosa,Cooperage Brewing Co.,micro,981 Airway Ct Ste G,,,Santa Rosa,California,,95403-2049,http://www.cooperagebrewing.com,7072939787,United States,,,
coronado-brewing-co-coronado,Coronado Brewing Co,regional,170 Orange Ave,,,Coronado,California,,92118-1409,http://www.coronadobrewingcompany.com,6194374452,United States,-117.1791416,32.6873641,
coronado-brewing-co-production-facility-san-diego,Coronado Brewing Co - Production Facility,regional,170 Orange Ave,,,San Diego,California,,92118-1409,,6192752215,United States,-117.094383,32.753124,
corralitos-brewing-co-watsonville,Corralitos Brewing Co,micro,2536 Freedom Blvd,,,Watsonville,California,,95076-1046,http://www.corralitosbrewingco.com,8317282311,United States,-121.7623105,36.9239241,
cosmic-brewery-torrance,Cosmic Brewery,micro,20316 Gramercy Pl,,,Torrance,California,,90501-1511,http://www.cosmicbrewery.com,4242592337,United States,-118.3131167,33.84500094,
council-brewing-company-san-diego,Council Brewing Company,micro,7705 Convoy Ct,,,San Diego,California,,92111-1105,http://www.councilbrew.com,8582560038,United States,-117.1544092,32.83466296,
council-brewing-company-santee,Council Brewing Company,micro,9962 Prospect Ave,,,Santee,California,,92071,,,United States,-116.97958,32.832115,
council-brewing-magic-factory-san-diego,Council Brewing - Magic Factory,micro,7705 Convoy Ct,,,San Diego,California,,92111-1113,,8582560038,United States,-117.1544092,32.83466296,
craft-artisan-ales-pacific-grove,Craft Artisan Ales,contract,,,,Pacific Grove,California,,93950-7093,,8317177543,United States,-121.9155906,36.6174432,
craft-brewing-company-lake-elsinore,Craft Brewing Company,micro,530 Crane St,,,Lake Elsinore,California,,92530-2779,http://www.craftbrewibgcompany.com,9516742562,United States,-117.3402489,33.68673832,
craftsman-brewing-co-pasadena,Craftsman Brewing Co,micro,1260 Lincoln Ave Ste 100,,,Pasadena,California,,91103-2465,http://www.craftsmanbrewing.com,6262962537,United States,-118.1595567,34.1674435,
crooked-goat-brewing-sebastopol,Crooked Goat Brewing,micro,120 Morris St Ste 120,,,Sebastopol,California,,95472-3867,http://www.crookedgoatbrewing.com,7078273893,United States,,,
crooked-lane-brewing-co-auburn,Crooked Lane Brewing Co,micro,536 Grass Valley Hwy,,,Auburn,California,,95603-3807,http://www.crookedlanebrewing.com,5306137434,United States,-121.0769384,38.90869888,
culture-brewing-co-solana-beach,Culture Brewing Co,micro,111 S Cedros Ave Ste 200,,,Solana Beach,California,,92075-2906,http://www.culturebrewingco.com,8583451144,United States,,,
culver-beer-company-carlsbad,Culver Beer Company,micro,2719 Loker Ave W Ste D,,,Carlsbad,California,,92010-6679,http://www.culverbeer.com,7608142355,United States,,,
danville-brewing-company-danville,Danville Brewing Company,brewpub,200 Railroad Ave Ste A,,,Danville,California,,94526-3855,,,United States,,,
dark-sea-cinema-and-brewery-oakland,Dark Sea Cinema And Brewery,planning,,,,Oakland,California,,94609-1804,http://microcinemabrewery.com,,United States,-122.2713563,37.8044557,
dead-oak-brewing-company-atascadero,Dead Oak Brewing Company,micro,5925 Entrada Ave,,,Atascadero,California,,93422-4223,http://www.facebook.com/deadoakbrewing,6023327027,United States,-120.6687359,35.4897884,
deans-brothers-brewing-co-santa-ana,Deans Brothers Brewing Co.,micro,1006 S Hathaway St,,,Santa Ana,California,,92705-4129,http://www.deansbros.com,7145422001,United States,-117.853182,33.7353305,
death-valley-brewing-tecopa,Death Valley Brewing,micro,102 Old Spanish Trail Hwy,,,Tecopa,California,,92389,http://www.deathvalleybrewing.com,7608524273,United States,-116.2063394,35.84889235,
deft-brewing-san-diego,Deft Brewing,micro,5328 Banks St,,,San Diego,California,,92110-4008,http://www.deftbrewing.com,8589995728,United States,-117.1993433,32.76435432,
del-cielo-brewing-co-martinez,Del Cielo Brewing Co.,micro,701 Escobar St Ste A,,,Martinez,California,,94553-1150,http://www.delcielobrewing.com,9253301229,United States,,,
delicious-science-brewing-riverside,Delicious Science Brewing,micro,11626 Sterling Ave Ste G,,,Riverside,California,,92503-4991,http://www.delicioussciencebreing.com,9513522739,United States,,,
dempseys-restaurant-and-brewery-petaluma,Dempsey's Restaurant And Brewery,brewpub,50 E Washington St,,,Petaluma,California,,94952-3115,http://www.dempseys.com,7077659694,United States,-122.6391907,38.2348199,
desert-barn-brewing-co-hesperia,Desert Barn Brewing Co.,brewpub,11352 Hesperia Rd Ste B,,,Hesperia,California,,92345-2165,,,United States,,,
device-brewing-company-sacramento,Device Brewing Company,micro,8166 14th Ave,,,Sacramento,California,,95826-4722,http://www.devicebrewing.com,9167372739,United States,-121.4059371,38.53949252,
devils-canyon-brewing-company-san-carlos,Devil's Canyon Brewing Company,micro,935 Washington St,,,San Carlos,California,,94070-5316,http://www.DevilsCanyon.com,6505922739,United States,-122.2445413,37.49896576,
devils-potion-brewing-company-llc-escondido,Devil's Potion Brewing Company LLC,planning,,,,Escondido,California,,92026-3187,http://www.devilspotion.com,7605329091,United States,-117.0814849,33.1216751,
dfamle-enterprises-lp-dba-four-sons-brewing-huntington-beach,Dfamle Enterprises LP (DBA Four Sons Brewing),micro,18421 Gothard St Ste 100,,,Huntington Beach,California,,92648-1235,,,United States,,,
diamond-mountain-brewery-susanville,Diamond Mountain Brewery,brewpub,900 Skyline Dr,,,Susanville,California,,96130-6071,http://www.diamondmountainbrewery.com,5302521369,United States,,,
dionysus-brewing-co-bakersfield,Dionysus Brewing Co.,micro,6201 Schirra Ct Ste 13,,,Bakersfield,California,,93313-2119,http://www.dionysusbrewing.com,6618336000,United States,,,
discretion-brewing-soquel,Discretion Brewing,micro,2703 41st Ave Ste A& # B,,,Soquel,California,,95073-3104,http://www.discretionbrewing.com,8313160662,United States,,,
diving-dog-brewhouse-oakland,Diving Dog Brewhouse,micro,1802 Telegraph Ave,,,Oakland,California,,94612-2110,http://www.divingdogbrew.com,5103061914,United States,-122.2698881,37.807739,
division-23-brewing-san-diego,Division 23 Brewing,micro,7408 Trade St,,,San Diego,California,,92121-3415,http://www.division23brewing.com,8587521924,United States,-117.162908,32.890353,
docent-brewing-san-juan-capistrano,Docent Brewing,brewpub,33049 Calle Aviador Ste C,,,San Juan Capistrano,California,,92675-4785,http://www.docentbrewing.com,,United States,,,
dos-desperados-brewery-san-marcos,Dos Desperados Brewery,micro,1241 Linda Vista Dr,,,San Marcos,California,,92078-3809,http://www.dosdesperadosbrew.com,7605666209,United States,-117.1928216,33.13740391,
downtown-joes-brewery-and-restaurant-napa,Downtown Joes Brewery and Restaurant,brewpub,902 Main St,,,Napa,California,,94559-3045,http://www.downtownjoes.com,7072582337,United States,-122.2848936,38.29865653,
dr-hops-kombucha-beer-san-leandro,Dr Hops Kombucha Beer,planning,,,,San Leandro,California,,94577-1263,http://www.DrhopsKombuchaBeer.com,3109168090,United States,-122.1560768,37.7249296,
dr-jekylls-craft-beer-pasadena,Dr Jekyll's Craft Beer,contract,825 Cambridge Ct,,,Pasadena,California,,91107-1977,http://www.drjekylls.com,3102738339,United States,-118.0798642,34.16059077,
dragons-tale-brewery-montclair,Dragon's Tale Brewery,micro,8920 Vernon Ave Ste 122,,,Montclair,California,,91763-1662,http://www.dragonstalebrewery.com,9095292688,United States,-117.686437,34.09189898,
drakes-brewing-co-san-leandro,Drake's Brewing Co,regional,1933 Davis St Ste 177,,,San Leandro,California,,94577-1256,http://www.drinkdrakes.com,5105682739,United States,,,
draughtsman-brewery-la-mirada,Draughtsman Brewery,planning,,,,La Mirada,California,,90638-3454,,,United States,-118.0107092,33.9060971,
draughtsmen-aleworks-goleta,Draughtsmen Aleworks,micro,53 Santa Felicia Dr,,,Goleta,California,,93117-2804,http://www.draughtsmenaleworks.com,8053872577,United States,-119.8759909,34.43146172,
dreaming-dog-brewery-elk-grove,Dreaming Dog Brewery,micro,2501 W Taron Ct,,,Elk Grove,California,,95757-8423,,,United States,,,
dry-river-brewing-los-angeles,Dry River Brewing,micro,671 S Anderson St,,,Los Angeles,California,,90023-1110,http://www.dryriverbrewing.com,2133755235,United States,-118.2233015,34.03638739,
duck-foot-brewing-co-san-diego,Duck Foot Brewing Co.,micro,8920 Kenamar Dr Ste 210,,,San Diego,California,,92121-2454,http://www.duckfootbeer.com,8584337916,United States,-117.1562181,32.88474835,
dudes-brewing-co-torrance,Dudes' Brewing Co,micro,1840 W 208th St,,,Torrance,California,,90501-1807,http://www.thedudesbrew.com,4242712915,United States,-118.3115036,33.8417185,
dueling-dogs-brewing-company-lincoln,Dueling Dogs Brewing Company,planning,,,,Lincoln,California,,95648-8503,http://www.duelingdogsbrewing.com,9164348141,United States,-121.29318,38.8915741,
dunbar-brewing-santa-margarita,Dunbar Brewing,micro,2200 El Camino Real,,,Santa Margarita,California,,93453-8668,,8057049050,United States,-120.6112948,35.389717,
dunloe-brewing-llc-davis,Dunloe Brewing LLC,micro,1606 Olive Dr,,,Davis,California,,95616-4741,http://Dunloebrewing.com,5302313502,United States,-121.7311242,38.5447433,
dunsmuir-brewery-works-dunsmuir,Dunsmuir Brewery Works,brewpub,5701 Dunsmuir Ave,,,Dunsmuir,California,,96025-2008,http://www.dunsmuirbreweryworks.com,5302351900,United States,-122.271862,41.211366,
dust-bowl-brewing-co-turlock,Dust Bowl Brewing Co,micro,3000 Fulkerth Rd,,,Turlock,California,,95380-9403,http://www.dustbowlbrewing.com,2096341934,United States,-120.8826535,37.50655825,
dutchs-brewhouse-long-beach,Dutch's BrewHouse,brewpub,4244 Atlantic Ave,,,Long Beach,California,,90807-2802,http://dutchsbrewhouse.com,5623361326,United States,-118.1859647,33.8781951,
eagle-rock-brewery-los-angeles,Eagle Rock Brewery,micro,3056 Roswell St,,,Los Angeles,California,,90065-2214,http://www.eaglerockbrewery.com,3232577866,United States,-118.2440377,34.11473143,
earth-and-fire-brewing-company-paso-robles,Earth And Fire Brewing Company,micro,825 Riverside Ave Ste 1,,,Paso Robles,California,,93446-2660,http://Www.earthandfirebrewing.com,8052702959,United States,,,
east-brother-beer-company-richmond,East Brother Beer Company,micro,1001 Canal Blvd # C-2,,,Richmond,California,,94804-3533,http://www.eastbrotherbeer.com,5102304081,United States,,,
east-cliff-brewing-company-santa-cruz,East Cliff Brewing Company,micro,21517 E Cliff Dr,,,Santa Cruz,California,,95062-4844,http://www.eastcliffbrewing.com/,8317135540,United States,-122.0136488,36.9684053,
ebullition-brew-works-vista,Ebullition Brew Works,micro,2449 Cades Way Ste D,,,Vista,California,,92081,http://Www.ebullitionbrew.com,7608421046,United States,,,
eckert-malting-and-brewing-co-chico,Eckert Malting and Brewing Co,micro,2280 Ivy St Ste 130,,,Chico,California,,95928-8000,http://www.eckertmaltingandbrewing.com,5303422320,United States,-121.8241602,39.71428839,
eel-river-brewing-co-facility-and-warehouse-scotia,Eel River Brewing Co - Facility and Warehouse,micro,600 K Bridge St,,,Scotia,California,,95565,,7077641772,United States,,,
eel-river-brewing-co-fortuna,Eel River Brewing Co,micro,1777 Alamar Way,,,Fortuna,California,,95540-9548,http://www.eelriverbrewing.com,7077252739,United States,-124.1524471,40.57874196,
eight-bridges-brewing-livermore,Eight Bridges Brewing,micro,332 Earhart Way,,,Livermore,California,,94551-9309,http://www.eightbridgesbrewing.com,9259619160,United States,-121.8145893,37.69895004,
einstok-beer-company-los-angeles,Einstok Beer Company,contract,12910 Culver Blvd Ste D,,,Los Angeles,California,,90066-6788,http://einstokbeer.com,4242181168,United States,,,
ej-phair-brewing-co-concord,E.J. Phair Brewing Co,micro,2151 Salvio St Ste L,,,Concord,California,,94520-2470,http://www.ejphair.com,9256804253,United States,,,
ej-phair-brewing-co-pittsburg,E.J. Phair Brewing Co.,micro,300 Cumberland St,,,Pittsburg,California,,94565-2234,http://www.ejphair.com,9252529895,United States,-121.8824742,38.0330804,
el-dorado-brewing-co-diamond-springs,El Dorado Brewing Co,micro,6051 Enterprise Dr,,,Diamond Springs,California,,95619-9447,http://www.eldobrew.com,5305584188,United States,-120.8345161,38.6942363,
el-segundo-brewing-co-el-segundo,El Segundo Brewing Co,micro,140 Main St,,,El Segundo,California,,90245-3801,http://www.elsegundobrewing.com,3105293882,United States,-118.4156967,33.91771,
el-toro-brewing-company-brewpub-morgan-hill,El Toro Brewing Company Brewpub,brewpub,17605 Monterey Rd,,,Morgan Hill,California,,95037-3620,,,United States,-121.7082244,37.1864644,
electric-brewing-co-murrieta,Electric Brewing Co,micro,41537 Cherry St,,,Murrieta,California,,92562-9193,http://www.electricbrewingcompany.com,9516962266,United States,-117.172438,33.5268827,
elevation-66-brewing-co-el-cerrito,Elevation 66 Brewing Co,brewpub,10082 San Pablo Ave,,,El Cerrito,California,,94530-3927,http://www.elevation66.com,5308489176,United States,-122.3030241,37.9020418,
elkhorn-slough-brewing-company-watsonville,Elkhorn Slough Brewing Company,micro,65 Hangar Way Unit D,,,Watsonville,California,,95076-2476,http://www.elkhornsloughbrew.com,8312883152,United States,,,
enegren-brewing-co-moorpark,Enegren Brewing Co,micro,444 Zachary St Unit 120,,,Moorpark,California,,93021-2073,http://www.enegrenbrewing.com,8055520602,United States,,,
english-ales-brewery-marina,English Ales Brewery,micro,223 Reindollar Ave Ste A,,,Marina,California,,93933-3851,http://www.englishalesbrewery.com,8318833000,United States,,,
epidemic-ales-concord,Epidemic Ales,micro,150 Mason Circle Stes I&J,,,Concord,California,,94520,http://www.epidemicales.com,9255668850,United States,,,
eppig-brewing-san-diego,Eppig Brewing,micro,3052 El Cajon Blvd Ste 103,,,San Diego,California,,92104-1399,http://www.eppigbrewing.com,6195011840,United States,-117.128732,32.755723,
escape-craft-brewery-redlands,Escape Craft Brewery,micro,721 Nevada St Ste 401,,,Redlands,California,,92373-8053,http://www.escapecraftbrewery.com,9097133727,United States,-117.2175772,34.0603401,
escondido-brewing-company-escondido,Escondido Brewing Company,micro,649 Rock Springs Rd,,,Escondido,California,,92025-1622,http://www.escobrewco.com,,United States,-117.097042,33.124632,
etna-brewing-co-llc-etna,Etna Brewing Co LLC,micro,131 Callahan Street,,,Etna,California,,96027,http://www.etnabrew.com,5304675277,United States,-122.8918305,41.45674141,
euryale-brewing-company-riverside,Euryale Brewing Company,micro,2060 Chicago Ave Ste A17,,,Riverside,California,,92507-2344,http://www.euryalebrewing.com,9515308865,United States,,,
evans-brewing-co-bayhawk-ales-irvine,Evans Brewing Co / Bayhawk Ales,micro,2000 Main St,,,Irvine,California,,92614-7202,http://www.evansbrewco.com,7147080082,United States,-117.8559667,33.68560798,
faction-brewing-co-alameda,Faction Brewing Co,micro,2501 Monarch St Ste 200,,,Alameda,California,,94501-5098,http://www.factionbrewing.com,5105232739,United States,-122.3097077,37.7866722,
fair-oaks-brew-pub-fair-oaks,Fair Oaks Brew Pub,brewpub,7988 California Ave,,,Fair Oaks,California,,95628-7140,http://www.fairoaksbrewpub.com,,United States,-121.2687393,38.64181849,
fall-brewing-company-san-diego,Fall Brewing Company,micro,4542 30th St,,,San Diego,California,,92116-4247,http://www.fallbrewing.com,6195010903,United States,-117.1302802,32.75997514,
fall-river-brewing-company-burney,Fall River Brewing Company,micro,24339 State Highway 89,,,Burney,California,,96013-9615,http://www.fallriverbrewing.com,,United States,,,
fallbrook-brewing-co-fallbrook,Fallbrook Brewing Co,micro,116 W Hawthorne St,,,Fallbrook,California,,92028-,http://www.fallbrookbrewing.com,,United States,-117.2516425,33.38273379,
farmers-brewing-co-princeton,Farmers Brewing Co,planning,,,,Princeton,California,,95970-9519,http://www.farmersbrewing.com,5306246053,United States,-122.009975,39.4032192,
faultline-brewing-co-sunnyvale,Faultline Brewing Co,brewpub,1235 Oakmead Pkwy,,,Sunnyvale,California,,94085-4040,,4087362739,United States,-121.9895755,37.38688662,
feather-falls-brewing-co-oroville,Feather Falls Brewing Co,brewpub,3 Alverda Dr,,,Oroville,California,,95966-9379,http://www.featherfallscasino.com,5305344059,United States,-121.521407,39.46576,
feather-river-brewing-co-magalia,Feather River Brewing Co,micro,14665 Forest Ridge Rd,,,Magalia,California,,95954-0443,http://www.featherriverbrewing.com,5308730734,United States,-121.5777621,39.84088592,
feathered-serpent-brewery-san-dimas,Feathered Serpent Brewery,planning,,,,San Dimas,California,,91773-1477,,3237079238,United States,-117.8067257,34.1066756,
federation-brewing-oakland,Federation Brewing,micro,420 3rd St Unit A,,,Oakland,California,,94607-3809,http://www.federationbrewing.com,,United States,,,
fermentdrinkrepeat-san-francisco,Ferment.Drink.Repeat,micro,2636 San Bruno Ave,,,San Francisco,California,,94134-1507,,,United States,-122.4039991,37.72833678,
fieldwork-brewing-co-berkeley,Fieldwork Brewing Co,regional,1160 6th St,,,Berkeley,California,,94710-1247,http://www.fieldworkbrewing.com,5108981203,United States,-122.3022147,37.88157297,
fiftyfifty-brewing-co-truckee,FiftyFifty Brewing Co,brewpub,11197 Brockway Rd Spc 1,,,Truckee,California,,96161-3352,http://www.fiftyfiftybrewing.com,5305872337,United States,,,
fiftyfifty-brewing-production-facility-truckee,FiftyFifty Brewing Production Facility,micro,10434 River Park Pl,,,Truckee,California,,96161-5905,,5305872337,United States,-120.1931724,39.32253237,
figueroa-mountain-brewing-arroyo-grande-arroyo-grande,Figueroa Mountain Brewing - Arroyo Grande,brewpub,1462 E Grand Ave,,,Arroyo Grande,California,,93420-2448,http://www.figmtnbrew.com,8058869275,United States,-120.6059582,35.12102175,
figueroa-mountain-brewing-buellton,Figueroa Mountain Brewing,regional,45 Industrial Way,,,Buellton,California,,93427-9565,http://www.figmtnbrew.com,8056942252,United States,-120.2022226,34.61068975,
figueroa-mountain-brewing-santa-barbara-santa-barbara,Figueroa Mountain Brewing - Santa Barbara,micro,137 Anacapa St Ste F,,,Santa Barbara,California,,93101-1848,http://www.figmtnbrew.com,8058869275,United States,,,
figueroa-mountain-brewing-westlake-village-westlake-village,Figueroa Mountain Brewing - Westlake Village,micro,30770 Russell Ranch Rd Ste E& # F,,,Westlake Village,California,,91362-6314,http://www.figmtnbrew.com,8058869275,United States,,,
final-draft-brewing-company-redding,Final Draft Brewing Company,brewpub,1600 California St,,,Redding,California,,96001-1001,http://www.finaldraftbrewingcompany.com,3105693868,United States,-122.3913371,40.5820505,
firehouse-grill-and-brewery-sunnyvale,Firehouse Grill & Brewery,brewpub,111 S Murphy Ave,,,Sunnyvale,California,,94086-6113,http://www.firehousegrill.com,4087739500,United States,-122.03007,37.37738,
firemans-brew-woodland-hills,Fireman's Brew,contract,6433 Topanga Canyon Blvd # 189,,,Woodland Hills,California,,91303-2621,http://www.firemansbrew.com,8188832739,United States,-118.6057591,34.1667962,
firestone-walker-barrelworks-buellton,Firestone Walker Barrelworks,micro,620 McMurray Rd,,,Buellton,California,,93427-2511,http://www.firestonewalker.com,8056861557,United States,-120.1883447,34.6248627,
firestone-walker-brewing-co-marina-del-rey,Firestone Walker Brewing Co,brewpub,3205 Washington Blvd,,,Marina del Rey,California,,90292-5552,,3104398264,United States,,,
firestone-walker-brewing-co-paso-robles,Firestone Walker Brewing Co,regional,1400 Ramada Dr,,,Paso Robles,California,,93446-3993,http://www.firestonebeer.com,8052255911,United States,,,
first-water-brewing-company-pasadena,First Water Brewing Company,planning,,,,Pasadena,California,,91106-1420,http://firstwaterbrewing.com,,United States,-118.1444779,34.1476452,
five-suns-brewing-martinez,Five Suns Brewing,micro,701 Escobar St Ste C,,,Martinez,California,,94553,http://www.fivesunsbrewing.com,9259576706,United States,,,
five-threads-brewing-company-westlake-village,Five Threads Brewing Company,micro,31133 Via Colinas Ste 109,,,Westlake Village,California,,91362-4525,,,United States,-118.801724,34.1529112,
five-window-beer-co-lodi,Five Window Beer Co,micro,9 W Locust St,,,Lodi,California,,95240-2137,http://www.fivewindow.com,2097122336,United States,-121.29526,38.136971,
flat-fish-brewing-camarillo,Flat Fish Brewing,micro,126 N Wood Rd Ste 104,,,Camarillo,California,,93010-8334,http://www.flatfishbrewing.com,8054849600,United States,,,
flatland-brewing-company-elk-grove,Flatland Brewing Company,micro,9183 Survey Rd Ste 104,,,Elk Grove,California,,95624-9712,http://www.flatlandbrewingco.com,9167533116,United States,-121.3567686,38.37684711,
fogbelt-brewing-co-santa-rosa,Fogbelt Brewing Co,brewpub,1305 Cleveland Ave,,,Santa Rosa,California,,95401-4211,http://www.fogbeltbrewing.com,7079783400,United States,-122.7266079,38.4490004,
fort-point-beer-company-san-francisco,Fort Point Beer Company,regional,644 Mason St,,,San Francisco,California,,94129-1600,http://www.fortpointbeer.com,4159064021,United States,-122.4102278,37.78946124,
fort-rock-brewing-rancho-cordova,Fort Rock Brewing,micro,12401 Folsom Blvd Ste 110,,,Rancho Cordova,California,,95742-6422,http://www.fortrockbrewing.com,9169364616,United States,-121.2248778,38.62586534,
fossil-fuels-brewing-co-fremont,Fossil Fuels Brewing Co,contract,45928 Omega Dr,,,Fremont,California,,94539-6848,,5103815739,United States,-121.9215949,37.4989939,
fountainhead-brewing-co-sacramento,Fountainhead Brewing Co,micro,4621 24th St,,,Sacramento,California,,95822-1412,http://www.fountainheadbrewingco.com,9162284610,United States,-121.4831173,38.5332279,
four-sons-brewing-huntington-beach,Four Sons Brewing,micro,18421 Gothard St Ste 100,,,Huntington Beach,California,,92648-1236,http://www.foursonsbrewing.com,7145847501,United States,,,
freewheel-brewing-co-redwood-city,FreeWheel Brewing Co,brewpub,3736 Florence St (Marsh Manor),,,Redwood City,California,,94063-4418,,,United States,,,
frogtown-brewery-los-angeles,Frogtown Brewery,micro,2931 Gilroy St,,,Los Angeles,California,,90039-2817,http://www.frogtownbrewery.com,3234522739,United States,-118.2515209,34.10656552,
full-circle-brewing-co-fresno,Full Circle Brewing Co,micro,620 F St,,,Fresno,California,,93706-3413,http://www.fullcirclebrewing.com,5592646323,United States,-119.7907797,36.72683719,
g8-development-inc-san-diego,"G8 Development, Inc.",planning,,,,San Diego,California,,92109-2802,,6198233402,United States,-117.1627714,32.7174209,
garage-brewing-company-murrieta,Garage Brewing Company,micro,26015 Jefferson Ave. Ste D,,,Murrieta,California,,92562,http://www.garagebrewco.com,9516001945,United States,,,
gbc-murrieta,GBC,micro,26015 Jefferson Ave Ste D,,,Murrieta,California,,92562-6985,,,United States,,,
geartooth-alewerks-san-jose,Geartooth AleWerks,micro,1635 S 7th St,,,San Jose,California,,95112-5932,http://www.geartoothalewerks.com,4084832679,United States,-121.8664773,37.31525129,
ghost-town-brewing-oakland,Ghost Town Brewing,micro,1960 Adeline St,,,Oakland,California,,94607-2300,http://www.ghosttownbrewing.com,5109266728,United States,-122.2844396,37.81391748,
gilman-brewing-company-berkeley,Gilman Brewing Company,micro,912 Gilman St,,,Berkeley,California,,94710-1424,http://www.gilmanbrew.com,,United States,-122.2998747,37.879466,
globier-san-diego,Globier,planning,,,,San Diego,California,,92117-1604,http://www.drinkglobier.com,7757623818,United States,-117.1627714,32.7174209,
goathouse-brewing-co-lincoln,GoatHouse Brewing Co.,micro,600 Wise Rd,,,Lincoln,California,,95648-8518,http://www.goathousebrewing.com,9167409100,United States,,,
gold-hill-brewery-placerville,Gold Hill Brewery,micro,5660 Vineyard Ln,,,Placerville,California,,95667-9330,http://www.goldhillvineyard.com,5306266522,United States,,,
golden-road-brewing-anaheim,Golden Road Brewing,large,2210 E Orangewood Ave,,,Anaheim,California,,92806,,7149124015,United States,,,
golden-road-brewing-co-sacramento,Golden Road Brewing Co,planning,,,,Sacramento,California,,95811,,9163829445,United States,-121.4943996,38.5815719,
golden-road-brewing-los-angeles,Golden Road Brewing,large,5430 W San Fernando Rd,,,Los Angeles,California,,90039-1015,http://www.goldenroad.la,2135426039,United States,,,
golden-state-brew-and-grill-gilroy,Golden State Brew and Grill,brewpub,7560 Monterey Rd Ste 100,,,Gilroy,California,,95020,,4088467070,United States,-121.5695839,37.0088398,
golden-state-brewery-santa-clara,Golden State Brewery,micro,1252 Memorex Dr,,,Santa Clara,California,,95050-2812,http://www.goldenstate.beer,4087272337,United States,-121.9503168,37.36253839,
gordon-biersch-brewery-restaurant-burbank-burbank,Gordon Biersch Brewery Restaurant - Burbank,brewpub,145 S San Fernando Blvd,,,Burbank,California,,91502-1322,http://www.gordonbiersch.com/restaurant,8185695240,United States,-118.3083397,34.18041759,
gordon-biersch-brewery-restaurant-san-diego-san-diego,Gordon Biersch Brewery Restaurant - San Diego,brewpub,5010 Mission Center Rd,,,San Diego,California,,92108-3211,http://www.craftworksrestaurants.com,6196881120,United States,-117.1539235,32.7740128,
gordon-biersch-brewing-co-san-jose,Gordon Biersch Brewing Co,regional,357 E Taylor St,,,San Jose,California,,95112-3105,http://www.gordonbiersch.com,4082781008,United States,-121.8841169,37.3567304,
gravsouth-brewing-co-cotati,GravSouth Brewing Co.,brewpub,7950 Redwood Dr Ste 15,,,Cotati,California,,94931-3054,http://www.gravsouthbrewco.com,7077534198,United States,,,
great-beer-co-chatsworth,Great Beer Co,contract,21119 Superior St,,,Chatsworth,California,,91311-4309,http://www.greatbeerco.com,8187182739,United States,-118.5932845,34.24643282,
great-change-brewing-bakersfield,Great Change Brewing,planning,,,,Bakersfield,California,,93313,http://www.greatchangebrewing.com,6195170736,United States,-119.0194639,35.3738712,
green-cheek-beer-company-orange,Green Cheek Beer Company,micro,2294 N Batavia St Ste C,,,Orange,California,,92865-3108,,7149988172,United States,,,
green-flash-brewing-co-san-diego,Green Flash Brewing Co,regional,6550 Mira Mesa Blvd,,,San Diego,California,,92121-4100,http://www.greenflashbrew.com,8586220085,United States,-117.113975,32.9167796,
greywolf-brewing-riverside,Greywolf Brewing,planning,,,,Riverside,California,,92508-9793,http://www.greywolfbrewing.com,,United States,-117.3961623,33.9533546,
gridlock-brewing-co-livermore,Gridlock Brewing Co,contract,2659 Pickfair Lane,,,Livermore,California,,94551,http://www.gridlockbrewing.com,4088358794,United States,-121.7669791,37.69251772,
grillin-and-chillin-alehouse-hollister,Grillin & Chillin Alehouse,brewpub,401 McCray St # B24,,,Hollister,California,,95023-2225,http://www.relaxgrillinchillin.com,8316372337,United States,-121.398519,36.8518573,
groundswell-brewing-co-santee,Groundswell Brewing Co,micro,10151 Prospect Ave,,,Santee,California,,92071-4411,http://www.groundswellbrew.com,6107499123,United States,-116.9644235,32.8310696,
guadalupe-brewery-carlsbad,Guadalupe Brewery,micro,5674 El Camino Real Ste D,,,Carlsbad,California,,92008-7130,http://www.guadalupebrewery.com,8587514278,United States,,,
gunwhale-ales-costa-mesa,Gunwhale Ales,micro,2960 Randolph Ave Unit A,,,Costa Mesa,California,,92626-4312,http://www.gunwhaleales.com,9492399074,United States,,,
gyppo-ale-mill-whitethorn,Gyppo Ale Mill,micro,,,,Whitethorn,California,,95589-0627,,7072233443,United States,-123.9430832,40.0237557,
h2ops-llc-anaheim,H2OPS LLC,planning,,,,Anaheim,California,,92808-1225,http://www.h2ops.com,7143924414,United States,-117.911732,33.8347516,
half-door-brewing-company-san-diego,Half Door Brewing Company,brewpub,903 Island Ave,,,San Diego,California,,92101-7227,http://www.halfdoorbrewing.com,,United States,-117.156268,32.710248,
half-moon-bay-brewing-co-half-moon-bay,Half Moon Bay Brewing Co,brewpub,390 Capistrano Road,,,Half Moon Bay,California,,94019,http://www.hmbbrewingco.com,6507282739,United States,,,
hamilton-family-brewery-rancho-cucamonga,Hamilton Family Brewery,micro,9757 7th St Ste 802,,,Rancho Cucamonga,California,,91730-5297,http://hamiltonfamilybrewery.com,9099897050,United States,,,
hand-brewed-beer-chatsworth,Hand-Brewed Beer,micro,9771 Variel Ave,,,Chatsworth,California,,91311-4315,http://www.handbrewedbeer.com,8189641422,United States,-118.5930241,34.24766895,
hangar-24-craft-brewery-redlands,Hangar 24 Craft Brewery,regional,1710 Sessums Dr,,,Redlands,California,,92374-1909,http://www.hangar24brewery.com,9093891400,United States,-117.1419134,34.0831712,
hapas-brewing-company-san-jose,Hapa's Brewing Company,micro,460 Lincoln Ave # 90,,,San Jose,California,,95126-3702,http://hapasbrewing.com/,4089823299,United States,-121.888991,37.2917841,
hardwood-bar-and-smokery-san-francisco,Hardwood Bar and Smokery,brewpub,680 8th St Ste 170,,,San Francisco,California,,94103,http://www.hardwoodsf.com,4157962437,United States,,,
hare-in-the-forest-potter-valley,Hare In the Forest,micro,9311 Gibson Ln,,,Potter Valley,California,,95469-8799,http://www.hareintheforest.com,9105457759,United States,-123.1252703,39.33623934,
harmonic-brewing-san-francisco,Harmonic Brewing,micro,1050 26th St,,,San Francisco,California,,94107-3513,http://www.harmonicbrewing.com,4158726817,United States,-122.3900962,37.75149961,
headlands-brewing-company-mill-valley,Headlands Brewing Company,proprietor,,,,Mill Valley,California,,94941-2003,http://www.headlandsbrewing.com,4158604226,United States,-122.5449763,37.9060368,
helix-brewing-co-la-mesa,Helix Brewing Co,micro,8101 Commercial St,,,La Mesa,California,,91942-2927,http://www.drinkhelix.com,6197418447,United States,-117.023442,32.771907,
helms-brewing-company-llc-san-diego,"Helm's Brewing Company, LLC",micro,5640 Kearny Mesa Rd Ste C,,,San Diego,California,,92111-1312,http://www.helmsbrewingco.com,2092024308,United States,,,
henhouse-brewing-company-palace-of-barrels-petaluma,Henhouse Brewing Company Palace of Barrels,micro,1333 N McDowell Blvd Ste A,,,Petaluma,California,,94954,,,United States,,,
henhouse-brewing-santa-rosa,HenHouse Brewing,micro,322 Bellevue Ave # 2,,,Santa Rosa,California,,95407-7711,http://www.henhousebrewing.com,,United States,-122.7241302,38.4017722,
henson-brewing-burbank,Henson Brewing,micro,,,,Burbank,California,,91504,http://www.facebook.com/HensonBrewing/,,United States,-118.3258554,34.1816482,
heretic-brewing-company-fairfield,Heretic Brewing Company,micro,1052 Horizon Dr Ste B,,,Fairfield,California,,94533-1694,http://www.hereticbrewing.com,7073894573,United States,,,
hermitage-brewing-company-san-jose,Hermitage Brewing Company,regional,1627 S 7th St,,,San Jose,California,,95112-5932,http://www.hermitagebrewing.com,4082910966,United States,-121.8665257,37.31531409,
heroes-restaurant-and-brewery-riverside,Heroes Restaurant and Brewery,brewpub,3397 Mission Inn Ave,,,Riverside,California,,92501-3302,http://www.heroesrestaurantandbrewery.com,9512480722,United States,-117.3701143,33.98135954,
high-water-brewing-stockton,High Water Brewing,proprietor,,,,Stockton,California,,95204-2943,http://www.highwaterbrewing.com,5304409098,United States,-121.2907796,37.9577016,
highland-park-brewery-los-angeles-1,Highland Park Brewery,micro,5125 York Blvd,,,Los Angeles,California,,90042,http://www.hpb.la,4255011255,United States,-118.1807106,34.1141508,
highland-park-brewery-los-angeles-2,Highland Park Brewery,brewpub,1229 N Spring St,,,Los Angeles,California,,90012,,3237396459,United States,-118.2339922,34.06593582,
highway-1-brewing-company-pescadero,Highway 1 Brewing Company,brewpub,5720 Cabrillo Hwy,,,Pescadero,California,,94060-9725,http://www.highway1brewing.com,6508799243,United States,-122.411815,37.229747,
hillcrest-brewing-company-san-diego,Hillcrest Brewing Company,brewpub,1458 University Ave,,,San Diego,California,,92103-3405,http://www.hillcrestbrewingcompany.com,6192694323,United States,-117.1260866,32.7484921,
hodads-brewing-company-san-diego,Hodad's Brewing Company,planning,,,,San Diego,California,,92123,,8582782770,United States,-117.1627714,32.7174209,
hoi-polloi-brewpub-and-beat-lounge-berkeley,Hoi Polloi Brewpub and Beat Lounge,micro,1763 Alcatraz Ave,,,Berkeley,California,,94703,,5108587334,United States,-122.272181,37.8487711,
hollister-brewing-co-goleta,Hollister Brewing Co,brewpub,6980 Market Place Dr,,,Goleta,California,,93117-2997,http://www.holisterbrewco.com,8059682810,United States,-119.873842,34.428764,
homage-brewing-pomona,Homage Brewing,micro,281 S Thomas St Ste 101,,,Pomona,California,,91766-1750,http://www.homagebrewing.com/,6263770930,United States,,,
home-brewing-co-san-diego,Home Brewing Co.,micro,2911 El Cajon Blvd # 2,,,San Diego,California,,92104-1204,http://www.thehomebrewerssd.com,6194506165,United States,-117.131109,32.755029,
hop-creek-pub-napa,Hop Creek Pub,brewpub,3253 Browns Valley Rd,,,Napa,California,,94558-5424,http://www.hopcreekpub.com,7072577708,United States,-122.328868,38.3041333,
hop-dogma-brewing-company-half-moon-bay,Hop Dogma Brewing Company,micro,270 Capistrano Rd #22,,,Half Moon Bay,California,,94019,http://www.hopdogma.com,6505608729,United States,,,
hop-secret-brewing-co-monrovia,Hop Secret Brewing Co,micro,162 W Pomona Ave,,,Monrovia,California,,91016-4558,http://www.hopsecretbrewing.com,,United States,-118.001973,34.134155,
hoparazzi-brewing-co-anaheim,Hoparazzi Brewing Co,micro,2910 E La Palma Ave Ste D,,,Anaheim,California,,92806-2618,,,United States,,,
hoppy-brewing-co-sacramento,Hoppy Brewing Co,brewpub,2425 24th St,,,Sacramento,California,,95819-4619,http://www.hoppy.com,9164514677,United States,-121.4812078,38.55962229,
hopsaint-brewing-company-torrance,HopSaint Brewing Company,brewpub,5160 W 190th St,,,Torrance,California,,90503-1005,http://www.hopsaint.com,3102144611,United States,-118.367733,33.8577324,
horus-aged-ales-oceanside,Horus Aged Ales,micro,4040 Calle Platino Ste 120,,,Oceanside,California,,92056-5859,http://www.horusbeer.com,3103475685,United States,,,
house-beer-venice,House Beer,proprietor,219 Rose Ave,,,Venice,California,,90291-2567,http://www.housebeer.us,3103103331,United States,-118.4775319,33.99631992,
house-of-pendragon-brewing-co-sanger,House Of Pendragon Brewing Co,micro,1849 Industrial Way Ste 103,,,Sanger,California,,93657-8727,http://www.hopbeer.com,5593467786,United States,-119.5496094,36.68923442,
humble-farmer-brewing-co-imperial,Humble Farmer Brewing Co.,brewpub,116 S Imperial Ave Ste C,,,Imperial,California,,92251-1666,,7605450037,United States,,,
humble-farmer-brewing-co-inc-holtville,"Humble Farmer Brewing Co., Inc.",micro,438 Walnut Ave,,,Holtville,California,,92250-1343,http://www.humblefarmerbrewing.com,7603567066,United States,-115.376335,32.8093331,
humble-sea-brewing-co-santa-cruz,Humble Sea Brewing Co,brewpub,820 Swift St,,,Santa Cruz,California,,95060-5866,http://www.humblesea.com,8314316189,United States,-122.0490197,36.9595996,
humboldt-regeneration-mckinleyville,Humboldt Regeneration,micro,2320 Central Ave Ste F,,,McKinleyville,California,,95519-3682,http://www.humboldtregeneration.com,7077388225,United States,,,
humboldt-springs-brewing-co-eureka,Humboldt Springs Brewing Co,planning,,,,Eureka,California,,95501,,7074993050,United States,-124.1636729,40.8020712,
huntington-beach-beer-co-huntington-beach,Huntington Beach Beer Co,brewpub,201 Main St Ste E,,,Huntington Beach,California,,92648-8110,http://www.hbbeerco.com,7149605343,United States,,,
hwy-50-brewery-camino,HWY 50 Brewery,planning,,,,Camino,California,,95709,http://www.hwy50brewery.com,,United States,-120.6749302,38.7382366,
i-and-i-brewing-chino,I & I Brewing,micro,5135 Edison Ave Ste 1,,,Chino,California,,91710-5773,http://www.iandibrewing.com,9095913915,United States,,,
idol-beer-works-lodi,Idol Beer Works,micro,100 S Sacramento St,,,Lodi,California,,95240-3526,http://www.idolbeerworks.com,,United States,-121.2722,38.1328,
idyllwild-brewpub-idyllwild,Idyllwild Brewpub,brewpub,54423 Village Center Dr,,,Idyllwild,California,,92549,http://www.idyllwildbrewpub.com,9516590163,United States,-116.711296,33.7436195,
inc-82-brewing-dublin,Inc 82 Brewing,brewpub,7370 San Ramon Rd,,,Dublin,California,,94568-2336,http://www.inc82.com,9255608344,United States,-121.9377474,37.7059588,
independent-brewing-co-oakland,Independent Brewing Co,micro,444 Harrison St,,,Oakland,California,,94607-4118,,,United States,-122.2711853,37.7964297,
indian-joe-brewing-vista,Indian Joe Brewing,micro,2123 Industrial Ct,,,Vista,California,,92081-7900,http://www.indianjoebrewing.com,7602953945,United States,-117.2204292,33.1694168,
indian-valley-brewing-novato,Indian Valley Brewing,micro,14 Commercial Blvd Ste 125,,,Novato,California,,94949-6110,http://www.indianvalleybrewing.com,4153014983,United States,-122.5350144,38.06828367,
indian-wells-brewing-co-inyokern,Indian Wells Brewing Co,micro,2565 State Highway 14,,,Inyokern,California,,93527-2700,http://www.mojave-red.com,7603775989,United States,,,
indie-brewing-company-los-angeles,Indie Brewing Company,micro,2301 E 7th St Ste C100 Ste C100,,,Los Angeles,California,,90023-1036,http://indiebrewco.com,3233544285,United States,,,
inland-empire-brewing-co-riverside,Inland Empire Brewing Co,proprietor,1710 Palmyrita Ave Ste 11,,,Riverside,California,,92507-1627,http://www.iebrew.com,9516437687,United States,,,
inland-wharf-brewing-company-murrieta,Inland Wharf Brewing Company,micro,26440 Jefferson Ave Ste A,,,Murrieta,California,,92562-6951,http://www.inlandwharfbrewing.com,9516967999,United States,,,
innovation-brew-works-pomona,Innovation Brew Works,micro,3650 W Temple Ave Bldg 220A,,,Pomona,California,,91768-2582,http://www.ibrewworks.com/,9098692788,United States,,,
institution-ale-company-camarillo,Institution Ale Company,brewpub,3841 Mission Oaks Blvd,,,Camarillo,California,,93012-5036,http://www.institutionales.com,8054823777,United States,-119.0203372,34.21646691,
intergalactic-brewing-co-san-diego,Intergalactic Brewing Co,micro,9715 Carroll Centre Rd #107,,,San Diego,California,,92126-6507,http://www.intergalacticbrew.com,8587500601,United States,-117.1223493,32.89873279,
iron-fist-brewing-co-vista,Iron Fist Brewing Co,micro,1305 Hot Springs Way Ste 101,,,Vista,California,,92081-7876,http://www.ironfistbrewing.com,7602166500,United States,,,
iron-springs-pub-and-brewery-fairfax,Iron Springs Pub & Brewery,brewpub,765 Center Blvd,,,Fairfax,California,,94930-1764,http://www.ironspringspub.com,4154851005,United States,-122.5862525,37.98670111,
iron-triangle-brewing-company-los-angeles,Iron Triangle Brewing Company,micro,1581 Industrial St,,,Los Angeles,California,,90021-1217,http://www.irontrianglebrewing.com,3109905702,United States,-118.2373618,34.03612189,
ironfire-brewing-company-temecula,Ironfire Brewing Company,micro,42095 Zevo Dr Unit 1,,,Temecula,California,,92590-3741,http://www.ironfirebrewing.com,9512961397,United States,,,
island-brewing-co-carpinteria,Island Brewing Co,micro,5049 6th St,,,Carpinteria,California,,93013-2001,http://www.islandbrewingcompany.com,8057458272,United States,-119.521007,34.39590392,
jack-russell-farm-ales-camino,Jack Russell Farm Ales,brewpub,2380 Larsen Dr,,,Camino,California,,95709-9749,http://www.jackrussellbrewing.com,5306479420,United States,-120.6801664,38.75368647,
jacked-up-brewery-escondido,Jacked Up Brewery,micro,800 W Grand Ave Ste B Ste 201,,,Escondido,California,,92025-2562,http://jackedupbrewery.com,7603000633,United States,,,
jackrabbit-brewing-co-west-sacramento,Jackrabbit Brewing Co,micro,1323 Terminal St,,,West Sacramento,California,,95691-3514,http://www.jackrabbitbrewingcompany.com,2096120259,United States,-121.54112,38.5719882,
jacks-brewing-co-fremont,Jack's Brewing Co,brewpub,39176 Argonaut Way,,,Fremont,California,,94538-1304,,5107962036,United States,-121.9884025,37.5442084,
jamul-brewing-co-production-only-jamul,Jamul Brewing Co. - Production Only,micro,3113 Calle Allejandro,,,Jamul,California,,91935-3108,http://www.jamulbrewingco.com,6195179829,United States,-116.87742,32.709923,
john-scott-brewing-co-trabuco-canyon,John Scott Brewing Co.,planning,,,,Trabuco Canyon,California,,92679-5145,,7144702055,United States,-117.58938,33.6626232,
johnnys-calistoga-mud-city-brews-calistoga,Johnny's Calistoga / Mud City Brews,brewpub,1457 Lincoln Ave,,,Calistoga,California,,94515,http://www.johnnyscalistoga.com,7079425938,United States,-122.579054,38.578753,
jp-dasbrew-fremont,JP DasBrew,micro,44356 S Grimmer Blvd,,,Fremont,California,,94538-6385,http://www.dasbrewinc.com,5102705345,United States,-121.9577836,37.5043737,
jt-schmids-restaurant-and-brewery-anaheim,JT Schmids Restaurant & Brewery,brewpub,2610 E Katella Ave,,,Anaheim,California,,92806-5903,http://www.jtschmids.com,7146349200,United States,-117.8770639,33.8056683,
julian-brewing-co-julian,Julian Brewing Co,micro,2315 Main St,,,Julian,California,,92065,http://www.baileybbq.com,7607653757,United States,-116.603975,33.079171,
junction-brewery-and-grill-american-canyon,Junction Brewery & Grill,brewpub,110 W American Canyon Rd,,,American Canyon,California,,94503-4196,http://www.junctionbreweryandgrill.com,7076492285,United States,-122.261689,38.1658134,
june-lake-brewing-june-lake,June Lake Brewing,micro,131 S Crawford Ave,,,June Lake,California,,93529,http://www.junelakebrewing.com,,United States,-119.0772032,37.77835282,
jupiter-berkeley,Jupiter,brewpub,2181 Shattuck Ave,,,Berkeley,California,,94704-1308,http://www.jupiterbeer.com,5108438277,United States,-122.2676799,37.8697889,
k-oz-restaurant-brewery-san-francisco,K-Oz Restaurant Brewery,brewpub,121 7th St,,,San Francisco,California,,94103-2835,http://www.kandoz.com,4158729431,United States,-122.409904,37.7786408,
karl-strauss-brewing-co-4s-ranch-san-diego,Karl Strauss Brewing Co - 4S Ranch,brewpub,10448 Reserve Dr,,,San Diego,California,,92127-3510,http://www.karlstrauss.com,8582732739,United States,-117.113249,33.021301,
karl-strauss-brewing-co-anaheim-anaheim,Karl Strauss Brewing Co - Anaheim,brewpub,2390 E Orangewood Ave Ste 100,,,Anaheim,California,,92806-6141,,7149401772,United States,,,
karl-strauss-brewing-co-carlsbad-carlsbad,Karl Strauss Brewing Co - Carlsbad,brewpub,5801 Armada Dr,,,Carlsbad,California,,92008-4609,http://www.karlstrauss.com,7604312739,United States,-117.314236,33.124447,
karl-strauss-brewing-co-costa-mesa-costa-mesa,Karl Strauss Brewing Co - Costa Mesa,brewpub,901 S Coast Dr Ste A,,,Costa Mesa,California,,92626-7790,http://www.karlstrauss.com,7145462739,United States,,,
karl-strauss-brewing-co-downtown-los-angeles-los-angeles,Karl Strauss Brewing Co - Downtown Los Angeles,brewpub,600 Wilshire Blvd Ste 100,,,Los Angeles,California,,90017-3212,,2132282739,United States,-118.256154,34.047978,
karl-strauss-brewing-co-downtown-san-diego,Karl Strauss Brewing Co - Downtown,brewpub,1157 Columbia St,,,San Diego,California,,92101-3511,http://www.karlstrauss.com,6192342739,United States,-117.1672838,32.71730086,
karl-strauss-brewing-co-la-jolla-la-jolla,Karl Strauss Brewing Co - La Jolla,brewpub,1044 Wall St,,,La Jolla,California,,92037-4437,http://www.karlstrauss.com,8585512739,United States,-117.2742141,32.84679009,
karl-strauss-brewing-co-san-diego,Karl Strauss Brewing Co,regional,5985 Santa Fe St,,,San Diego,California,,92109-1623,http://www.karlstrauss.com,8582732739,United States,-117.231429,32.832579,
karl-strauss-brewing-co-sorrento-mesa-san-diego,Karl Strauss Brewing Co - Sorrento Mesa,brewpub,9675 Scranton Rd,,,San Diego,California,,92121-1761,http://www.karlstrauss.com,8585872739,United States,-117.2027066,32.89634566,
karl-strauss-brewing-co-temecula,Karl Strauss Brewing Co,brewpub,40868 Winchester Rd,,,Temecula,California,,92591-5521,http://www.karlstrauss.com,9512257963,United States,-117.1584479,33.52586892,
karl-strauss-brewing-co-universal-citywalk-universal-city,Karl Strauss Brewing Co - Universal CityWalk,brewpub,1000 Universal Studios Blvd,,,Universal City,California,,91608-1008,http://www.karlstrauss.com,8187532739,United States,-118.3529336,34.1322144,
kathrins-biergarten-rocklin,Kathrin's Biergarten,brewpub,4810 Granite Dr Ste 1A,,,Rocklin,California,,95677,http://www.kathrinsbiergarten.com,9162517502,United States,,,
kaweah-brewing-co-tulare,Kaweah Brewing Co.,micro,1054 E Walnut Ave,,,Tulare,California,,93274,http://www.kaweahbrewing.com,5599725573,United States,-119.3349798,36.19307993,
kelsey-creek-brewing-kelseyville,Kelsey Creek Brewing,micro,3945 Main St,,,Kelseyville,California,,95451-7424,http://www.kelseycreekbrewing.com,7072792311,United States,-122.8382903,38.97782568,
kern-river-brewing-co-kernville,Kern River Brewing Co,brewpub,13415 Sierra Way,,,Kernville,California,,93238-9714,http://www.kernriverbrewingcompany.com,7603762337,United States,,,
kern-river-brewing-company-back-yard-kernville,Kern River Brewing Company Back Yard,brewpub,134415 Sierra Way Ste B,,,Kernville,California,,93238,,7603762337,United States,,,
kilowatt-brewing-san-diego,Kilowatt Brewing,micro,7576 Clairemont Mesa Blvd,,,San Diego,California,,92111-1504,http://www.kilowatt.beer,8587153998,United States,-117.208801,32.8276353,
kinetic-brewing-company-lancaster,Kinetic Brewing Company,brewpub,735 W Lancaster Blvd,,,Lancaster,California,,93534-3118,http://www.kineticbrewing.com,6619422337,United States,-118.1433223,34.6978404,
king-cong-brewing-company-sacramento,King Cong Brewing Company,micro,1709 del Paso Blvd,,,Sacramento,California,,95815-3016,,9165148041,United States,-121.456029,38.60771757,
king-harbor-brewing-co-redondo-beach,King Harbor Brewing Co,micro,2907 182nd St,,,Redondo Beach,California,,90278-3922,http://www.kingharborbrewing.com,3105428657,United States,-118.3600656,33.86561891,
kings-brewing-company-rancho-cucamonga,Kings Brewing Company,micro,8560 Vineyard Ave Ste 301,,,Rancho Cucamonga,California,,91730-4395,http://www.kingsbrewingco.com,9097273333,United States,-117.6110744,34.1064155,
kings-river-brewing-company-clovis,Kings River Brewing Company,planning,,,,Clovis,California,,93612-2825,http://www.kingsriverbrewing.com,5599060615,United States,-119.7029194,36.8252277,
knee-deep-brewing-co-auburn,Knee Deep Brewing Co.,regional,13395 New Airport Rd Ste H,,,Auburn,California,,95602-7419,http://www.kneedeepbrewing.com,5307974677,United States,,,
knotty-brewing-co-san-diego,Knotty Brewing Co.,micro,842 Market St,,,San Diego,California,,92101-6425,http://www.knottybrewing.com,6192694337,United States,-117.127434,32.711658,
kuracali-inc-carlsbad,Kuracali Inc,proprietor,821 Caminito del Reposo,,,Carlsbad,California,,92011-2404,http://www.kuracali.com,8587756502,United States,-117.315852,33.11493,
la-bodega-brewing-co-whittier,LA Bodega Brewing Co,planning,,,,Whittier,California,,90603-1207,http://LABODEGABREWINGCO.COM,,United States,-118.0336975,33.9748932,
la-quinta-brewing-co-palm-desert,La Quinta Brewing Co,micro,77917 Wildcat Dr,,,Palm Desert,California,,92211-1159,http://www.laquintabrewing.com,7602002597,United States,,,
la-verne-brewing-la-verne,La Verne Brewing,micro,2125 Wright Ave Ste C15,,,La Verne,California,,91750-5816,http://www.lavernebrewingco.com,9095965804,United States,,,
lab-brewing-co-twisted-oak-tavern-agoura-hills,LAB Brewing Co / Twisted Oak Tavern,brewpub,30105 Agoura Rd,,,Agoura Hills,California,,91301-2003,http://www.twistedoaktavern.pub,8187350091,United States,-118.7799133,34.14511931,
ladyface-ale-companie-agoura-hills,Ladyface Ale Companie,brewpub,29281 Agoura Rd,,,Agoura Hills,California,,91301-2597,http://www.ladyfaceale.com,8184774566,United States,-118.7661536,34.14404216,
laguna-beach-beer-co-rancho-santa-margarita,Laguna Beach Beer Co,micro,29851 Aventura,,,Rancho Santa Margarita,California,,92688-2014,http://www.lagunabeer.com,9492646821,United States,-117.6108194,33.63603528,
laguna-beach-brewery-and-grille-laguna-beach,Laguna Beach Brewery and Grille,brewpub,237 Ocean Ave,,,Laguna Beach,California,,92651-2106,http://www.lagunabeachbrewery.net,9494973381,United States,-117.7835382,33.5427913,
lagunitas-brewing-co-petaluma,Lagunitas Brewing Co,large,1280 N McDowell Blvd,,,Petaluma,California,,94954-1113,http://www.lagunitas.com,7077694495,United States,-122.6619198,38.27264795,
lake-tahoe-aleworx-south-lake-tahoe,Lake Tahoe AleWorX,micro,2050 Lake Tahoe Blvd,,,South Lake Tahoe,California,,96150-6404,http://www.laketahoealeworx.com,5306000442,United States,-120.0019957,38.91476209,
lassen-ale-works-the-pioneer-saloon-susanville,Lassen Ale Works @ The Pioneer Saloon,brewpub,724 Main St,,,Susanville,California,,96130-4372,http://www.lassenaleworks.com,5302577666,United States,-120.6326661,40.4055904,
last-call-brewing-company-oakdale,Last Call Brewing Company,micro,944 Shepard Ct Ste C,,,Oakdale,California,,95361-7785,http://www.lastcallbrewing.com,8885125592,United States,,,
last-name-brewing-upland,Last Name Brewing,micro,2120 Porterfield Way,,,Upland,California,,91786-2111,http://www.lastnamebrewing.com,9095790032,United States,,,
latchkey-brewing-company-san-diego,Latchkey Brewing Company,micro,1795 Hancock St Mission Brewery Plaza,,,San Diego,California,,92110-2006,http://www.latchkeybrew.com,9165551212,United States,,,
latitude-33-brewing-co-vista,Latitude 33 Brewing Co,micro,1430 Vantage Ct Ste 104,,,Vista,California,,92081-8545,http://www.latitude33brewing.com,7604106333,United States,-117.22485,33.136105,
laughing-monk-brewing-san-francisco,Laughing Monk Brewing,micro,1439 Egbert Ave Unit A,,,San Francisco,California,,94124-3221,http://www.laughingmonkbrewing.com,4158905970,United States,,,
lawless-brewing-los-angeles,Lawless Brewing,planning,,,,Los Angeles,California,,90068-1436,http://www.lawlessbeer.com,8184567345,United States,-118.2427669,34.0536834,
leashless-brewing-ventura,Leashless Brewing,micro,585 E Thompson Blvd,,,Ventura,California,,93001-2826,http://www.leashlessbrewing.com,8056289474,United States,-119.2908735,34.2783584,
left-coast-brewing-co-san-clemente,Left Coast Brewing Co.,micro,1245 Puerta del Sol,,,San Clemente,California,,92673-6310,http://www.leftcoastbrewing.com,9493619972,United States,-117.5922336,33.4587307,
left-coast-brewing-co-tasting-room-smokehouse-distillery-irvine,Left Coast Brewing Co. Tasting Room Smokehouse Distillery,brewpub,6652 Irvine Center Dr,,,Irvine,California,,92618,,9493619972,United States,-117.7640733,33.66814585,
legacy-brewing-company-oceanside,Legacy Brewing Company,micro,363 Airport Rd,,,Oceanside,California,,92058-1203,http://www.legacybrewingco.com,7607053221,United States,-117.3501687,33.21546892,
legends-craft-brewery-anaheim,Legends Craft Brewery,micro,1301 S Lewis St,,,Anaheim,California,,92805-6431,http://www.legendsbeer.com,8883270202,United States,-117.8980621,33.81628085,
lengthwise-brewing-co-bakersfield,Lengthwise Brewing Co,brewpub,7700 District Blvd,,,Bakersfield,California,,93313-4861,http://www.lengthwise.com,6618362537,United States,-119.0885472,35.31323456,
liberation-brewing-long-beach,Liberation Brewing,micro,3630 Atlantic Ave,,,Long Beach,California,,90807,http://www.liberationbrewing.com,5623490133,United States,-118.1859647,33.8781951,
libertine-brewing-company-san-luis-obispo,Libertine Brewing Company,brewpub,1234 Broad St,,,San Luis Obispo,California,,93401-3908,http://www.libertinebrewing.com,8057720700,United States,-120.6631926,35.2777052,
lincoln-beer-company-burbank,Lincoln Beer Company,micro,3083 N Lima St,,,Burbank,California,,91504-2013,http://www.lincolnbeercompany.com,8186874206,United States,-118.3466206,34.20605273,
little-miss-brewing-san-diego,Little Miss Brewing,micro,7949 Stromesa Ct Ste Y,,,San Diego,California,,92126-6338,http://www.littlemissbrewing.com,6198802752,United States,-117.148488,32.89183,
local-brewing-co-san-francisco,Local Brewing Co,micro,69 Bluxome St,,,San Francisco,California,,94107-1605,http://www.localbrewingco.com,,United States,-122.3973825,37.776173,
local-craft-beer-tehachapi-tehachapi,"Local Craft Beer, Tehachapi",micro,365 Enterprise Way Ste G,,,Tehachapi,California,,93561-1369,http://www.honeywagonbrewing.com,6618222337,United States,,,
lodi-beer-company-lodi,Lodi Beer Company,brewpub,105 S School St,,,Lodi,California,,95240-3509,http://www.lodibeercompany.com,2093682964,United States,-121.2738676,38.13282339,
logoff-brewing-llc-carmichael,LogOff Brewing LLC,planning,,,,Carmichael,California,,95608-5615,,9165416677,United States,-121.3222422,38.62709845,
loma-brewing-company-los-gatos,Loma Brewing Company,brewpub,130 N Santa Cruz Ave Ste G,,,Los Gatos,California,,95030-5949,http://www.lomabrew.com,4085609626,United States,,,
long-beach-beer-lab-long-beach,Long Beach Beer Lab,micro,518 W Willow St,,,Long Beach,California,,90806-2831,http://www.lbbeer.com,5623413659,United States,-118.2156232,33.8044209,
longship-brewery-san-diego,Longship Brewery,micro,10320 Camino Santa Fe Ste C,,,San Diego,California,,92121-3103,http://www.LongshipBrewery.com,8582467875,United States,,,
loomis-basin-brewing-co-loomis,Loomis Basin Brewing Co,micro,3277 Swetzer Rd,,,Loomis,California,,95650-7607,http://www.loomisbasinbrewing.com,9162592739,United States,-121.1916448,38.83182018,
los-angeles-ale-works-hawthorne,Los Angeles Ale Works,micro,12918 Cerise Ave,,,Hawthorne,California,,90250-5521,http://www.laaleworks.com,4244564191,United States,-118.3322768,33.9149155,
lost-coast-brew-house-eureka,Lost Coast Brew House,brewpub,1600 Sunset Dr,,,Eureka,California,,95503-2401,http://www.lostcoast.com,7074454484,United States,,,
lost-coast-brewery-and-cafe-table-bluff-brewing-inc-eureka,"Lost Coast Brewery and Cafe - Table Bluff Brewing, Inc.",regional,617 4th St,,,Eureka,California,,95501-1013,http://www.lostcoast.com,7074454480,United States,-124.1648141,40.80302047,
lost-winds-brewing-company-san-clemente,Lost Winds Brewing Company,micro,924 Calle Negocio Ste C,,,San Clemente,California,,92673-6208,http://www.lostwindsbrewing.com,9492444288,United States,,,
lot-713-craft-brewery-riverside,Lot 713 Craft Brewery,planning,,,,Riverside,California,,92506-3208,http://www.lot713.com,,United States,-117.3961623,33.9533546,
lucky-devil-brewing-berkeley,Lucky Devil Brewing,contract,1134 Delaware St Apt E,,,Berkeley,California,,94702-1672,http://www.luckydevilbrewery.com,5109692865,United States,,,
lucky-luke-brewing-company-palmdale,Lucky Luke Brewing Company,micro,610 W Avenue O Ste 104,,,Palmdale,California,,93551-3610,http://www.luckylukebrewing.com,6612705588,United States,,,
machinehead-brewing-co-clovis,MachineHead Brewing Co.,planning,,,,Clovis,California,,93612,,,United States,-119.7029194,36.8252277,
macleod-ale-brewing-company-llc-van-nuys,"MacLeod Ale Brewing Company, LLC",micro,14741 Calvert St,,,Van Nuys,California,,91411-2706,http://www.macleodale.com,8186311963,United States,-118.4540488,34.1817376,
mad-duck-craft-brewing-company-fresno,Mad Duck Craft Brewing Company,brewpub,3085 E Campus Pointe Dr,,,Fresno,California,,93710-7526,http://www.madduckcraft.com,5593253825,United States,,,
mad-fritz-saint-helena,Mad Fritz,micro,393 Lafata St,,,Saint Helena,California,,94574-1405,http://www.madfritz.com,7079685058,United States,-122.4584186,38.49985781,
mad-river-brewing-co-blue-lake,Mad River Brewing Co,micro,101 Taylor Way,,,Blue Lake,California,,95525,http://www.madriverbrewing.com,7076684151,United States,-123.992063,40.878682,
madewest-brewing-company-ventura,Madewest Brewing Company,micro,1744 Donlon St,,,Ventura,California,,93003-5673,http://www.madewest.com,8059475002,United States,-119.2354401,34.26181601,
magnolia-brewing-company-san-francisco,Magnolia Brewing Company,brewpub,1398 Haight St,,,San Francisco,California,,94117-2909,,,United States,-122.4452044,37.7703537,
magnolia-dogpatch-san-francisco,Magnolia Dogpatch,micro,2505 3rd St,,,San Francisco,California,,94107-3112,http://www.magnoliasmokestack.com,4158647468,United States,-122.3880818,37.7577437,
main-street-brewery-corona,Main Street Brewery,brewpub,493 N Main St,,,Corona,California,,92880-2042,http://www.mainstreetbrewery.com,9513711471,United States,-117.5636924,33.8925168,
mammoth-brewing-company-mammoth-lakes,Mammoth Brewing Company,micro,18 Lake Manor Pl,,,Mammoth Lakes,California,,93546,http://www.mammothbrewingco.com,7609347141,United States,,,
manrock-brewing-grover-beach,ManRock Brewing,brewpub,1750 El Camino Real Ste A,,,Grover Beach,California,,93433-1416,http://www.manrockbrewing.com,7022172826,United States,,,
mare-island-brewing-co-vallejo,Mare Island Brewing Co.,brewpub,289 Mare Island Way,,,Vallejo,California,,94590-5801,http://www.mareislandbrewingco.com,7075563000,United States,-122.2631011,38.0998706,
marin-brewing-co-larkspur,Marin Brewing Co,brewpub,1809 Larkspur Landing Cir,,,Larkspur,California,,94939-1801,http://www.marinbrewing.com,4154614677,United States,-122.5068874,37.9458177,
mason-ale-works-oceanside,Mason Ale Works,micro,2002 S Coast Hwy,,,Oceanside,California,,92054-6535,http://www.masonaleworks.com,8583958809,United States,-117.358767,33.171842,
mbf-brewing-co-los-angeles,MBF Brewing Co,contract,530 W 7th St Apt 401,,,Los Angeles,California,,90014-2507,http://www.MBFcompany.com,8315217921,United States,,,
midnight-jack-brewing-company-oceanside,Midnight Jack Brewing Company,micro,3801 Oceanic Dr Ste 101,,,Oceanside,California,,92056-5850,http://www.midnightjackbrewing.com,7606379679,United States,-117.304737,33.204836,
mike-hess-brewing-miramar-san-diego,Mike Hess Brewing - Miramar,micro,7955 Silverton Ave Ste 1201,,,San Diego,California,,92126-6357,http://www.hessbrewing.com,6198876453,United States,-117.1518284,32.89080081,
mike-hess-brewing-san-diego,Mike Hess Brewing,micro,3812 Grim Ave,,,San Diego,California,,92104-3602,,6192557136,United States,-117.12854,32.747711,
mikkeller-brewing-san-diego-san-diego,Mikkeller Brewing San Diego,micro,9366 Cabot Dr,,,San Diego,California,,92126-4311,,,United States,-117.144171,32.89146307,
mill-valley-beer-works-mill-valley,Mill Valley Beer Works,brewpub,173 Throckmorton Ave,,,Mill Valley,California,,94941-1909,http://www.millvalleybeerworks.com,,United States,-122.5493619,37.9053888,
millercoors-brewing-co-irwindale-irwindale,MillerCoors Brewing Co - Irwindale,large,15801 1st St,,,Irwindale,California,,91706-2069,http://www.millerbrewing.com,6269696225,United States,,,
mineras-alley-brewing-company-oroville,Minerâs Alley Brewing Company,brewpub,2053 Montgomery St,,,Oroville,California,,95965-4947,http://www.minersalleybrewingco.com,5306934388,United States,-121.5549792,39.51414912,
mission-brewery-san-diego,Mission Brewery,micro,1441 L St,,,San Diego,California,,92101-8967,http://www.missionbrewery.com,6195440555,United States,-117.0682152,32.6220746,
modern-times-barrel-house-san-diego,Modern Times Barrel House,micro,3486 Kurtz St # 102,,,San Diego,California,,92110-4429,,,United States,-117.208725,32.75539325,
modern-times-beer-san-diego,Modern Times Beer,regional,3725 Greenwood St,,,San Diego,California,,92110-4441,http://www.moderntimesbeer.com,6195469694,United States,-117.206153,32.754233,
modern-times-the-dankness-dojo-san-diego,Modern Times - The Dankness Dojo,brewpub,3725 Greenwood St,,,San Diego,California,,92110-4441,,6195469694,United States,-117.206153,32.754233,
moksa-brewing-co-rocklin,Moksa Brewing Co,micro,5860 Pacific St,,,Rocklin,California,,95677-3738,http://www.moksabrewing.com,9168241366,United States,-121.2418299,38.78184183,
moksha-beer-san-jose,Moksha Beer,contract,,,,San Jose,California,,95154-0279,http://www.mokshabeer.com,4157295796,United States,-121.8905833,37.3361905,
monkey-paw-brewing-san-diego,Monkey Paw Brewing,micro,807 16th St,,,San Diego,California,,92101-6610,http://www.monkeypawbrewing.com,6198672226,United States,-117.149375,32.71384441,
monkish-brewing-co-torrance,Monkish Brewing Co,micro,20311 S Western Ave,,,Torrance,California,,90501-1504,http://www.monkishbrewing.com,3102952157,United States,-118.3101863,33.8465751,
monks-cellar-roseville,Monk's Cellar,brewpub,240 Vernon St,,,Roseville,California,,95678-2633,http://monkscellar.com,9167866665,United States,-121.2833983,38.74958737,
monterey-coast-brewing-salinas,Monterey Coast Brewing,brewpub,165 Main Street,,,Salinas,California,,93901,http://www.montereycoastbrewing.com,8317582337,United States,,,
moonlight-brewing-co-santa-rosa,Moonlight Brewing Co,large,3350 Coffey Ln Ste A,,,Santa Rosa,California,,95403-7412,http://www.moonlightbrewing.com,7075282537,United States,,,
moonraker-brewing-co-auburn,Moonraker Brewing Co.,micro,12970 Earhart Ave Ste 100,,,Auburn,California,,95602-9022,http://www.moonrakerbrewing.com,5307456816,United States,,,
moonraker-brewing-company-production-facility-auburn,Moonraker Brewing Company (Production Facility),micro,2349 Rickenbacker Way,,,Auburn,California,,95602,,5307456816,United States,-121.0813686,38.95249916,
morgan-territory-brewing-tracy,Morgan Territory Brewing,micro,1885 N Macarthur Dr,,,Tracy,California,,95376-2820,http://www.morganterritorybrewing.com,2098348664,United States,-121.4145449,37.7545317,
mother-earth-brew-co-llc-vista,Mother Earth Brew Co LLC,regional,2055 Thibodo Rd Ste H,,,Vista,California,,92081-7991,http://www.motherearthbrewco.com,7605428868,United States,,,
motobrewer-san-francisco,Motobrewer,planning,,,,San Francisco,California,,94112-1330,http://www.motobrewer.com,,United States,-122.4192363,37.7792808,
mount-shasta-brewing-co-weed,Mount Shasta Brewing Co,micro,360 College Ave,,,Weed,California,,96094-2706,http://www.weedales.com,5309382394,United States,-122.3866251,41.41662138,
mountain-rambler-brewery-bishop,Mountain Rambler Brewery,micro,186 S Main St,,,Bishop,California,,93514-3415,http://www.mountainramblerbrewery.com,7602581348,United States,-118.3944494,37.3606708,
moylans-brewery-and-restaurant-novato,Moylan's Brewery & Restaurant,brewpub,15 Rowland Way,,,Novato,California,,94945-5001,http://www.moylans.com,4158984677,United States,-122.5570548,38.09448604,
mraz-brewing-company-el-dorado-hills,Mraz Brewing Company,micro,2222 Francisco Dr Ste 510,,,El Dorado Hills,California,,95762-3766,http://www.mrazbrewingcompany.com,9169340744,United States,,,
mspecial-brewing-company-goleta,M.Special Brewing Company,micro,6860 Cortona Dr Ste C,,,Goleta,California,,93117-5507,http://www.mspecialbrewco.com,,United States,,,
mt-lowe-brewing-company-arcadia,Mt Lowe Brewing Company,micro,150 E Saint Joseph St,,,Arcadia,California,,91006-2851,http://www.mtlowebrewing.com,6262447593,United States,-118.0268254,34.14332231,
mumford-brewing-company-los-angeles,Mumford Brewing Company,micro,416 Boyd St,,,Los Angeles,California,,90013-1631,http://www.mumfordbrewing.com,6263759353,United States,-118.2425998,34.0464181,
napa-palisades-beer-company-napa,Napa Palisades Beer Company,proprietor,1000 Main St,,,Napa,California,,94559-2645,http://www.napapalisadesbeer.com,7072961552,United States,-122.285449,38.299359,
napa-smith-brewery-vallejo,Napa Smith Brewery,micro,101 Yolano Dr,,,Vallejo,California,,94589-2250,http://www.napasmithbrewery.com,7072552912,United States,-122.259292,38.132142,
napa-valley-brewing-co-calistoga-inn-calistoga,Napa Valley Brewing Co/ Calistoga Inn,brewpub,1250 Lincoln Ave,,,Calistoga,California,,94515-1741,http://www.napabeer.com,7079424101,United States,-122.5796312,38.57693444,
naughty-oak-brewing-company-orcutt,Naughty Oak Brewing Company,micro,165 S Broadway St Ste 102,,,Orcutt,California,,93455-4627,http://www.naughtyoak.com,8052879663,United States,,,
network-brewery-santa-ana,Network Brewery,micro,1824 Carnegie Ave,,,Santa Ana,California,,92705-5503,http://www.networkbrewery.com,6578598004,United States,-117.845559,33.7119033,
new-bohemia-brewing-co-santa-cruz,New Bohemia Brewing Co,brewpub,1030 41st Ave,,,Santa Cruz,California,,95062-4447,http://www.nubobrew.com,8313500253,United States,-121.9647935,36.96661524,
new-english-brewing-co-inc-san-diego,New English Brewing Co Inc,micro,11545 Sorrento Valley Rd Ste 305,,,San Diego,California,,92121-1322,http://www.newenglishbrewing.com,6198578023,United States,-117.230519,32.912641,
new-glory-craft-brewery-sacramento,New Glory Craft Brewery,micro,8251 Alpine Ave,,,Sacramento,California,,95826-4708,http://www.newglorybeer.com,9164519355,United States,-121.402102,38.53562933,
new-helvetia-brewing-company-sacramento,New Helvetia Brewing Company,micro,1730 Broadway,,,Sacramento,California,,95818-2320,http://www.newhelvetiabrew.com,9164699889,United States,-121.4899398,38.5607772,
newport-beach-brewing-co-newport-beach,Newport Beach Brewing Co,brewpub,2920 Newport Blvd Frnt,,,Newport Beach,California,,92663-3758,http://www.nbbrewco.com,9496758449,United States,,,
nickel-beer-co-julian,Nickel Beer Co,micro,1485 Hollow Glen Rd,,,Julian,California,,92036,http://www.nickelbeerco.com,7607652337,United States,-116.5901544,33.07629942,
no-clue-craft-brewery-rancho-cucamonga,No Clue Craft Brewery,micro,9037 Arrow Rte Ste 170,,,Rancho Cucamonga,California,,91730-4433,http://www.nocluebrew.com,9099892394,United States,-117.5410707,34.0990988,
noble-ale-works-anaheim,Noble Ale Works,micro,1621 S Sinclair St Ste B,,,Anaheim,California,,92806-5947,http://www.noblealeworks.com,7146342739,United States,,,
north-coast-brewing-co-inc-fort-bragg,North Coast Brewing Co Inc.,regional,455 N Main St,,,Fort Bragg,California,,95437-3215,http://www.northcoastbrewing.com,7079642739,United States,-123.8057604,39.44618406,
north-park-beer-co-san-diego,North Park Beer Co.,micro,3038 University Ave,,,San Diego,California,,92104-3002,http://www.northparkbeerco.com,6192552946,United States,-117.129137,32.748724,
northern-pine-brewing-oceanside,Northern Pine Brewing,micro,326 N Horne St,,,Oceanside,California,,92054-2810,http://www.northernpinebrewing.com,7607541434,United States,-117.376798,33.199836,
novel-brewing-company-oakland,Novel Brewing Company,micro,6510 San Pablo Ave,,,Oakland,California,,94608-1236,http://novelbrewing.com,5109229974,United States,-122.282003,37.837819,
novo-brazil-brewing-company-chula-vista,Novo Brazil Brewing Company,micro,901 Lane Ave # 100,,,Chula Vista,California,,91914-3501,http://www.novobrazilbrewing.com,6198694274,United States,-116.9613594,32.6518762,
oak-grove-brewing-company-glendale,Oak Grove Brewing Company,planning,,,,Glendale,California,,91208-1836,http://Www.oakgrovebrewingcompany.com,8183199577,United States,-118.2462486,34.192912,
oak-hills-brewing-hesperia,Oak Hills Brewing,micro,12221 Poplar St Ste 3,,,Hesperia,California,,92344-9287,http://www.oakhillsbrewing.com,7602448278,United States,,,
oak-park-brewing-co-sacramento,Oak Park Brewing Co,brewpub,3514 Broadway,,,Sacramento,California,,95817-2825,http://www.opbrewco.com,9166602723,United States,-121.4681046,38.55062715,
oakland-united-beerworks-oakland,Oakland United Beerworks,micro,3775 Alameda Ave Ste G,,,Oakland,California,,94601-3920,http://www.oaklandunitedbeerworks.com,5102518898,United States,,,
ocean-beach-brewery-san-diego,Ocean Beach Brewery,brewpub,5041 Newport Ave,,,San Diego,California,,92107-3009,,6199558053,United States,-117.252024,32.747109,
oceanside-ale-works-oceanside,Oceanside Ale Works,micro,1800 Ord Way,,,Oceanside,California,,92056-1502,http://www.oceansidealeworks.net,7607214253,United States,,,
oceanside-brewing-company-oceanside,Oceanside Brewing Company,micro,312 Via Del Norte,,,Oceanside,California,,92058-1232,http://www.oceansidebrewingco.com,7604537900,United States,-117.3529573,33.21369735,
oda-restaurant-san-francisco,Oda Restaurant,brewpub,1500 Owens St,,,San Francisco,California,,94158-2334,http://www.barodasf.com,4155589450,United States,-122.3954096,37.7687392,
off-the-grid-brewing-co-apple-valley,Off the Grid Brewing Co,micro,13615 John Glenn Rd Ste A,,,Apple Valley,California,,92308-5730,http://www.otgbrew.com,7602475600,United States,,,
offshoot-beer-co-placentia,Offshoot Beer Co.,micro,737 Dunn Way,,,Placentia,California,,92870,http://www.offshootbeer.com,7149966258,United States,-117.880182,33.86112597,
oggis-pizza-and-brewing-co-carmel-mountain-ranch-san-diego,Oggis Pizza & Brewing Co - Carmel Mountain Ranch,brewpub,10155 Rancho Carmel Dr,,,San Diego,California,,92128-3609,http://www.oggis.com,8585927883,United States,-117.089795,32.965495,
oggis-pizza-and-brewing-co-mission-valley-san-diego,Oggis Pizza & Brewing Co - Mission Valley,brewpub,2245 Fenton Pkwy Ste 108 Fenton Marketplace,,,San Diego,California,,92108-4737,http://www.oggis.com,6196401072,United States,,,
oggis-sports-brewhouse-pizza-apple-valley-apple-valley,Oggi's Sports Brewhouse Pizza - Apple Valley,brewpub,19201 Bear Valley Rd Ste D,,,Apple Valley,California,,92308-2704,http://www.oggis.com,7607922622,United States,,,
ogopogo-brewing-san-gabriel,Ogopogo Brewing,micro,864 Commercial Ave,,,San Gabriel,California,,91776,http://www.ogopogobrewco.com,,United States,-118.0891476,34.096219,
ohana-brewing-co-los-angeles,Ohana Brewing Co,micro,1756 E 23rd St,,,Los Angeles,California,,90058-1012,http://www.ohanabrew.com,6262822337,United States,-118.2415609,34.01575629,
ol-republic-brewery-nevada-city,Ol' Republic Brewery,micro,124 Argall Way,,,Nevada City,California,,95959-3002,http://www.olrepublicbrewery.com,5302647263,United States,-121.0244602,39.25272303,
ol-republic-brewery-rancho-cordova-rancho-cordova,Ol' Republic Brewery Rancho Cordova,micro,11151 Trade Center Dr Ste 104,,,Rancho Cordova,California,,95670,,9162158702,United States,-121.2706039,38.60219217,
old-290-brewery-santa-ana,Old 290 Brewery,planning,,,,Santa Ana,California,,92704-7463,,7145464255,United States,-117.8732213,33.7494951,
old-bus-tavern-san-francisco,Old Bus Tavern,brewpub,3193 Mission St,,,San Francisco,California,,94110-4515,http://www.oldbustavern.com,4158431938,United States,-122.4195103,37.745701,
old-country-brewing-fairfield,Old Country Brewing,planning,,,,Fairfield,California,,94533-7790,,,United States,-122.0399663,38.2493581,
old-hangtown-beer-works-placerville,Old Hangtown Beer Works,micro,,,,Placerville,California,,95667,,5309195166,United States,-120.798546,38.7296252,
old-hangtown-beer-works-rancho-cordova,Old Hangtown Beer Works,micro,11327 Trade Center Dr Ste 350,,,Rancho Cordova,California,,95742-6285,http://www.oldhangtownbeerworks.com,5309195166,United States,-121.264149,38.6075491,
old-kan-beer-and-co-oakland,Old Kan Beer & Co,brewpub,95 Linden St,,,Oakland,California,,94607-2510,http://www.old-kan.com,5103383965,United States,-122.2879928,37.7995945,
old-possum-brewing-company-santa-rosa,Old Possum Brewing Company,brewpub,357 Sutton Pl,,,Santa Rosa,California,,95407,http://www.oldpossumbrewing.com,7073037177,United States,-122.7252078,38.39097419,
old-redwood-brewing-co-windsor,Old Redwood Brewing Co.,micro,9000 Windsor Rd # A,,,Windsor,California,,95492-9701,http://www.oldredwoodbrewing.com,7076577624,United States,,,
old-stump-brewery-pomona,Old Stump Brewery,micro,2896 Metropolitan Pl,,,Pomona,California,,91767-1854,http://www.oldstumpbrewery.com,9098609052,United States,-117.7541465,34.09763808,
omeara-bros-brewing-company-lakeport,O'Meara Bros. Brewing Company,brewpub,901 Bevins St,,,Lakeport,California,,95453-8778,http://www.omearabros.com,7072621234,United States,-122.9245547,39.04005267,
origin-brewer-richmond,Origin Brewer,micro,,,,Richmond,California,,94805-2121,,,United States,-122.3477486,37.9357576,
original-pattern-brewing-company-oakland,Original Pattern Brewing Company,micro,292 4th St,,,Oakland,California,,94607-4332,http://www.originalpatternbeer.com,5108444833,United States,-122.2718245,37.796075,
out-of-bounds-brewing-company-rocklin,Out of Bounds Brewing Company,micro,4480 Yankee Hill Rd Ste 100,,,Rocklin,California,,95677-1633,,,United States,-121.2289797,38.80045074,
outbreak-brewing-co-placerville,Outbreak Brewing Co.,micro,640 Main St,,,Placerville,California,,95667-5704,http://www.outbreakbrewing.com,5307483258,United States,-120.794212,38.7293661,
outpost-brewing-co-south-lake-tahoe,Outpost Brewing Co,micro,932 Stateline Ave,,,South Lake Tahoe,California,,96150-6913,,5304949805,United States,-119.9450001,38.96097394,
pacific-beach-ale-house-san-diego,Pacific Beach Ale House,brewpub,721 Grand Ave,,,San Diego,California,,92109-3905,http://www.pbalehouse.com,8585812337,United States,-117.255265,32.794255,
pacific-brew-lab-belmont,Pacific Brew Lab,contract,111 Industrial Way,,,Belmont,California,,94002-8202,http://www.pacbrewlab.com,4159377843,United States,,,
pacific-islander-beer-company-santee,Pacific Islander Beer Company,micro,8665 Argent St ste b,,,Santee,California,,92071-4180,http://www.pibbeer.com,6192707777,United States,,,
pacific-plate-brewing-co-monrovia,Pacific Plate Brewing Co,micro,1999 S Myrtle Ave,,,Monrovia,California,,91016-4854,http://www.pacificplatebrewing.com,6262398456,United States,-118.0010497,34.1492456,
packinghouse-brewing-co-the-riverside,"Packinghouse Brewing Co, The",micro,6421 Central Ave Ste 101,,,Riverside,California,,92504-1450,http://pbbeer.com,9513339261,United States,,,
palmia-san-francisco,Palmia,proprietor,3749 Divisadero St,,,San Francisco,California,,94123-1010,http://www.palmiabeer.com,4153853100,United States,-122.4438993,37.804342,
palo-alto-brewing-co-mountain-view,Palo Alto Brewing Co,contract,1080B La Avenida St,,,Mountain View,California,,94043-1422,http://www.paloaltobrewing.com,,United States,-122.0717657,37.41326789,
papa-marces-cerveceria-carlsbad,Papa Marce's Cerveceria,planning,,,,Carlsbad,California,,92008,http://www.papamarces.com,8584146976,United States,-117.3505966,33.1580933,
paperback-brewing-company-woodland-hills,Paperback Brewing Company,planning,,,,Woodland Hills,California,,91367-2912,http://www.paperback.la,,United States,-118.6059197,34.1683386,
paraiso-brewery-los-banos,Paraiso Brewery,micro,80 W G St,,,Los Banos,California,,93635-3659,http://paraisobrewery.com,2098552337,United States,,,
pariah-brewing-company-san-diego,Pariah Brewing Company,micro,3052 El Cajon Blvd Ste B,,,San Diego,California,,92104-1618,http://www.pariahbrewingco.com,6196420545,United States,,,
paystreak-brewing-etna,Paystreak Brewing,brewpub,449 Main Street,,,Etna,California,,96027,http://www.paystreakbrewing.com,5304672337,United States,-122.8937015,41.4565805,
pedro-point-brewing-pacifica,Pedro Point Brewing,micro,55A Bill Drake Way,,,Pacifica,California,,94044,http://www.pedropointbrewing.com,6502889149,United States,-122.4910217,37.65116158,
pennyweight-craft-brewing-livermore,Pennyweight Craft Brewing,planning,,,,Livermore,California,,94550,http://www.pennyweightbrew.com,5107541685,United States,-121.7680531,37.6820583,
pentagonal-brewing-co-imperial,Pentagonal Brewing Co,micro,115 N Imperial Ave Suite A,,,Imperial,California,,92251-1250,http://www.facebook.com/Pentagonalbrewingcompany/,7605451045,United States,,,
peter-bs-brewpub-monterey,Peter B's Brewpub,brewpub,2 Portola Plz Behind The Portola Hotel,,,Monterey,California,,93940-2419,http://www.peterbsbrewpub.com,8316492699,United States,,,
phantom-ales-anaheim,Phantom Ales,brewpub,1211 N Las Brisas St,,,Anaheim,California,,92806-1823,http://www.phantomales.com,7146309463,United States,-117.8667466,33.8540325,
phantom-carriage-brewery-gardena,Phantom Carriage Brewery,brewpub,18525 S Main St,,,Gardena,California,,90248-4611,http://www.phantomcarriage.com,3105385834,United States,,,
pine-and-palm-brewing-fresno,Pine and Palm Brewing,micro,352 W Bedford Ave Ste 102,,,Fresno,California,,93711-6079,http://www.pineandpalmbrewing.com,,United States,,,
pine-street-brewery-san-francisco,Pine Street Brewery,micro,,,,San Francisco,California,,94109-4929,http://www.pinestreetbrewery.com,4157444062,United States,-122.4192363,37.7792808,
pismo-brewing-co-pismo-beach,Pismo Brewing Co,micro,500 Cypress St,,,Pismo Beach,California,,93449-2624,http://www.pismobrew.com,8052956200,United States,-120.6409192,35.13908295,
pizza-port-bressi-ranch-carlsbad,Pizza Port - Bressi Ranch,regional,2730 Gateway Rd,,,Carlsbad,California,,92009-1730,http://www.pizzaport.com,7607071655,United States,-117.2510773,33.12807761,
pizza-port-carlsbad-carlsbad,Pizza Port Carlsbad,regional,571 Carlsbad Village Dr,,,Carlsbad,California,,92008-2304,http://www.pizzaport.com,7607207007,United States,-117.3477152,33.1598703,
pizza-port-ocean-beach-san-diego,Pizza Port Ocean Beach,brewpub,1956 Bacon St,,,San Diego,California,,92107-2844,http://www.pizzaport.com,6192244700,United States,-117.2503592,32.74799385,
pizza-port-san-clemente-san-clemente,Pizza Port San Clemente,brewpub,301 N El Camino Real,,,San Clemente,California,,92672-4716,http://www.pizzaport.com,9499400005,United States,-117.613484,33.4288345,
pizza-port-solana-beach-solana-beach,Pizza Port Solana Beach,brewpub,135 N Highway 101,,,Solana Beach,California,,92075-1128,http://www.pizzaport.com,8584817332,United States,-117.2737068,32.9977749,
placerville-brewing-co-placerville,Placerville Brewing Co,brewpub,155 Placerville Dr,,,Placerville,California,,95667-3909,http://www.placervillebrewing.com,5302959166,United States,-120.8370686,38.7276787,
plan-9-alehouse-escondido,Plan 9 Alehouse,brewpub,155 E Grand Ave,,,Escondido,California,,92025-2701,http://www.plan9alehouse.com,7604898817,United States,-117.0821707,33.12121471,
pleasanton-main-st-brewery-pleasanton,Pleasanton Main St Brewery,brewpub,830 Main St Frnt,,,Pleasanton,California,,94566-6652,http://www.mainstbrewery.com,9254628218,United States,,,
plow-brewing-company-santa-rosa,Plow Brewing Company,micro,3334 Industrial Dr,,,Santa Rosa,California,,95403-2011,http://www.sonomacounty.com/brewery/plow-brewing-company,7078434583,United States,-122.740072,38.47455222,
pocock-brewing-company-santa-clarita,Pocock Brewing Company,micro,24907 Avenue Tibbitts Ste B,,,Santa Clarita,California,,91355-3487,http://www.pocockbrewing.com,6617754899,United States,-118.571182,34.43079435,
poor-house-brewing-san-diego,Poor House Brewing,micro,4494 30th St,,,San Diego,California,,92116-4287,http://www.poorhousebrew.com,8587699070,United States,-117.130404,32.758977,
porchlight-brewing-company-sacramento,Porchlight Brewing Company,micro,866 57th St,,,Sacramento,California,,95819-3327,http://www.porchlightbrewingcompany.com,9164765384,United States,-121.4334621,38.5659589,
port-brewing-co-the-lost-abbey-san-marcos,Port Brewing Co / The Lost Abbey,micro,155 Mata Way Ste 104,,,San Marcos,California,,92069-2983,http://www.portbrewing.com,8009186816,United States,-117.149141,33.141537,
port-opints-brewing-co-crescent-city,Port O'Pints Brewing Co.,brewpub,1215 Northcrest Dr,,,Crescent City,California,,95531-2320,http://www.portopints.com,7074601154,United States,-124.1993085,41.76863139,
port-town-brewing-co-san-pedro,Port Town Brewing Co,proprietor,700-726 S Centre St,,,San Pedro,California,,90731,http://www.porttownbrewing.com,3105086013,United States,,,
poseidon-brewing-company-ventura,Poseidon Brewing Company,micro,5777 Olivas Park Dr Unit Q,,,Ventura,California,,93003-7928,http://www.poseidonbrewingco.com,8054770239,United States,,,
progress-brewing-south-el-monte,Progress Brewing,micro,1822 Chico Ave,,,South El Monte,California,,91733-2944,http://progress-brewing.com,6265529603,United States,-118.0598847,34.04935718,
prohibition-brewing-vista,Prohibition Brewing,brewpub,2004 E Vista Way,,,Vista,California,,92084-3321,http://www.prohibitionbrewingcompany.com,7602953525,United States,-117.226841,33.230457,
protector-brewery-san-diego,Protector Brewery,micro,8680 Miralani Dr Ste 128,,,San Diego,California,,92126-6392,http://www.protectorbrewery.com,8587579160,United States,-117.137429,32.896584,
pure-order-brewing-co-santa-barbara,Pure Order Brewing Co,micro,410 N Quarantina St,,,Santa Barbara,California,,93103-3119,http://www.pureorderbrewing.com,8059662881,United States,-119.6864979,34.42351207,
pure-project-san-diego,Pure Project,micro,9030 Kenamar Dr Ste 308,,,San Diego,California,,92121-2432,http://www.purebrewing.org,8582526143,United States,-117.1555351,32.88830151,
quantum-brewing-co-san-diego,Quantum Brewing Co,micro,5375 Kearny Villa Rd Ste 116,,,San Diego,California,,92123-1422,http://www.quantumbrewingsd.com,8582546481,United States,-117.1170304,32.8901624,
red-branch-brewing-company-rabbits-foot-meadery-sunnyvale,Red Branch Brewing Company / Rabbits Foot Meadery,micro,1246 Birchwood Dr,,,Sunnyvale,California,,94089-2205,http://www.redbranchcider.com,4087470770,United States,-121.9920827,37.40446295,
red-bus-brewing-company-folsom,Red Bus Brewing Company,micro,802 Reading St Ste A,,,Folsom,California,,95630-3061,http://www.redbusbrew.com,9169857299,United States,,,
red-car-brewery-and-restaurant-torrance,Red Car Brewery and Restaurant,brewpub,1266 Sartori Ave,,,Torrance,California,,90501-2717,http://www.redcarbrewery.com,3107820222,United States,-118.3161274,33.83534411,
red-tandem-brewery-oxnard,Red Tandem Brewery,micro,1009 Harbor Blvd,,,Oxnard,California,,93035-1131,http://www.redtandembrewery.com,8058324023,United States,-119.2474328,34.2068743,
redwood-curtain-brewing-co-arcata,Redwood Curtain Brewing Co,micro,550 S G St Ste 6,,,Arcata,California,,95521-6683,http://www.redwoodcurtainbrewing.com,7078267222,United States,,,
reel-brew-co-los-angeles,Reel Brew Co.,contract,Â 7037 Laurel Canyon Boulevard,,,Los Angeles,California,,91605,,,United States,,,
refuge-brewery-inc-temecula,"Refuge Brewery, Inc.",micro,43040 Rancho Way Ste 200,,,Temecula,California,,92590-5400,http://www.refugebrew.com,9515060609,United States,,,
relentless-brewing-co-temecula,Relentless Brewing Co,micro,42030 Avenida Alvarado Ste F,,,Temecula,California,,92590-3404,http://www.relentlessbrewing.com,9512969400,United States,,,
rescue-brewing-co-upland,Rescue Brewing Co,micro,167 N 2nd Ave,,,Upland,California,,91786-6019,http://www.rescuebrewingco.com,9095362739,United States,-117.6485203,34.09582106,
resident-brewing-san-diego,Resident Brewing,micro,411 C St,,,San Diego,California,,92101-5105,http://www.residentbrewing.com,6197176622,United States,-117.1608785,32.71667995,
rev-brewing-co-covina,REV Brewing Co,micro,1580 W San Bernardino Rd Ste H,,,Covina,California,,91722-3457,http://www.revwineryandbrewingco.com,6263889949,United States,,,
right-eye-brewing-co-suisun-city,Right Eye Brewing Co,micro,301 Spring St,,,Suisun City,California,,94585,http://www.righteyebrewing.com,7074161347,United States,-122.041544,38.242484,
riip-beer-company-huntington-beach,Riip Beer Company,micro,17216 Pacific Coast Hwy,,,Huntington Beach,California,,92649-4116,http://www.riipbeer.com,7142486710,United States,-117.9872302,33.6480028,
rileys-brew-pub-clovis,Riley's Brew Pub,brewpub,2674 Owens Mountain Pkwy Ste 104,,,Clovis,California,,93611-9588,http://rileysbrew.pub,5598622925,United States,-119.6452626,36.855494,
rileys-brewing-co-madera,Riley's Brewing Co,micro,28777 Avenue 15 1/2,,,Madera,California,,93638-2316,http://www.rileysbrewing.us,5596738021,United States,-120.0206226,36.97445553,
rincon-brewery-carpinteria,Rincon Brewery,brewpub,5065 Carpinteria Ave,,,Carpinteria,California,,93013-2046,http://www.rinconbrewery.com,8056846044,United States,-119.5178586,34.39834,
rip-current-brewery-san-marcos,Rip Current Brewery,micro,1325 Grand Ave Ste 100,,,San Marcos,California,,92078-2451,http://www.ripcurrentbrewing.com,7604813141,United States,,,
rip-current-brewing-north-park-san-diego,Rip Current Brewing North Park,brewpub,4101 30th St,,,San Diego,California,,92104-1905,http://www.ripcurrentbrewing.com,7604813141,United States,-117.129808,32.752388,
ritual-brewing-co-redlands,Ritual Brewing Co,micro,1315 Research Dr,,,Redlands,California,,92374-4583,http://www.ritualbrewing.com,9094787800,United States,-117.2369995,34.0705986,
river-city-brewing-co-sacramento,River City Brewing Co,brewpub,545 Downtown Plz Ste 1115,,,Sacramento,California,,95814-3338,http://www.rivercitybrewing.net,9165505093,United States,,,
river-rock-brewery-galt,River Rock Brewery,micro,807 C St,,,Galt,California,,95632-1706,http://riverrockbrewery.com,2093316071,United States,-121.3004126,38.2532789,
rock-bottom-brewery-la-jolla-la-jolla,Rock Bottom Brewery - La Jolla,brewpub,8980 Villa La Jolla Dr,,,La Jolla,California,,92037-1701,http://www.rockbottom.com,8584509277,United States,-117.23519,32.870929,
rock-bottom-brewery-long-beach-long-beach,Rock Bottom Brewery - Long Beach,brewpub,1 Pine Ave,,,Long Beach,California,,90802-4759,http://www.rockbottom.com,5623082255,United States,-118.192482,33.767797,
rock-bottom-brewery-san-jose-campbell,Rock Bottom Brewery - San Jose,brewpub,1875 S Bascom Ave Ste 700,,,Campbell,California,,95008-2310,http://www.rockbottom.com,4083770707,United States,,,
rocksteady-brewing-co-martinez,Rocksteady Brewing Co.,brewpub,611 Escobar St,,,Martinez,California,,94553-1111,http://www.creekmonkey.com,9252288787,United States,-122.1378119,38.0177998,
rocky-hill-brewing-exeter,Rocky Hill Brewing,micro,20147 Avenue 306,,,Exeter,California,,93221-9763,,5595924594,United States,,,
rocland-beverage-co-ukiah,Rocland Beverage Co,contract,1601 Airport Rd,,,Ukiah,California,,95482-6456,http://www.asskisserales.com,7076577721,United States,-123.199573,39.126287,
rok-house-brewing-co-llc-upland,"Rok House Brewing Co., LLC",micro,1939 W 11th St Ste A,,,Upland,California,,91786-3559,http://www.rokhousebrewing.com,9099810020,United States,,,
roses-taproom-oakland,Roses' Taproom,micro,4930 Telegraph Ave,,,Oakland,California,,94609-2012,http://www.rosestaproom.com,5108583969,United States,-122.2683709,37.8143551,
rough-draft-brewing-san-diego,Rough Draft Brewing,micro,8830 Rehco Rd Ste D,,,San Diego,California,,92121-3263,http://www.roughdraftbrew.com,8584537238,United States,,,
rouleur-brewing-company-carlsbad,Rouleur Brewing Company,micro,5840 El Camino Real Ste 101,,,Carlsbad,California,,92008-8804,http://www.rouleurbrewing.com,4422445111,United States,-117.269558,33.133904,
route-30-brewing-company-riverside,Route 30 Brewing Company,micro,9860 Indiana Ave Ste 19,,,Riverside,California,,92503-5515,,9517767083,United States,,,
rowdys-brewing-company-rancho-cucamonga,Rowdy's Brewing Company,micro,10002 6th St Ste A,,,Rancho Cucamonga,California,,91730-5784,http://rowdysbrewco.com,9099292722,United States,,,
rugged-coast-brewing-santa-rosa,Rugged Coast Brewing,micro,817 Piner Ave,,,Santa Rosa,California,,95403,http://www.ruggedcoastbrewing.com,4156027272,United States,,,
ruhstaller-beer-dixon,Ruhstaller Beer,micro,"800 Business Park Drive, Suite G",,,Dixon,California,,95620,,5306018240,United States,,,
ruhstaller-beer-sacramento,Ruhstaller Beer,micro,726 K St,,,Sacramento,California,,95814-3403,http://www.ruhstallerbeer.com,9169195691,United States,-121.497428,38.58004528,
russian-river-brewing-co-production-santa-rosa,Russian River Brewing Co - Production,micro,1812 Ferdinand Ct,,,Santa Rosa,California,,95404-5968,http://www.russianriverbrewing.com,,United States,-122.7094385,38.4216577,
russian-river-brewing-co-santa-rosa,Russian River Brewing Co,regional,725 4th St,,,Santa Rosa,California,,95404-4407,http://www.russianriverbrewing.com,7075452337,United States,-122.7116607,38.4418139,
sackbut-brewing-and-barrelwerks-fresno,Sackbut Brewing and Barrelwerks,micro,3153 E Huntington Blvd,,,Fresno,California,,93702-3215,http://www.sackbutbrewing.com,,United States,-119.7715206,36.73946658,
sacrament-brewing-sacramento,Sacrament Brewing,micro,1616 J st.,,,Sacramento,California,,95814,http://www.sacramentbrewing.com,3102592158,United States,-121.4849275,38.57794927,
sacrilege-brewing-project-half-moon-bay,Sacrilege Brewing Project,brewpub,730 Main St,,,Half Moon Bay,California,,94019-1925,,6502767029,United States,-122.4299132,37.460938,
sactown-union-brewery-sacramento,Sactown Union Brewery,micro,1210 66th St Unit B,,,Sacramento,California,,95819-4327,http://sactownunion.com,9162724472,United States,,,
saint-archer-brewing-company-san-diego,Saint Archer Brewing Company,large,9550 Distribution Ave,,,San Diego,California,,92121-2306,http://www.saintarcherbrewery.com,8582252337,United States,-117.163745,32.880445,
san-diego-brewing-co-san-diego,San Diego Brewing Co,brewpub,10450 Friars Rd Ste L,,,San Diego,California,,92120-2311,http://www.sandiegobrewing.com,6192842739,United States,,,
san-fernando-brewing-co-san-fernando,San Fernando Brewing Co.,micro,425 Park Ave,,,San Fernando,California,,91340-2525,http://www.sanfernandobrewingcompany.com,8187456175,United States,-118.4322067,34.2828803,
san-francisco-brewing-co-san-francisco,San Francisco Brewing Co,proprietor,900 N Point St West Plaza,,,San Francisco,California,,94109,http://www.sfbrewingco.com,4154842337,United States,,,
san-marcos-brewery-and-grill-san-marcos,San Marcos Brewery and Grill,brewpub,1080 W San Marcos Blvd Ste 180,,,San Marcos,California,,92078-4099,,7604710050,United States,,,
san-pedro-brewing-co-san-pedro,San Pedro Brewing Co,brewpub,331 W 6th St,,,San Pedro,California,,90731-3317,http://www.sanpedrobrewing.com,3108315663,United States,-118.2842712,33.7386421,
sanctum-brewing-co-pomona,Sanctum Brewing Co,micro,560 E Commercial St Ste 21,,,Pomona,California,,91767-5649,http://www.sanctumbrewing.com,9093450253,United States,,,
sandude-brewing-co-turlock,Sandude Brewing Co,micro,1401 Freitas Park,,,Turlock,California,,95380-6254,,2096781547,United States,-120.859873,37.479896,
santa-barbara-brewing-co-santa-barbara,Santa Barbara Brewing Co,brewpub,501 State St,,,Santa Barbara,California,,93101-1601,http://www.sbbrewco.com,8057301040,United States,-119.7526684,34.4404959,
santa-clara-valley-brewing-san-jose,Santa Clara Valley Brewing,micro,101 E Alma Ave,,,San Jose,California,,95112-5944,http://www.scvbrewing.com,4082885181,United States,-121.8738718,37.31635308,
santa-cruz-aleworks-santa-cruz,Santa Cruz Aleworks,brewpub,150 Dubois St Ste E,,,Santa Cruz,California,,95060-2114,http://www.santacruzaleworks.com,8314251182,United States,,,
santa-cruz-mountain-brewing-santa-cruz,Santa Cruz Mountain Brewing,brewpub,402 Ingalls St Ste 27,,,Santa Cruz,California,,95060-5869,,,United States,,,
santa-maria-brewing-co-santa-maria,Santa Maria Brewing Co,micro,1451 Fairway Dr,,,Santa Maria,California,,93455-1404,http://www.santamariabrewingco.com,,United States,,,
santa-monica-brew-works-santa-monica,Santa Monica Brew Works,micro,1920 Colorado Ave Ste C,,,Santa Monica,California,,90404-3414,http://www.santamonicabrewworks.com,3108287629,United States,,,
sante-adairius-rustic-ales-capitola,Sante Adairius Rustic Ales,micro,103 Kennedy Dr,,,Capitola,California,,95010-3641,http://www.rusticales.com,8313454867,United States,-121.9405748,36.9822865,
sauced-bbq-and-spirits-livermore,Sauced BBQ & Spirits,contract,2300 1st St Ste 120,,,Livermore,California,,94550-3141,http://www.saucedbbqandspirits.com,9259611300,United States,,,
savagewood-brewing-company-san-diego,Savagewood Brewing Company,micro,9879 Hibert St Ste F,,,San Diego,California,,92131-1058,http://www.savagewoodbrewing.com,8585770350,United States,,,
scholb-premium-ales-torrance,Scholb Premium Ales,micro,2964 Columbia St,,,Torrance,California,,90503-3806,http://www.drinkscholb.com,4243507303,United States,-118.339288,33.8431475,
schubros-brewery-san-ramon,Schubros Brewery,micro,12893 Alcosta Blvd Ste N,,,San Ramon,California,,94583-1305,http://www.schubros.com,9253270700,United States,,,
seabright-brewery-santa-cruz,Seabright Brewery,brewpub,519 Seabright Ave Ste 107,,,Santa Cruz,California,,95062-3482,http://www.seabrightbrewery.com,8314262739,United States,,,
seaquake-brewing-crescent-city,Seaquake Brewing,brewpub,400 Front St,,,Crescent City,California,,95531-4369,http://www.seaquakebrewing.com,7074654444,United States,-124.200063,41.749045,
second-chance-beer-company-san-diego,Second Chance Beer Company,micro,15378 Ave of Science Ste 222,,,San Diego,California,,92128-3451,http://www.secondchancebeer.com,8587056250,United States,-117.082033,32.994888,
second-son-brews-madera,Second Son Brews,micro,12810 Road 38,,,Madera,California,,93636-8671,,,United States,-119.8580965,36.93416059,
secret-trail-brewing-company-llc-chico,"Secret Trail Brewing Company, LLC",micro,132 Meyers St Ste 120,,,Chico,California,,95928-8002,http://ww.secrettrailbrewing.com,9167094820,United States,,,
seismic-brewing-co-santa-rosa,Seismic Brewing Co,micro,2932 Dutton Ave,,,Santa Rosa,California,,95407-5711,http://www.seismicbrewingco.com/,7075445996,United States,-122.7236203,38.4042275,
sequoia-brewing-co-tower-district-fresno,Sequoia Brewing Co - Tower District,brewpub,777 E Olive Ave,,,Fresno,California,,93728-3350,http://www.sequoiabrewing.com,5592645521,United States,-119.8019622,36.75774408,
seven-stills-san-francisco,Seven Stills,micro,1439 Egbert Ave Unit C,,,San Francisco,California,,94124-3221,http://www.sevenstillsofsf.com,4159140936,United States,,,
shadow-puppet-brewing-company-livermore,Shadow Puppet Brewing Company,brewpub,4771 Arroyo Vis Ste B,,,Livermore,California,,94551-4847,http://www.shadowpuppetbrewing.com,9254536498,United States,,,
shady-oak-barrel-house-santa-rosa,Shady Oak Barrel House,micro,420 1st St,,,Santa Rosa,California,,95401-6339,http://shadyoakbarrelhouse.com,7075958958,United States,-122.7154726,38.43709396,
shanty-irish-brewing-companyrooneys-irish-pub-santa-maria,Shanty Irish Brewing Company/Rooney's Irish Pub,brewpub,241 S Broadway St,,,Santa Maria,California,,93455-4657,http://www.rooneysirishpub.net,8059343777,United States,,,
shanty-shack-brewing-santa-cruz,Shanty Shack Brewing,brewpub,138 Fern St,,,Santa Cruz,California,,95060-2118,http://shantyshackbrewing.com,8313160800,United States,-122.030853,36.9859968,
shire-station-brewing-company-lemoore,Shire Station Brewing Company,micro,12913 17th Ave,,,Lemoore,California,,93245-9485,http://www.shirestation.com,5592502797,United States,,,
sidellis-lake-tahoe-south-lake-tahoe,Sidellis Lake Tahoe,brewpub,3350 Sandy Way,,,South Lake Tahoe,California,,96150,,5306003999,United States,-119.9698679,38.94472795,
sierra-nevada-brewing-co-chico,Sierra Nevada Brewing Co,regional,1075 E 20th St,,,Chico,California,,95928-6722,http://www.sierranevada.com,5308933520,United States,-121.8098801,39.7257632,
silos-napa,Silo's,brewpub,530 Main St,,,Napa,California,,94559-3378,http://www.silosnapa.com,7072515833,United States,-122.2828832,38.29617,
silva-brewing-paso-robles,Silva Brewing,micro,525 Pine St Ste B,,,Paso Robles,California,,93446-3185,http://www.silvabrewing.com,8053692337,United States,,,
siskiyou-brew-works-mccloud,Siskiyou Brew Works,brewpub,110 Squawvalley Rd,,,Mccloud,California,,96057,http://www.siskiyoubrewworks.com,5309255894,United States,,,
six-rivers-brewery-mckinleyville,Six Rivers Brewery,brewpub,1300 Central Ave,,,McKinleyville,California,,95519-6429,,,United States,-124.1003888,40.9260642,
skyland-ale-works-corona,Skyland Ale Works,micro,1869 Pomona Rd Ste E,,,Corona,California,,92880-1789,http://www.skylandaleworks.com,9518173037,United States,,,
slo-brewing-co-san-luis-obispo,SLO Brewing Co,micro,736 Higuera St,,,San Luis Obispo,California,,93401-3513,http://www.slobrew.com,8054595604,United States,-120.6640407,35.2793012,
slo-brewing-co-the-rock-san-luis-obispo,SLO Brewing Co - The Rock,brewpub,855 Aerovista Pl,,,San Luis Obispo,California,,93401-8056,,8057062915,United States,,,
smog-city-brewing-torrance,Smog City Brewing,micro,1901 del Amo Blvd Ste B,,,Torrance,California,,90501-1350,http://www.smogcitybrewing.com,3103207664,United States,,,
smog-city-brewing-wood-cellar-torrance,Smog City Brewing Wood Cellar,micro,1879 Del Amo Blvd,,,Torrance,California,,90501,http://www.smogcitybrewing.com,3103207664,United States,-118.3180205,33.8467722,
smoke-mountain-brewery-ventura,Smoke Mountain Brewery,micro,6520 Casitas Pass Rd,,,Ventura,California,,93001-9794,http://www.smokemtn.com,8058047954,United States,-119.4438779,34.39420959,
smoking-cannon-brewery-ramona,Smoking Cannon Brewery,micro,780 Main St Ste I,,,Ramona,California,,92065-2079,http://www.smokingcannonbrewery.com,7604077557,United States,,,
snowshoe-brewing-co-arnold,Snowshoe Brewing Co,brewpub,2050 Hwy 4,,,Arnold,California,,95223,http://www.snowshoebrewing.com,2097952272,United States,-120.3617024,38.2423881,
social-kitchen-and-brewery-san-francisco,Social Kitchen & Brewery,brewpub,1326 9th Ave,,,San Francisco,California,,94122-2309,http://www.socialkitchenandbrewery.com,4156810330,United States,-122.4660662,37.7635041,
societe-brewing-company-san-diego,Societe Brewing Company,micro,Societe Brewing Company 8262 Clairemont Mesa Blvd,,,San Diego,California,,92111-1702,,7138161157,United States,-117.1463568,32.8338146,
solarc-brewing-los-angeles,Solarc Brewing,contract,134 S Avenue 57,,,Los Angeles,California,,90042-4702,http://www.solarcbrewing.com,6319442990,United States,,,
solid-ground-brewing-diamond-springs,Solid Ground Brewing,brewpub,552 Pleasant Valley Road,,,Diamond Springs,California,,95619,http://www.solidgroundbrewing.com,5303447442,United States,-120.8219606,38.6932793,
solorio-brewing-co-rancho-cucamonga,Solorio Brewing Co,micro,9395 Feron Blvd Ste K,,,Rancho Cucamonga,California,,91730-4565,http://www.soloriobrewing.com,9097555400,United States,,,
solvang-brewing-co-solvang,Solvang Brewing Co,brewpub,1547 Mission Dr,,,Solvang,California,,93463-2607,http://www.solvangbrewingcompany.com,8056882337,United States,-120.1448663,34.59615466,
solvang-brewing-company-lompoc-lompoc,Solvang Brewing Company - Lompoc,brewpub,234 N H St,,,Lompoc,California,,93436-6022,http://www.solvangbrewing.com,9787292485,United States,-120.4574527,34.6419814,
sonoma-grille-sonoma,Sonoma Grille,brewpub,165 W Napa St,,,Sonoma,California,,95476-6626,http://www.sonomagrilleandbar.com,7079387542,United States,-122.4599821,38.29204322,
sonoma-springs-brewing-co-sonoma,Sonoma Springs Brewing Co,micro,19449 Riverside Dr Ste 101,,,Sonoma,California,,95476-6357,http://www.sonomaspringsbrewing.com,7079387422,United States,-122.477788,38.294506,
sons-of-liberty-aleworks-norco,Sons of Liberty Aleworks,micro,1780 Town and Country Dr Ste 101,,,Norco,California,,92860-3618,http://www.solaleworks.com,9514035122,United States,-117.5597542,33.9277892,
soquel-fermentation-project-los-gatos,Soquel Fermentation Project,micro,,,,Los Gatos,California,,95033,http://facebook.com/Soquel-Fermentation-Project-1661153424004618/,,United States,-121.9746797,37.226611,
south-bay-brewco-san-jose,South Bay Brewco,contract,930 McLaughlin Ave,,,San Jose,California,,95122-2611,,4082193696,United States,-121.8541694,37.3331712,
south-gate-brewing-co-oakhurst,South Gate Brewing Co,brewpub,40233 Enterprise Dr,,,Oakhurst,California,,93644-8839,http://www.southgatebrewco.com,8582321737,United States,-119.6618038,37.33172774,
south-lake-brewing-company-south-lake-tahoe,South Lake Brewing Company,micro,1920 Lake Tahoe Blvd,,,South Lake Tahoe,California,,96150-6307,http://www.southlakebeer.com,5305780087,United States,-120.0074997,38.9118004,
south-park-brewing-san-diego,South Park Brewing,brewpub,1517 30th St,,,San Diego,California,,92102-1503,http://www.southparkbrewing.com,6196109038,United States,-117.130074,32.7470971,
southern-pacific-brewing-san-francisco,Southern Pacific Brewing,brewpub,620 Treat Ave,,,San Francisco,California,,94110-2016,http://www.southernpacificbrewing.com,4153410152,United States,-122.4139896,37.7601311,
southpaw-bbq-and-southern-cooking-san-francisco,Southpaw BBQ & Southern Cooking,brewpub,2170 Mission St,,,San Francisco,California,,94110-1247,http://www.southpawbbqsf.com,4159349300,United States,-122.4195306,37.7634391,
speakeasy-ales-and-lagers-san-francisco,Speakeasy Ales and Lagers,micro,1195 Evans Ave,,,San Francisco,California,,94124-1704,http://www.goodbeer.com,4156423371,United States,-122.3808557,37.73854531,
sr-76-beerworks-valley-center,SR 76 Beerworks,micro,777 HARRAHS RINCON WAY,,,Valley Center,California,,92082,http://www.SR76beerworks.com,7607513100,United States,,,
st-clair-brown-winery-and-brewery-napa,St Clair Brown Winery & Brewery,micro,816 Vallejo St,,,Napa,California,,94559,http://www.stclairbrownwinery.com,7072555591,United States,-122.286082,38.304877,
st-florians-brewery-windsor,St. Florian's Brewery,micro,7704 Bell Rd Ste A,,,Windsor,California,,95492-8518,http://www.stfloriansbrewery.com,7078382739,United States,,,
stadium-brewing-co-aliso-viejo,Stadium Brewing Co,brewpub,26731 Aliso Creek Rd Ste C,,,Aliso Viejo,California,,92656-4811,http://www.stadiumbrewingco.com,9494489611,United States,,,
stadium-pizza-main-st-lake-elsinore,Stadium Pizza Main ST,brewpub,169 N Main St,,,Lake Elsinore,California,,92530-4005,http://www.stadiumpizza.com,9512282128,United States,,,
stadium-pizza-murrieta-wildomar,Stadium Pizza - Murrieta,brewpub,32278 Clinton Keith Rd Ste 101,,,Wildomar,California,,92595-7314,http://www.stadiumpizza.com,9516787826,United States,-117.2479529,33.5934458,
standard-deviant-brewing-san-francisco,Standard Deviant Brewing,micro,280 14th St,,,San Francisco,California,,94103-2420,http://www.standarddeviantbrewing.com,4155902550,United States,-122.4195984,37.76837929,
star-b-ranch-ramona,Star B Ranch,planning,,,,Ramona,California,,92065-6714,,,United States,-116.8675132,33.035378,
stash-brewing-co-garden-valley,Stash Brewing Co,micro,3782 Winding Creek Ln,,,Garden Valley,California,,95633-9773,http://stashbrewingco.com,4156804181,United States,,,
state-brewing-co-llc-gardena,State Brewing Co LLC,micro,1237 W 134th St Ste 2,,,Gardena,California,,90247-1962,http://www.statebrewingco.com,3108198179,United States,,,
state-room-brewery-san-rafael,State Room Brewery,brewpub,1132 4th St,,,San Rafael,California,,94901-3007,http://stateroombrewery.com,4152957929,United States,-122.5286585,37.97327448,
stateline-brewery-south-lake-tahoe,Stateline Brewery,brewpub,4118 Lake Tahoe Blvd Ste 1,,,South Lake Tahoe,California,,96150-6990,http://www.statelinebrewery.com,5305429000,United States,,,
steady-brewing-long-beach,Steady Brewing,micro,2936 Clark Ave,,,Long Beach,California,,90815,http://Www.steadybrewing.com,5623516793,United States,-118.133923,33.825078,
steel-bonnet-brewing-co-scotts-valley,Steel Bonnet Brewing Co,micro,20 Victor Sq Ste B,,,Scotts Valley,California,,95066-3518,http://www.steelbon.net,8314548429,United States,,,
steele-and-hops-public-house-santa-rosa,Steele and Hops Public House,brewpub,1901 Mendocino Ave,,,Santa Rosa,California,,95401,http://www.steeleandhops.com,7075232201,United States,-122.717258,38.459216,
steelhead-brewing-co-burlingame-station-burlingame,Steelhead Brewing Co - Burlingame Station,brewpub,333 California Dr,,,Burlingame,California,,94010-4114,http://www.steelheadbrewery.com,6503446050,United States,-122.3462607,37.5799728,
stereo-brewing-co-placentia,Stereo Brewing Co,micro,950 S Via Rodeo,,,Placentia,California,,92870-6775,http://www.stereobrewing.com,7149933390,United States,-117.8200802,33.86330957,
stone-brewing-co-escondido,Stone Brewing Co,regional,2120 Harmony Grove Rd,,,Escondido,California,,92029-2053,http://www.stonebrewing.com,7602947866,United States,-117.11565,33.109969,
stone-brewing-napa-napa,Stone Brewing Napa,brewpub,920-930 Third Street,,,Napa,California,,94559,,7602947899,United States,,,
stone-brewing-world-bistro-and-gardens-liberty-station-san-diego,Stone Brewing World Bistro & Gardens- Liberty Station,brewpub,2816 Historic Decatur Rd Ste 116,,,San Diego,California,,92106-6164,http://www.stonelibertystation.com,6192692200,United States,-117.21157,32.7405237,
stone-church-brewing-corona,Stone Church Brewing,micro,2785 Cabot Dr Ste 160,,,Corona,California,,92883-7388,http://www.stonechurchbrewing.com,3105676582,United States,-117.5046237,33.8131807,
storytellers-brewery-and-meet-house-llc-corona,"Storytellers Brewery and Meet House, LLC",planning,,,,Corona,California,,92880-1798,http://www.storytellersbrewery.com,9092475710,United States,-117.5664449,33.8752945,
stover-brewing-san-diego,Stover Brewing,planning,,,,San Diego,California,,92124-1426,http://www.stoverbrewing.com,6193634677,United States,-117.1627714,32.7174209,
strand-brewing-co-torrance,Strand Brewing Co,micro,2201 Dominguez St,,,Torrance,California,,90501-1418,http://www.strandbrewing.com,3105170900,United States,-118.3240401,33.8414814,
strike-brewing-co-san-jose,Strike Brewing Co,micro,2099 S 10th St Unit 30,,,San Jose,California,,95112-4116,http://www.strikebrewingco.com,6507146983,United States,,,
strum-brewing-company-ontario,Strum Brewing Company,micro,235 S Campus Ave,,,Ontario,California,,91761-1736,http://www.strumbrewing.com,9096786935,United States,-117.6412505,34.06156086,
stumblefoot-brewing-san-marcos,Stumblefoot Brewing,micro,1784 La Costa Meadows Dr Ste 103,,,San Marcos,California,,92078-5174,http://www.stumblefoot.com,7605663668,United States,-117.2194838,33.10419694,
stumptown-brewery-guerneville,Stumptown Brewery,brewpub,15045 River Rd,,,Guerneville,California,,95446-8043,,7078690705,United States,-122.9838017,38.51320677,
sudwerk-brewing-co-davis,Sudwerk Brewing Co,micro,2001 2nd St,,,Davis,California,,95618-5474,http://www.sudwerkbrew.com,5307562739,United States,-121.726084,38.546614,
sufferfest-beer-company-san-francisco,Sufferfest Beer Company,proprietor,1770 UNION STREET,,,San Francisco,California,,94123-3404,http://www.sufferfestbeer.com,4152386431,United States,-122.4283947,37.79807486,
sundowner-brewing-co-westlake-village,Sundowner Brewing Co.,micro,30961 Agoura Rd Ste 321,,,Westlake Village,California,,91361-5686,http://www.malibusundowner.com,8185979463,United States,-118.796231,34.14489484,
sunset-reservoir-brewing-company-san-francisco,Sunset Reservoir Brewing Company,brewpub,1735 Noriega St,,,San Francisco,California,,94122-4307,http://www.sunsetbeersf.com,4155718452,United States,-122.4823594,37.7538314,
super-owl-brewing-davis,Super Owl Brewing,micro,1260 Lake Blvd Ste 121,,,Davis,California,,95616-5669,http://www.superowlbrewing.com,5307465992,United States,-121.787547,38.55363515,
surf-brewery-ventura,Surf Brewery,micro,4561 Market St Ste A,,,Ventura,California,,93003-6483,http://www.surfbrewery.com,8056442739,United States,,,
surfridge-brewing-company-el-segundo,Surfridge Brewing Company,planning,,,,El Segundo,California,,90245-4209,http://www.surfridgebrewery.com,3108470283,United States,-118.383179,33.912594,
sutter-buttes-brewing-yuba-city,Sutter Buttes Brewing,brewpub,421 Center St,,,Yuba City,California,,95991-4505,http://www.sutterbuttesbrewing.com,5307907999,United States,-121.6149147,39.13723286,
tack-brewing-oakland,Tack Brewing,planning,,,,Oakland,California,,94618-1534,http://www.tackbrewing.com,8054044861,United States,-122.2713563,37.8044557,
tactical-ops-brewing-inc-fresno,Tactical OPS Brewing Inc.,proprietor,2985 N Burl 102,,,Fresno,California,,93727,http://www.tacticalopsbrewing.com,5593138759,United States,-119.6761563,36.7913344,
tahoe-mountain-brewing-company-tahoe-city,Tahoe Mountain Brewing Company,brewpub,475 N. Lake Blvd,,,Tahoe City,California,,96145,http://www.tahoebrewing.com,5305814677,United States,-120.141663,39.170687,
tahoe-mountain-brewing-company-truckee,Tahoe Mountain Brewing Company,micro,10990 Industrial Way Ste B104,,,Truckee,California,,96161-0258,http://tahoebrewing.com/,,United States,,,
tannery-bend-beerworks-napa,Tannery Bend Beerworks,brewpub,101 South Coombs Street Suite X,,,Napa,California,,94559,http://www.tannerybendbeerworks.com,7076815774,United States,,,
tap-and-vine-auburn,Tap and Vine,brewpub,907 Lincoln Way,,,Auburn,California,,95603,http://www.tapandvineauburn.com,5308898463,United States,-121.0694956,38.89956738,
tap-it-brewing-co-san-luis-obispo,Tap It Brewing Co,micro,675 Clarion Ct Ste 1,,,San Luis Obispo,California,,93401-8178,http://www.tapitbrewing.com,8055457702,United States,,,
taplands-brewery-santa-clara,Taplands Brewery,brewpub,1171 Homestead Rd Ste 110,,,Santa Clara,California,,95050-5479,http://www.taplands.com,4087092990,United States,-121.9460243,37.34814789,
taps-brewery-and-barrel-room-tustin,TAPS Brewery and Barrel Room,planning,,,,Tustin,California,,92780-7302,,,United States,-117.826166,33.7458511,
taps-fish-house-and-brewery-brea-brea,TAPS Fish House and Brewery - Brea,brewpub,101 E Imperial Hwy,,,Brea,California,,92821-4924,http://www.tapsbrea.com,7142570101,United States,-117.9018387,33.9171643,
taps-fish-house-and-brewery-corona-corona,TAPS Fish House and Brewery - Corona,brewpub,2745 Lakeshore Dr,,,Corona,California,,92883-7367,,9512775800,United States,-117.5088541,33.81408315,
tarantula-hill-brewing-company-thousand-oaks,Tarantula Hill Brewing Company,planning,,,,Thousand Oaks,California,,91360,,6199951731,United States,-118.9105877,34.17142715,
tarla-mediterranean-bar-and-grill-napa,Tarla Mediterranean Bar and Grill,brewpub,1480 1st St,,,Napa,California,,94559-2843,http://www.tarlagrill.com,7072555599,United States,-122.289765,38.29719738,
teeccino-brewing-company-carpinteria,Teeccino Brewing Company,planning,,,,Carpinteria,California,,93013-2905,http://www.teeccino.com,8059660999,United States,-119.5184564,34.3988838,
telegraph-brewing-co-santa-barbara,Telegraph Brewing Co,micro,418 N Salsipuedes St,,,Santa Barbara,California,,93103-3127,http://www.telegraphbrewing.com,8059635018,United States,-119.6881651,34.4228601,
temblor-brewing-company-bakersfield,Temblor Brewing Company,brewpub,3200 Buck Owens Blvd Ste 200,,,Bakersfield,California,,93308-6376,http://www.temblorbrewing.com,6614894855,United States,-119.043071,35.3885985,
temescal-brewing-oakland,Temescal Brewing,micro,4115 Telegraph Ave,,,Oakland,California,,94609-2405,http://www.temescalbrewing.com,5108995628,United States,-122.2645038,37.8303644,
ten-mile-brewing-signal-hill,Ten Mile Brewing,micro,1136 E Willow St,,,Signal Hill,California,,90755-3433,http://www.tenmilebrewing.com,5626121255,United States,-118.1806752,33.8043697,
tenacious-brewing-company-san-diego,Tenacious Brewing Company,planning,,,,San Diego,California,,92101,,,United States,-117.1627714,32.7174209,
tent-city-beer-company-atascadero,Tent City Beer Company,micro,6760 El Camino Real,,,Atascadero,California,,93422-4205,http://www.tentcitybeer.com,8054606454,United States,-120.66767,35.487726,
the-bell-marker-san-diego,The Bell Marker,brewpub,602 Broadway Ste 101,,,San Diego,California,,92101-5449,http://www.thebellmarker.com,,United States,-117.0763473,32.597261,
the-blue-poppy-brewery-yorba-linda,The Blue Poppy Brewery,planning,,,,Yorba Linda,California,,92886-7300,,,United States,-117.8249705,33.8901096,
the-booth-brewing-co-eureka,The Booth Brewing Co.,micro,123 W 3rd St,,,Eureka,California,,95501-0222,http://www.theboothbrewing.com,7075725728,United States,-124.1743072,40.80226985,
the-brewhouse-santa-barbara,The Brewhouse,brewpub,229 W Montecito St,,,Santa Barbara,California,,93101-3824,http://www.brewhousesb.com,8059632739,United States,-119.6954247,34.41245574,
the-brewing-lair-blairsden-graeagle,The Brewing Lair,micro,67007 CA Hwy 70,,,Blairsden-Graeagle,California,,96103-1651,http://www.thebrewinglair.com,5303940940,United States,,,
the-dancing-fox-lodi,The Dancing Fox,brewpub,203 S School St,,,Lodi,California,,95240-3511,http://www.dancingfoxwinery.com,2093662634,United States,-121.3878496,38.097198,
the-fat-cat-beer-co-la-jolla,The Fat Cat Beer Co,contract,7979 Ivanhoe Ave Ste 555,,,La Jolla,California,,92037-4570,http://www.fatcatbeers.com,,United States,-117.272443,32.84869008,
the-feinics-company-inc-pollock-pines,"The Feinics Company, Inc.",planning,,,,Pollock Pines,California,,95726-9751,,9163003049,United States,-120.5776645,38.7497125,
the-good-beer-company-inc-santa-ana,"The Good Beer Company, Inc.",micro,309 W 4th St,,,Santa Ana,California,,92701-4502,http://www.thegoodbeerco.com,7147142988,United States,-117.8699581,33.74807823,
the-mason-jar-brewing-company-menifee,The Mason Jar Brewing Company,micro,29683 New Hub Dr Ste A,,,Menifee,California,,92586-6545,http://www.masonjarbrewing.com,9512445277,United States,,,
the-rare-barrel-berkeley,The Rare Barrel,micro,940 Parker St,,,Berkeley,California,,94710,http://www.therarebarrel.com,5109846585,United States,-122.2914445,37.8576209,
the-runway-by-patrick-napa,The Runway By Patrick,brewpub,2044 Airport Rd,,,Napa,California,,94558-6208,http://www.therunwaybypatrick.com,7072586115,United States,-122.2730244,38.2171014,
the-stalking-horse-los-angeles,The Stalking Horse,brewpub,10543 West Pico Blvd,,,Los Angeles,California,,90064,http://www.thestalkinghorsepub.com,4248327511,United States,-118.3273271,34.0478786,
there-does-not-exist-san-luis-obispo,There Does Not Exist,planning,,,,San Luis Obispo,California,,93401,http://www.theredoesnotexist.com,,United States,-120.6596156,35.2827525,
third-street-aleworks-santa-rosa,Third Street Aleworks,brewpub,610 3rd St,,,Santa Rosa,California,,95404-4418,http://www.thirdstreetaleworks.com,7075233060,United States,-122.7132175,38.43982595,
third-window-brewing-santa-barbara,Third Window Brewing,brewpub,406 E Haley St Ste 3,,,Santa Barbara,California,,93101-1740,http://www.thirdwindowbrewing.com,8059795090,United States,,,
thirstybear-organic-brewery-san-francisco,ThirstyBear Organic Brewery,brewpub,661 Howard St,,,San Francisco,California,,94105-3915,http://www.thirstybear.com,4159740905,United States,-122.399512,37.785543,
thompson-brewing-co-riverside,Thompson Brewing Co,brewpub,9900 Indiana Ave Ste 7,,,Riverside,California,,92503-5498,http://www.thompsonbrewing.com,9519560480,United States,,,
thorn-brewing-co-san-diego,Thorn Brewing Co,micro,1745 National Ave.,,,San Diego,California,,92113-1010,,,United States,-117.147735,32.702171,
thorn-street-brewery-san-diego,Thorn Street Brewery,micro,3174 Thorn St,,,San Diego,California,,92104-4636,http://www.thornstreetbrew.com,6195012739,United States,-117.125379,32.739337,
thr3e-punks-ale-chula-vista,Thr3e Punks Ale,micro,259 Third Ave,,,Chula Vista,California,,91910-2721,http://3punkales.com/red/index.html,6198579092,United States,-117.080107,32.642827,
three-forks-bakery-and-brewing-company-nevada-city,Three Forks Bakery & Brewing Company,brewpub,211 Commercial St,,,Nevada City,California,,95959-2506,http://threeforksnc.com,5304708333,United States,-121.017467,39.26299798,
three-mile-brewing-co-davis,Three Mile Brewing Co,micro,231 G St,,,Davis,California,,95616-4549,http://www.threemilebrewing.com/,5305644351,United States,-121.739122,38.54403522,
three-monkeys-brewing-co-madera,Three Monkeys Brewing Co,contract,455 S Pine St Ste 3,,,Madera,California,,93637-5242,http://www.3monkeysbrewing.com,5593632709,United States,,,
three-rivers-brewing-co-three-rivers,Three Rivers Brewing Co,micro,41763 Sierra Dr Ste B,,,Three Rivers,California,,93271-9671,http://www.threeriversbrewingco.com,5599095483,United States,,,
three-stacks-and-a-rock-brewing-co-morro-bay,Three Stacks and A Rock Brewing Co,brewpub,3118 Main St Ste D,,,Morro Bay,California,,93442-1346,http://threestacksandarockbrewing.com,8057719286,United States,,,
three-weavers-brewing-company-inglewood,Three Weavers Brewing Company,micro,1031 W Manchester Blvd Unit A-B,,,Inglewood,California,,90301-1509,http://www.threeweavers.la,3104005830,United States,,,
thunderhawk-alements-san-diego,Thunderhawk Alements,micro,8675 Miralani Dr Ste 100,,,San Diego,California,,92126-4355,http://thunderhawkbeer.com,6199524832,United States,-117.137467,32.89575006,
tied-house-cafe-and-brewery-mtn-view-mountain-view,Tied House Cafe and Brewery-Mtn View,brewpub,954 Villa St,,,Mountain View,California,,94041-1236,http://www.tiedhouse.com,6509652739,United States,-122.0806432,37.3946092,
tilted-mash-brewery-elk-grove,Tilted Mash Brewery,micro,9175 Union Park Way,,,Elk Grove,California,,95624-2792,http://www.tiltedmash.com,,United States,-121.3611472,38.38804656,
timeless-pints-brewing-co-lakewood,Timeless Pints Brewing Co,micro,3671 Industry Ave Ste C1,,,Lakewood,California,,90712-4155,http://www.timelesspints.com,5624900099,United States,,,
tioga-sequoia-brewing-co-fresno,Tioga-Sequoia Brewing Co,micro,746 Broadway St,,,Fresno,California,,93721-2808,http://www.tiogasequoia.com,5592645521,United States,-119.7883079,36.73071679,
toolbox-brewing-company-vista,Toolbox Brewing Company,micro,1495 Poinsettia Ave Ste 148,,,Vista,California,,92081-8539,http://Toolboxbrewing.Com,7605981477,United States,-117.2239733,33.13599334,
topa-topa-brewing-co-ventura,Topa Topa Brewing Co,micro,104 E Thompson Blvd,,,Ventura,California,,93001-2723,http://www.topatopabrewingco.com,8056289255,United States,-119.2994446,34.2781592,
topsys-san-francisco,Topsy's,brewpub,260 Kearny St,,,San Francisco,California,,94108-4538,http://www.topsyssf.com,4157570290,United States,-122.4038779,37.79052614,
toro-creek-brewing-co-paso-robles,Toro Creek Brewing Co,micro,"1111 Riverside Ave, Ste 103",,,Paso Robles,California,,93446,http://www.torocreekbrewingcompany.com,8055507007,United States,-120.6872603,35.6262455,
tortugo-brewing-company-inglewood,Tortugo Brewing Company,planning,,,,Inglewood,California,,90302-3308,,,United States,-118.3550377,33.96185,
touchstone-brewing-company-sacramento,Touchstone Brewing Company,planning,,,,Sacramento,California,,95811-0618,,4155701391,United States,-121.4943996,38.5815719,
towne-park-brew-co-silverado,Towne Park Brew Co,micro,19191 Lawrence Cyn,,,Silverado,California,,92676-9731,http://www.towneparkbrew.com,9496473562,United States,,,
toy-soldier-san-francisco,Toy Soldier,brewpub,52 Belden Pl,,,San Francisco,California,,94104,http://www.toysoldiersf.com,4159069048,United States,-122.403671,37.79129781,
track-7-brewing-co-curtis-park-sacramento,Track 7 Brewing Co - Curtis Park,micro,3747 W Pacific Ave Ste F,,,Sacramento,California,,95820-1000,http://www.track7brewing.com,9165204677,United States,,,
track-7-brewing-co-natomas-sacramento,Track 7 Brewing Co - Natomas,micro,826 Professor Ln Ste 100,,,Sacramento,California,,95834-7743,,9165204677,United States,-121.4908802,38.6543681,
trade-brewing-napa,Trade Brewing,micro,731 1st St,,,Napa,California,,94559-2624,http://www.tradebrewing.com,7074928223,United States,-122.2821838,38.30073396,
trader-joes-west-coast-office-monrovia,Trader Joes - West Coast Office,contract,800 S. Shamrock Ave,,,Monrovia,California,,91016,,6265993700,United States,,,
trail-dog-brewing-co-novato,Trail Dog Brewing Co.,planning,,,,Novato,California,,94945-3318,http://traildogbrewing.com,4157580411,United States,-122.5681191,38.1061979,
transmission-brewing-company-oxnard,Transmission Brewing Company,planning,,,,Oxnard,California,,93030-8231,http://jonkercarey@gmail.com,8054076133,United States,-119.1803818,34.1976308,
transplants-brewing-company-palmdale,Transplants Brewing Company,micro,40242 La Quinta Ln Ste 101,,,Palmdale,California,,93551-3630,http://www.transplantsbrewing.com,6612667911,United States,,,
triple-rock-brewery-and-alehouse-berkeley,Triple Rock Brewery and Alehouse,brewpub,1920 Shattuck Ave,,,Berkeley,California,,94704-1022,http://www.triplerock.com,5108432739,United States,-122.268746,37.873419,
triple-voodoo-brewing-co-san-francisco,Triple Voodoo Brewing Co,micro,2245 3rd St,,,San Francisco,California,,94107-3125,http://www.triplevoodoo.com,4155988811,United States,-122.3884378,37.7611618,
true-symmetry-brewing-company-suisun-city,True Symmetry Brewing Company,micro,315 Marina Ctr,,,Suisun City,California,,94585-2518,http://Www.truesymmetry.beer,7072026000,United States,,,
trumer-brewery-berkeley,Trumer Brewery,regional,1404 4th St,,,Berkeley,California,,94710-1323,http://www.trumer-international.com,5105261160,United States,-122.3030265,37.87686526,
tustin-brewing-co-tustin,Tustin Brewing Co,brewpub,13011 Newport Ave Ste 100,,,Tustin,California,,92780-3517,http://www.tustinbrewery.com,7146652337,United States,,,
tuya-superbrewing-co-santa-cruz,TUYA SuperBrewing Co.,planning,,,,Santa Cruz,California,,95062-1411,http://www.tuyasuperbrew.com,8444878892,United States,-122.0297182,36.974201,
tw-pitchers-brewing-co-san-francisco,TW Pitchers Brewing Co,contract,1329 17th Ave,,,San Francisco,California,,94122-1912,http://www.twpitchers.com,4159992009,United States,-122.4750486,37.76307771,
two-coast-brewing-co-gardena,Two Coast Brewing Co.,contract,1866 W 169th St Ste H,,,Gardena,California,,90247-5231,http://www.twocoastbrewing.com,3107300055,United States,,,
two-dude-brew-clearlake,Two Dude Brew,planning,,,,Clearlake,California,,95422-8159,,7075337600,United States,-122.6263728,38.9582307,
ukiah-brewing-co-ukiah,Ukiah Brewing Co,brewpub,102 S State St,,,Ukiah,California,,95482-4903,http://www.ukiahbrewingco.com,7074685898,United States,-123.2076383,39.14945851,
uncommon-brewers-santa-cruz,Uncommon Brewers,micro,303 Potrero St Ste 40H,,,Santa Cruz,California,,95060-2778,http://www.uncommonbrewers.com,8316216270,United States,,,
underground-brewing-co-san-luis-obispo,Underground Brewing Co.,brewpub,3940 Broad St # 7415,,,San Luis Obispo,California,,93401-7017,,,United States,-120.6420324,35.2493387,
unsung-brewing-company-taproom-anaheim,Unsung Brewing Company- Taproom,micro,500 S Anaheim Blvd Ste B,,,Anaheim,California,,92805-4725,,,United States,,,
unsung-brewing-company-tustin,Unsung Brewing Company,micro,1332 Bell Ave Ste 2D,,,Tustin,California,,92780-6439,,,United States,,,
uproar-brewing-san-jose,Uproar Brewing,brewpub,439 S 1st St,,,San Jose,California,,95113-2816,http://www.uproarbrewing.com,4086732266,United States,-121.8856373,37.32939189,
urban-roots-brewing-sacramento,Urban Roots Brewing,brewpub,1322 V St,,,Sacramento,California,,95818-1418,http://www.urbanrootsbrewing.com,9167063741,United States,-121.4945908,38.56579627,
urge-gastropub-and-common-housemason-ale-works-san-marcos,Urge Gastropub & Common House/Mason Ale Works,brewpub,255 Redel Rd,,,San Marcos,California,,92078-4347,,,United States,-117.158627,33.135679,
valley-brewing-co-stockton,Valley Brewing Co,brewpub,157 W Adams St,,,Stockton,California,,95204-5337,http://www.valleybrew.com,2094642739,United States,,,
venice-ale-house-brewing-co-venice,Venice Ale House Brewing Co,contract,2 Rose Ave,,,Venice,California,,90291-2411,http://www.venicealehouse.com,3103148253,United States,-118.480274,33.994634,
venice-duck-brewery-venice,Venice Duck Brewery,contract,,,,Venice,California,,90291-3833,http://www.veniceduckbrewery.com,3103834927,United States,-118.4668875,33.995044,
ventura-coast-brewing-company-ventura,Ventura Coast Brewing Company,micro,76 S Oak St,,,Ventura,California,,93001-2702,http://www.vcbc.beer,8056678640,United States,-119.2945588,34.27988394,
verdugo-west-brewing-company-burbank,Verdugo West Brewing Company,micro,156 W Verdugo Ave,,,Burbank,California,,91502-2132,http://www.verdugowestbrewing.com,8188415040,United States,-118.3103682,34.17375015,
viewpoint-brewing-co-del-mar,Viewpoint Brewing Co,brewpub,2201 San Dieguito Dr Ste F,,,del Mar,California,,92014-2257,http://www.viewpointbrewing.com,8583569346,United States,,,
waganupa-brewing-lake-almanor,Waganupa Brewing,micro,289 Clifford Dr Unit B,,,Lake Almanor,California,,96137-9641,http://www.waganupa.com,5302593705,United States,,,
waterman-brewing-company-elk-grove,Waterman Brewing Company,micro,9824 Dino Dr Unit 150,,,Elk Grove,California,,95624-1277,http://www.watermanbrewing.com,9167142337,United States,,,
wavelength-brewing-company-vista,Wavelength Brewing Company,micro,236 Main St,,,Vista,California,,92084-6008,http://www.wavelengthbrewco.com,7608209283,United States,-117.2418841,33.2028185,
westlake-brewing-and-libation-thousand-oaks,Westlake Brewing & Libation,micro,31111 Via Colinas # 200,,,Thousand Oaks,California,,91362-3909,http://westlakebrewingcompany.com,7472227231,United States,-118.809516,34.161542,
white-labs-tasting-room-san-diego,White Labs Tasting Room,micro,9495 Candida St,,,San Diego,California,,92126-4541,http://www.whitelabs.com,8586933441,United States,-117.121435,32.895843,
whole-foods-market-brewing-company-floodcraft-brewing-san-jose,Whole Foods Market Brewing Company- Floodcraft Brewing,brewpub,777 The Alameda,,,San Jose,California,,95126-3155,http://floodcraftbrewing.com/,4082071126,United States,-121.9087451,37.3315931,
wicks-brewing-company-llc-riverside,Wicks Brewing Company LLC,brewpub,11620 Sterling Ave Ste C,,,Riverside,California,,92503-4904,http://wicksbrewing.com,9516892739,United States,,,
wiens-brewing-co-temecula,Wiens Brewing Co,micro,27941 Diaz Rd Ste A,,,Temecula,California,,92590-3484,http://www.weinsbrewing.com,9516949892,United States,,,
wild-barrel-brewing-company-san-marcos,Wild Barrel Brewing Company,micro,692 Rancheros Dr,,,San Marcos,California,,92069-3005,http://www.wildbarrelbrewing.com,7605934785,United States,-117.145752,33.140152,
wildcard-brewing-company-redding,Wildcard Brewing Company,micro,9565 Crossroads Dr,,,Redding,California,,96003-6814,http://www.wildcardbrewingco.com,5307229239,United States,-122.298177,40.562008,
wiretap-brewing-corporation-los-angeles,Wiretap Brewing Corporation,micro,341B South Avenue 17,,,Los Angeles,California,,90031,http://www.wiretapbrewing.com,,United States,-118.2220376,34.06852346,
wolf-creek-brewery-valencia,Wolf Creek Brewery,micro,25108 Rye Canyon Loop,,,Valencia,California,,91355-5004,,6612639653,United States,-118.5807868,34.45556243,
woodfour-brewing-company-sebastopol,Woodfour Brewing Company,brewpub,6780 Depot St Ste 160,,,Sebastopol,California,,95472-3462,,7078233144,United States,-122.8211041,38.4033133,
woodhouse-blending-and-brewing-santa-cruz,Woodhouse Blending & Brewing,planning,,,,Santa Cruz,California,,95060-,,6198889489,United States,-122.0297182,36.974201,
woods-bar-and-brewery-oakland,Woods Bar & Brewery,brewpub,1701 Telegraph Ave,,,Oakland,California,,94612-2107,http://www.woodsbeer.com,4155091695,United States,-122.2704253,37.8069575,
woods-beer-company-oakland,Woods Beer Company,brewpub,1701 Telegraph Ave,,,Oakland,California,,94612-2107,http://woodsbeer.com,4158149212,United States,-122.2704253,37.8069575,
woods-cerveceraa-san-francisco,Woods CervecerÃ­a,brewpub,3801 18th St,,,San Francisco,California,,94114-2615,http://www.cerveceriasf.com,4152739295,United States,-122.4285438,37.761163,
woodys-brewery-redding,Woody's Brewery,brewpub,1257 Oregon St,,,Redding,California,,96001-0414,http://www.woodysbrewing.com,5307681034,United States,-122.3953367,40.585948,
working-man-brewing-co-livermore,Working Man Brewing Co,micro,5542 Brisa St Ste F,,,Livermore,California,,94550-2524,http://www.workingmanbrewing.com,9252699622,United States,,,
ximix-craft-exploration-gardena,Ximix Craft Exploration,micro,13723 1/2 Harvard Pl,,,Gardena,California,,90249-2527,http://www.ximixcraft.com,7603332351,United States,,,
yeti-restaurant-santa-rosa,Yeti Restaurant,brewpub,190 Farmers Ln,,,Santa Rosa,California,,95405-4703,http://www.yetirestaurant.com,7075219608,United States,-122.688361,38.44971636,
yolo-brewing-co-west-sacramento,Yolo Brewing Co,micro,1520 Terminal St,,,West Sacramento,California,,95691-3814,http://www.yolobrew.com,9163797585,United States,-121.5419585,38.56942885,
yorkshire-square-brewing-co-torrance,Yorkshire Square Brewing Co.,micro,1109 Van Ness Ave,,,Torrance,California,,90501-2236,http://www.yorkshiresquarebrewery.com,4243765115,United States,-118.3163507,33.83720085,
zone-9-brewing-company-clovis,Zone 9 Brewing Company,micro,1450 Tollhouse Rd Ste 105,,,Clovis,California,,93611-0503,,5592600539,United States,-119.6906567,36.82610331,
zymurgy-brew-works-torrance,Zymurgy Brew Works,micro,22755 Hawthorne Blvd,,,Torrance,California,,90505-3613,http://www.zymurgybrewworks.com,3106502474,United States,-118.3524672,33.8635371,