id,name,brewery_type,address_1,address_2,address_3,city,state_province,postal_code,country,phone,website_url,longitude,latitude
7531dbd8-afc9-4b5b-95bc-7ece7f2c0bf3,10-56 Brewing Company,micro,400 Brown Cir,,,Knox,Indiana,46534,United States,6308165790,,-86.627954,41.289715
56d47579-c181-4510-9b57-5846d9b08ce6,10-56 Brewing Company,brewpub,2120 US-35,,,Knox,Indiana,46534,United States,6308165790,,-86.62002,41.271452
b51f3cdf-60ff-4ae1-94a7-76906c7d62eb,18th Street Brewery,micro,5725 Miller Ave,,,Gary,Indiana,46403-2871,United States,2198030820,http://www.18thstreetbrewery.com,-87.268864,41.599232
add7f978-942e-4d56-b209-c80837a51d69,18th Street Brewery,micro,5417 Oakley Ave,,,Hammond,Indiana,46320-1817,United States,,,-87.517228,41.615142
a23fbc8d-f7c1-4dfc-90e7-11c720fe0a26,2Toms Brewing Company,taproom,3676 N Wells St,,,Fort Wayne,Indiana,46808,United States,2604027644,http://www.2tomsbrewing.com,-85.147724,41.110068
eb3d0c66-bbe8-495d-a876-924f0c0cf509,450 North Brewing Company @ Simmons Winery,brewpub,8111 E 450 N,,,Columbus,Indiana,47203-8106,United States,8125460091,http://www.450northbrewing.com,-85.831864,39.266397
fa28c6af-7460-4060-b305-a0650ae37a9b,5 Arch Brewing,micro,206 N Morton Ave,,,Centerville,Indiana,47330,United States,7657550055,http://www.5archbrewing.com,-84.996832,39.819433
60a4db59-753a-4ff7-8add-d4aee0546e5e,7 Pillars Brewing Company,brewpub,20 E 5th Street,,,Peru,Indiana,46970,United States,7659194300,,-86.069006,40.755237
b4e012c5-0f36-4d0a-a40b-cbcb29c7ceed,95ate5 Brewpub,brewpub,9585 N Industrial Dr,,,Saint John,Indiana,46373,United States,2193656506,http://www.95ate5.com,-87.46380305,41.44400246
b96d27cf-42b8-4791-8fb8-87840016e497,Auburn Brewing Company,planning,,,,Auburn,Indiana,46706,United States,2609081074,,,
89028aa2-3ecf-446b-89c0-5ef641e1bd50,Back Alley Brewing Co,micro,211 S Main St,,,Goshen,Indiana,46526-3722,United States,5743704049,,-85.83457862,41.58461971
df9da06e-0ead-498f-ae26-3c5f783292c9,Back Road Brewery,micro,308 Perry St,,,La Porte,Indiana,46350-3216,United States,2193627623,http://www.backroadbrewery.com,-86.72649137,41.6118882
ecc118fd-aee9-4e81-bcda-8ab049b2f6f3,Backstep Brewing Company,brewpub,125 N Green St,,,Crawfordsville,Indiana,47933-1708,United States,7652302337,http://www.backstepbrewingcompany.com,-86.900149,40.042617
38863255-70b3-4201-bfd0-b4b0dab818d2,Bad Dad Brewery,micro,407 W. Washington St. Ste. C,,,Fairmount,Indiana,46928,United States,7654990941,http://www.baddadbrewery.com,,
42e8f120-42b3-4791-924c-4487681ca3dd,Bad Dad Brewery,micro,407 W. Washington St.,,,Fairmount,Indiana,46928,United States,7659484193,http://www.baddadbrewery.com,-85.653955,40.415057
eaccdf46-40c0-4a05-a4b8-680f0e38f913,Bare Hands Brewery,taproom,12804 Sandy Ct,,,Granger,Indiana,46530-4309,United States,5742772258,http://www.barehandsbrewery.com,-86.116873,41.759648
ee28a49f-8069-428c-a379-c4121d710821,Barley Island Brewing Co,brewpub,639 E Conner St,,,Noblesville,Indiana,46060-2532,United States,3177705280,http://www.barleyisland.com,,
4d515475-dfce-446d-bf21-62a12a4021c3,Basket Case Brewing Co,brewpub,1340 Mill St,,,Jasper,Indiana,47546-2310,United States,8124824345,http://www.basketcasebeer.com,-86.92850063,38.39736355
2357d321-70af-41f4-8ad8-fa6b05fb44b2,Beaver Street Tap Room,brewpub,105 E Beaver St,,,Corydon,Indiana,47112-1146,United States,8122255141,http://www.pointblankbrewing.com,-86.12614,38.210913
137d2ad8-0932-41d7-8c39-fa1a5dbdd3d2,Beech Bank Brewing Company,taproom,301 Main St,,,Beech Grove,Indiana,46107,United States,3175522791,http://www.beechbankbrewing.com,-86.085178,39.721432
ec56cc60-ff02-4523-af59-96b3b03d04a3,Bier Brewery,brewpub,13720 N Meridian St,,,Carmel,Indiana,46032,United States,,,-86.136014,39.987619
11737bcc-a377-45ea-a0fd-8e2295429015,Bier Brewery and Taproom,micro,5133 E 65th St,,,Indianapolis,Indiana,46220-4816,United States,3176960200,http://www.bierbrewery.com,-86.083003,39.875521
4445772e-e9d6-41c3-80cd-d5f4b70e7825,Big Leaf Brewing,taproom,1320 Durkees Ferry Rd,,,West Terre Haute,Indiana,47885-9626,United States,8122812187,,-87.440182,39.560673
fd4d8dde-5175-47ae-a2f8-aae942308e89,Big Lug Brewing Co,brewpub,1435 E 86th St,,,Indianapolis,Indiana,46240-1911,United States,4086872089,,-86.136128,39.911972
f00adb8d-12dc-45ef-852e-57d10d79f7ff,Big Lug Canteen,brewpub,1435 E 86th St,,,Indianapolis,Indiana,46240-1911,United States,,,-86.079957,39.912628
07b46fee-0628-48d0-b21e-723b11659107,Big Woods Brewery,brewpub,60 Mollys Ln,,,Nashville,Indiana,47448,United States,8139886000,http://www.bigwoodsbeer.com,-86.247655,39.208043
78cc5335-72ed-4756-8c08-b18c65ea3675,Birdboy Brewing Co,micro,210 E Collins Rd,,,Fort Wayne,Indiana,46802,United States,2605795508,http://www.birdboybrewing.com,-85.138936,41.121058
64fd68cb-1304-41c8-b42d-0b5e801e7156,Black Acre Brewing Co,brewpub,5632 E Washington St,,,Indianapolis,Indiana,46219-6428,United States,3177973316,http://www.blackacrebrewing.com,-86.1452662,39.7668669
fd28030a-631f-410a-b426-9c67c29b3175,Black Circle Brewing Co,taproom,2201 E 46th St,,,Indianapolis,Indiana,46205,United States,3174260143,http://www.blackcirclebrewing.com,-86.123901,39.839827
7cb5d5cc-c608-46a0-8bde-20c063f1bd1d,Black Swan Brewpub,brewpub,2067 E Hadley Rd,,,Plainfield,Indiana,46168-7484,United States,3178387444,http://www.blackswanbrewpub.com,-86.374141,39.674729
c8613358-8e0b-4ac7-8859-46f1efc36fd1,Blind Owl Brewery,brewpub,5014 E. 62nd St.,,,Indianapolis,Indiana,46220-5228,United States,3179241000,http://www.blindowlbrewery.com,-86.084954,39.868801
2e548a7b-5d71-43be-9371-003d8d720148,Blockhead Beerworks,brewpub,150 Washington St,,,Valparaiso,Indiana,46383,United States,2194050059,,-87.060816,41.469258
0b768b24-8163-4b21-a633-ef4dad76b501,Bloomington Brewing Co,brewpub,1795 E 10th St,,,Bloomington,Indiana,47407-6955,United States,8123392256,,-86.511329,39.171716
b63e1e54-3e7d-4755-a513-0792ab9e4d12,Bloomington Brewing Co - Production Facility,micro,2234 West Industrial Drive,,,Bloomington,Indiana,47404,United States,8126992005,http://www.bbcbloomington.com,,
26241ae5-2fd3-4a65-8b2b-491275466820,Bloomington Brewing Co - Production Facility,micro,2234 W Industrial Park Dr,,,Bloomington,Indiana,47404-2688,United States,8126992005,http://www.bbcbloomington.com,-86.569239,39.175352
dda9e364-55af-4b00-acd9-5d59cb82313b,Books & Brews,brewpub,9402 Uptown Dr Ste 1400,,,Indianapolis,Indiana,46256-1076,United States,3172885136,http://www.booksnbrews.com,-86.036848,39.924243
80a9283a-e07c-4356-8b3f-562144e9db53,Brass Elk Brewing,brewpub,333 Nibco Parkway,,,Elkhart,Indiana,46516,United States,5743263938,http://www.brasselkbrewing.com,-85.969507,41.685592
4694844c-ce2d-411f-9dce-22a5ff52802d,Brew Link Brewing,proprietor,212 E. Main,,,Plainfield,Indiana,46168-9659,United States,3172037788,http://www.brewlinkbrewing.com,,
3eb5ca47-49f7-41c1-a404-4277df830759,Brew Link Brewing,alt prop,4710 E US Hwy 40,,,Plainfield,Indiana,46168,United States,3172037788,http://www.brewlinkbrewing.com,-86.442699,39.692815
41b23b7a-5454-4e9b-b2df-3b1587cea410,Brew Link Downtown,brewpub,714 N Capitol Ave,,,Indianapolis,Indiana,46204,United States,3176531884,,-86.161839,39.777244
66cc78ca-751e-4c9e-8f0c-611d66348f54,BrewDog Indianapolis,location,1140 Shelby St,,,Indianapolis,Indiana,46203,United States,3174499924,http://www.brewdog.com/usa/bars/usa/indianapolis,-86.140208,39.751128
0a1f49af-8c69-4316-bb3d-1042c42b3d03,Broad Ripple Brewing Co,brewpub,842 E 65th St,,,Indianapolis,Indiana,46220-1674,United States,3172532739,http://www.broadripplebrewpub.com,-86.143335,39.873609
8964c08b-1e2a-4c49-9277-64f04c81e549,Brokerage Brewing Company,brewpub,2516 Covington St,,,West Lafayette,Indiana,47906-1404,United States,7652332767,http://www.brokeragebrewing.com,-86.914065,40.454581
8029560b-c49b-4979-a971-461bfac424f6,Brugge Brasserie,brewpub,1011A E Westfield Blvd,,,Indianapolis,Indiana,46220-,United States,3172550978,http://www.bruggebrasserie.com,,
4ce7444f-655c-4a51-9dc6-47406b1896ca,Bulldog Brewing,brewpub,1409 119th St,,,Whiting,Indiana,46394-1714,United States,2196555284,http://www.bulldogbrewingco.com,-87.495143,41.679593
c0c4af99-eb53-4114-b976-de76d111596f,Burn'Em Brewing,taproom,718 Freyer Rd,,,Michigan City,Indiana,46360-1911,United States,2193938606,http://www.burnembrewing.com,-86.828058,41.738657
72a548d0-8bed-4ab0-ac92-467a4cf5546e,Byway Brewing Company,brewpub,2825 Carlson Dr,,,Hammond,Indiana,46323-1183,United States,2198445458,http://www.bywaybrewing.beer,-87.460589,41.571417
45e03113-32c2-44db-be6c-6955633fba06,Cannon Ball Brewing Company,brewpub,1702 Bellefontaine St,,,Indianapolis,Indiana,46202-1813,United States,3174265978,http://www.cannonballbrewingindy.com,-86.14245603,39.79046798
b18073df-b1c0-4d40-bf85-6c357286e28a,Cannon Ball Gastropub By Scarlet Lane Brewing,brewpub,1702 Bellefontaine St,,,Indianapolis,Indiana,46202-1813,United States,3174265978,http://www.cannonballbrewingindy.com,-86.142546,39.790443
0ea0d27c-ea9a-4f75-91c2-4009c12b6c45,Carbon Brewing Company,planning,,,,Brazil,Indiana,47834-7046,United States,,http://www.carbonbrewing.com,,
5640fbb1-3e29-4438-b2f3-d0cdf2bd5bca,Carbon Brewing Company,taproom,14551 N Lena Drive,,,Brazil,Indiana,47834,United States,3127295033,http://www.carbonbrewing.com,-87.034349,39.593459
d8ec5a8b-a005-492b-aa90-87aad31fe060,Carson's Brewery,micro,2404 Lynch Rd,,,Evansville,Indiana,47711-2953,United States,8127598229,http://www.carsonsbrewery.com,,
9560132e-e992-4036-9274-1ba8de498c1e,Cedar Creek Brewing Co.,taproom,3820 Leonard Rd,,,Martinsville,Indiana,46151-5600,United States,7653429000,http://www.drinkatthecreek.com,-86.35849,39.403075
20a578cc-439f-40f6-ae2d-02e6798108a1,Centerpoint Brewing,taproom,1125 E Brookside Ave,,,Indianapolis,Indiana,46202-3587,United States,3176028386,http://www.centerpointbrewing.com,-86.135773,39.78298
dcef9d1b-d9c0-4512-aeb6-eb22c60de041,Central State Brewing,micro,4001 E 26th St,,,Indianapolis,Indiana,46218,United States,3174079855,http://centralstatebrewing.com,-86.099105,39.805091
d4df1800-b94f-47bf-bb45-c8fa08d2f766,Chapman's Brewing Company,micro,300 Industrial Dr,,,Angola,Indiana,46703-1053,United States,2602400058,http://www.chapmansbrewing.com,-85.003083,41.649054
84bda627-35de-4adc-89a8-d55ea166b330,Chapman's Brewing Company,planning,,,,Wabash,Indiana,46992-3131,United States,,http://www.chapmansbrewing.com,,
ee4d004d-02ad-477d-968d-f13e8384a05a,Chapman's Brewing Company,location,118 W Van Buren St,,,Columbia City,Indiana,46725-2075,United States,2602446252,http://www.chapmansbrewing.com,-85.489214,41.157355
6b5b59ce-6f8b-4daa-918f-781200de1772,Chapman's Brewing Company,location,233 S Miami St,,,Wabash,Indiana,46992-3131,United States,,http://www.chapmansbrewing.com,-85.821996,40.796426
1e56845e-f8f0-45c7-84c3-59fa5d3c2bc5,Chateau De Pique Winery & Brewery,taproom,6361 N County Road 760 E,,,Seymour,Indiana,47274-8936,United States,8125229296,http://www.chateaudepique.com,-85.897888,38.97473
4f70aafd-d77b-4f9a-8509-ce05ebd63a64,Chesterton Brewery,brewpub,1050 Broadway,,,Chesterton,Indiana,46304,United States,2197286558,http://chestertonbrewery.com,-87.06625,41.611839
b7ba052d-c12c-4548-8727-0e949508d9e3,Chilly Water Brewing Company,brewpub,719 Virginia Ave Ste 105,,,Indianapolis,Indiana,46203-1976,United States,3179640518,http://www.chillywaterbrewing.com,-86.145576,39.757103
6bd6fa74-41a0-44c8-a5f7-b4ab20c5ba00,City Wineworks,taproom,69 N Broadway,,,Peru,Indiana,46970,United States,5743988091,,-86.069939,40.755316
c4cefd05-1142-4287-9509-e6e7bbeb61b9,Civilian Brewing Corps,planning,,,,Bloomington,Indiana,47403-9658,United States,,,,
feaa423d-27e9-4a6f-9da6-c287b97feb91,Civilian Brewing Corps,brewpub,14 N Washington St,,,Spencer,Indiana,47460-0686,United States,8126525072,http://www.civilianbrewingcorps.com,-86.761029,39.286299
241d6bd0-f1c6-482b-8419-f48db87cc119,Crasian Brewing Co,micro,207 S Railroad St Ste B,,,Brookston,Indiana,47923-8137,United States,7655638339,http://www.crasianbrewing.com,,
e176038a-98ce-45f7-844a-e3489e34dbb1,Creatures Of Habit Brewing Co,planning,,,,Anderson,Indiana,46016-1749,United States,7654000116,http://facebook.com/CreaturesBrew/,,
64afa7a4-629f-4741-9981-7a07e3853a2d,Creatures Of Habit Brewing Co,brewpub,1031 Meridian St,,,Anderson,Indiana,46016-1749,United States,7654000116,http://www.creaturesbrew.com,-85.679602,40.105367
21cd8238-f678-4a95-9cf3-75b34f58d7fa,Creek Bottom Brew LLC,planning,,,,Oldenburg,Indiana,47036-9765,United States,8122124817,http://www.creekbottombrew.com,,
ddf0f86c-e4af-4933-bc18-1beff96ec781,Creek Bottom Brew LLC,micro,24037 Hilltop Rd,,,Oldenburg,Indiana,47036-9765,United States,8122120827,http://www.creekbottombrew.com,-85.229685,39.392154
c4322724-2b2e-41bc-80bc-6d74e08bc915,Crooked Ewe Brewery & Ale House,brewpub,1047 Lincoln Way E,,,South Bend,Indiana,46601-3726,United States,5743153045,http://www.crookedewe.com,-86.236176,41.664573
fba9c7a9-0edc-44d8-8fdb-0c8544987a17,Crown Brewing Co,micro,211 S East St,,,Crown Point,Indiana,46307-4058,United States,2196634545,http://www.crownbrewing.com,-87.363448,41.415848
47d250c2-c28b-4fd7-b51f-54de52fdf0e6,Damsel Brew Pub,brewpub,209 North Wabash Avenue of Flags,,,Evansville,Indiana,47712,United States,8129091956,http://www.damselbrewpub.com,-87.593459,37.979819
67935791-24ca-4793-ad6f-5755a7189645,Danny Boy Beer Works,brewpub,12702 Meeting House Rd,,,Carmel,Indiana,46032-7292,United States,3176698080,http://www.dannyboybeerworks.com,-86.1971767,39.971556
bc1c658f-3780-4a49-b62a-ba9da764cf15,Daredevil Brewing Company,micro,1151 Main St,,,Indianapolis,Indiana,46224-6976,United States,,http://www.daredevilbeer.com,-86.64727,39.844367
55bba21f-fa13-457b-8f67-9fd012e691cf,Daredevil Brewing Company,micro,1151 N Main St,,,Indianapolis,Indiana,46224-6976,United States,,http://www.daredevilbeer.com,-86.240265,39.782328
4000af9a-d444-4ec9-9561-8dfab554e043,Deer Creek Brewery,micro,17661 Cumberland Rd,,,Noblesville,Indiana,46060-,United States,3176748266,http://www.deercreekbrewery.com,-85.9962796,40.0443978
2c39f664-b7ea-4886-9534-d2bb13bc775b,Deviate Brewing Co,taproom,4004 W 96th St,,,Indianapolis,Indiana,46268-2909,United States,,http://www.deviatebrewing.com,-86.228387,39.926332
b837ff0c-ea8e-40c2-885d-2a4bd4b04c3d,Devil's Trumpet Brewing Co,micro,8250 Utah St,,,Merrillville,Indiana,46410-6578,United States,2195767118,http://www.thedevilstrumpet.com,,
02462c25-f20e-4916-9807-919e32ed6345,Devil's Trumpet Brewing Co,micro,156 Cattail Ln,,,Valparaiso,Indiana,46385,United States,2195767118,http://www.thedevilstrumpet.com,-87.096578,41.547623
966c6f2f-fc9a-4d45-84f1-43a7934069b4,Donum Dei Brewery,taproom,3211 Grant Line Rd Ste 3,,,New Albany,Indiana,47150-2175,United States,5025412950,,-85.820802,38.326119
9a736dc1-1b37-404f-9c65-574a2ca9cc23,Dot & Line Brewing Company,taproom,2623 Camino Court,,,Fort Wayne,Indiana,46808,United States,2604442639,http://www.dotandlinebrewing.com,-85.181796,41.110017
df9f4189-fe0b-4e03-84d0-de647b2c832b,Ellison Brewery- Indianapolis,brewpub,501 S Madison Ave,,,Indianapolis,Indiana,46225,United States,5172035498,,-86.157137,39.759966
884ce326-126a-4c54-b731-537bdd46a391,Elm Street Brewing Company,brewpub,519 N Elm St,,,Muncie,Indiana,47305-1462,United States,7657485209,http://www.elmstbrewing.com,-85.383204,40.197692
23d17caf-7105-4c0f-83a8-176bbed46a43,Escape Velocity Brewing Company,brewpub,405 Sagamore Parkway South,,,Lafayette,Indiana,47905,United States,7657717987,http://www.escapevelocitybrewing.com,-86.857408,40.413454
51e62ad1-42ab-490a-b8a8-3ae8d6502c7f,Evil Czech Brewery,brewpub,3703 N Main St,,,Mishawaka,Indiana,46545-3111,United States,5748553070,http://www.evilczechbrewery.com,-86.182796,41.693978
18fa7337-3df9-4a49-902d-3983251d6058,Feed Store Beer Co,planning,,,,Bloomfield,Indiana,47424-1137,United States,8123814343,http://www.feedstorebeer.com,,
769a04a4-d5a8-49d9-b9a6-f30ecfcac1c9,Feed Store Beer Co,taproom,750 W Main St,,,Bloomfield,Indiana,47424-1137,United States,8122278116,http://www.feedstorebeer.com,-86.948143,39.027252
81bd92e4-7c1e-4b32-af0b-ee4615eba1f7,Fenwick Farms Brewing Company,brewpub,219 W Washington St,,,Rensselaer,Indiana,47978,United States,2198663773,http://www.fenwickfarmsbrewingcompany.com,-87.152414,40.935449
1c37475d-7010-4392-9edf-c566bc7fc5c1,Field Brewing,planning,,,,Westfield,Indiana,46074-9494,United States,3174300253,http://www.fieldbrewing.com,,
def09511-62d6-448c-8fbc-73437afe8637,Field Brewing,brewpub,303 E Main St,,,Westfield,Indiana,46074-9494,United States,3178049922,http://www.fieldbrewing.com,-86.124702,40.042554
607ac560-d432-4e42-9aca-b9244542a861,Figure Eight Brewing Co,brewpub,150 Washington St,,,Valparaiso,Indiana,46383-5507,United States,2194772000,http://www.figureeightbrewing.com,,
7d725b70-8a55-4f40-b152-70ca5b783de6,Fireside Craft Burgers and Brews,brewpub,101 South Detroit Street,,,Lagrange,Indiana,46761,United States,2607683473,http://www.firesideindiana.com,-85.417604,41.643835
d78c9ec4-e59e-451e-b49c-e31a40d7e96f,Fish Moon Brewing Company,brewpub,309 N Main St,,,Rushville,Indiana,46173,United States,7657302427,http://www.fishmoonbrew.com,-85.444957,39.609601
25cc1e54-693a-45a3-827c-337684e1ced7,Flat 12 Bierwerks,micro,414 Dorman St,,,Indianapolis,Indiana,46202-3648,United States,3174265851,http://www.flat12.me,-86.13847,39.77261486
d339cf65-cab2-4797-9e89-0c2e8bf3e3fb,Flix Brewhouse - CRM,brewpub,2206 E 116th St,,,Carmel,Indiana,46032-3215,United States,5122442739,,-86.115575,39.959465
524c2b94-6f03-405e-86e8-6331c55b2775,Floyd County Brewing Company,brewpub,129 W Main St,,,New Albany,Indiana,47150-5958,United States,4705882337,http://www.floydcountybrewing.com,-85.824075,38.282859
d9e170de-2b91-4f4b-a37d-6b3da84f9136,Foreign Local LLC,taproom,489 Fayette St,,,Hammond,Indiana,46320,United States,2193087827,,-87.517929,41.617312
7a42c956-0df2-4b19-9273-c5aacbd9f4ef,Fork + Ale House,brewpub,"350 Veterans Way, Suite 150",,,Carmel,Indiana,46032,United States,,http://https://forkalehouse.com/,-86.128611,39.976276
98d93316-d7dd-4552-bfbf-0a4538d7e6be,Fortlandia Nano Brewery,taproom,1010 Spring St,,,Fort Wayne,Indiana,46808,United States,,,-85.154989,41.089047
54207534-6dc2-4423-b3c0-0c9f96bf85d9,Fountain Square Brewing Co,micro,1301 Barth Ave,,,Indianapolis,Indiana,46203-1872,United States,3174931410,http://www.fountainsquarebrewing.com,-86.1404227,39.7496885
676352a3-879e-451a-aa20-4bc25611f7ab,Four Day Ray Brewing,micro,11671 Lantern Rd,,,Fishers,Indiana,46038-2952,United States,3173430200,http://www.fourdayray.com,-86.013647,39.958102
1186fc4c-2fba-4a7a-9692-08851d7276a8,Four Fathers Brewing,micro,1555 W Lincolnway Ste 105,,,Valparaiso,Indiana,46385-3801,United States,2194649712,http://www.fourfathersbrewing.com,-87.07906572,41.47328343
b953c86b-1e59-4362-aec2-2d9b60bb3ec1,Four Fathers Brewing,taproom,3705 Bowman Drive,,,Valparaiso,Indiana,46383,United States,2194649712,http://www.fourfathersbrewing.com,-87.016129,41.462845
501ec4a5-1a6c-4acb-8f19-5a5f62155dc5,Function Brewing Co,brewpub,108 E 6th St,,,Bloomington,Indiana,47408-3311,United States,8126761000,http://www.functionbrewing.com,-86.53337072,39.16746781
fa4cc41e-e5b4-43aa-9768-330f20a95cd7,Fuzzyline Brewing Co,taproom,2712 Condit St,,,Highland,Indiana,46322,United States,,http://www.fuzzylinebrewing.com,-87.463278,41.556328
a1c5b671-6ee2-490c-b17c-de4dfba464e4,Garfield Brewery,taproom,2310 Shelby St,,,Indianapolis,Indiana,46203,United States,3179796442,http://www.garfieldbrewery.com,-86.140093,39.735365
ef1ce8c6-e7ad-4db2-a7a5-e5f0309de71d,Gas City Brewing Company,brewpub,245 E. Main St.,,,Gas City,Indiana,46938,United States,,,-85.611228,40.488153
6df5e59d-5473-4a83-a577-c5bcb385c045,George Ringler & Company,planning,,,,Danville,Indiana,46122-1623,United States,3176268353,,,
d0b10e4c-895c-4af9-9d07-b3de6d4d882a,GnomeTown Brewing Co,brewpub,203 E Berry St Ste 104,,,Fort Wayne,Indiana,46802,United States,2604220070,http://www.gnometownbrewing.com,,
9f4d9664-fd3a-4621-bb14-6aa926fc278d,Good-Rich Brewery,taproom,128 East McNeil Street,,,Portland,Indiana,47371,United States,2607664296,http://www.goodrichbrew.com,-84.977348,40.440681
3d853d05-62fc-4011-a0a5-53e84a486ac2,Goodwood Brewing Indy,brewpub,140 S Illinois St,,,Indianapolis,Indiana,46225,United States,3179867103,,-86.160263,39.764845
df4c24b4-1f52-436f-b804-b920bfe6b47a,Goshen Brewing Company,brewpub,315 W Washington St,,,Goshen,Indiana,46526-3732,United States,8434690314,http://www.goshenbrewing.com,-85.839313,41.585469
5f02c62f-dd0c-44a1-ae48-4b0937073129,Grand Junction Brewing Co,brewpub,110 S Union St,,,Westfield,Indiana,46074-9458,United States,3178045168,http://www.grandjunctionbrewing.com,-86.1275556,40.0424222
207cebda-19ca-4c78-b81f-ca87a2a5b512,Grand Junction Brewing Co,brewpub,1189 E 181st St,,,Westfield,Indiana,46074,United States,3176964946,http://www.grandjunctionbrewing.com,-86.136009,40.049232
010441de-4cf0-4e29-9f81-4b458e212ee6,Granite City Food & Brewery,brewpub,150 W 96th St,,,Indianapolis,Indiana,46260-4802,United States,,,,
ceaf1284-e7b6-4474-8179-c4d38490c16c,Granite City Food & Brewery (#24),brewpub,3809 Coldwater Rd,,,Fort Wayne,Indiana,46805-1101,United States,2604713030,http://www.gcfb.net,-85.135919,41.111408
650cddc2-44e6-4abc-8c71-d3ebd3c493d9,Granite City Food & Brewery (#26),brewpub,6501 Grape Rd Ste 1000,,,Mishawaka,Indiana,46545-1010,United States,5742430900,http://www.gcfb.net,-86.1923429,41.7177604
8d663feb-c355-4edb-9697-6d7536bda3a1,Granite City Food & Brewery (#27),brewpub,150 W 96th St,,,Indianapolis,Indiana,46260-4802,United States,3172187185,http://www.gcfb.net,,
318e515a-fa20-42bb-a8f8-473485d2dbe1,Great Crescent Brewery,taproom,315 Importing St,,,Aurora,Indiana,47001-1415,United States,8126559079,http://www.gcbeer.com,-84.900438,39.057417
b1d277f4-de9d-4b77-bf0c-29a450a8e6c7,Guesswork Brewing Company,brewpub,108 S Orange St,,,Albion,Indiana,46701,United States,2606362446,,-85.423632,41.395194
893c746b-cc59-44c0-8da1-6239d57a3825,Guggman Haus Brewing Co.,planning,,,,Indianapolis,Indiana,46202-2158,United States,8122302554,http://www.guggmanhausbrewing.com,,
d8c8fa76-7764-4315-8e9f-e32af713f713,Half Moon Restaurant & Brewery,brewpub,4051 S Lafountain St,,,Kokomo,Indiana,46902-6913,United States,7654552739,,-86.128402,40.436378
93db6580-5e95-4ead-a1ad-cccacbfbe782,Harry Stuff Brewing Co.,brewpub,4319 W US Highway 6,,,Wawaka,Indiana,46794,United States,,http://https://harrystuffbrewing.com/,-85.506157,41.456388
84ffd55e-1fe9-4f40-a275-525df51bdedb,Haynie's Corner Brewing Co.,taproom,56 Adams Ave.,,,Evansville,Indiana,47713,United States,8127468848,,-87.565712,37.962283
2fe35f7a-aa03-42c4-a6e2-a418ea36b23a,Heavenly Goat Brewing Company,brewpub,7321 Heritage Square Dr Ste 190,,,Granger,Indiana,46530-5660,United States,5742178428,http://www.heavenlygoatbrew.com,,
95cdaefc-6cdd-4352-a998-b987adb7897c,"Herrmann Brewthers, LLC",planning,,,,Fishers,Indiana,46038-2313,United States,3179641390,,,
0b79d2b2-4dc6-4840-b988-5c6f2ee722df,"Hog Molly Brewing Company, LLC",taproom,830 Depot Street,,,COLUMBUS,Indiana,47201,United States,8123439193,http://www.hogmollybrewing.com,-85.935286,39.238349
6c7c38ab-4ed5-4939-8506-36b430a24df5,Hop Quest Brewing Company,planning,,,,Wheatfield,Indiana,46392,United States,2198636393,,,
e24e5a6e-9ca9-4d47-84b8-9c8592f432b1,Hop River Brewing Company,brewpub,1515 N Harrison St,,,Fort Wayne,Indiana,46808-2729,United States,,http://www.hopriverbrewing.com,-85.143859,41.088163
1cc0fde2-57fd-469a-a484-ebb27ec87bf4,HopLore Brewing Co.,brewpub,100 s old state road 15,,,Leesburg,Indiana,46538,United States,5744530496,http://Www.hoplore.com,-85.844013,41.332018
1ae079e7-be69-48e8-b4c8-efb3a4cfcc91,Hunter's Brewing,brewpub,1535 S Calumet Rd,,,Chesterton,Indiana,46304-3301,United States,2197286729,http://huntersbrewing.com,-87.046347,41.597156
f8866c52-c47d-4243-96db-9347944077fb,Iechyd Da Brewing,brewpub,317 N Main St,,,Elkhart,Indiana,46516-3034,United States,5742930506,http://www.iechyddabrewingcompany.com,-85.975329,41.690004
14b7019d-d662-4403-b315-7466e59d39a3,Indiana City Brewing,micro,24 Shelby Street,,,Indianapolis,Indiana,46202-3941,United States,3176431103,http://indianacitybeer.com,-86.141258,39.7661102
e1b632ac-39c9-465f-b3df-7de3efa2976e,Ironwood Brewing Co.,taproom,6 Roosevelt Rd,,,Valparaiso,Indiana,46383-5136,United States,2194054644,http://www.ironwoodbrewing.beer,-87.046144,41.468378
acf51425-904f-441a-b8a0-ea3d939a6f7d,Junk Ditch Brewing Company,brewpub,1825 W Main St,,,Fort Wayne,Indiana,46808-3715,United States,2602034045,http://junkditchbrewingco.com,-85.166704,41.077624
599dcfc5-a169-4e53-b377-403d85f0a167,Kismetic Beer Company,taproom,201 S Rural St,,,Indianapolis,Indiana,46201,United States,,http://www.facebook.com/kismeticbeerco,-86.116053,39.764379
3279d2f1-6bda-4172-a893-db5f86d60c89,Klooz Brewz,brewpub,125 N Meridian St,,,Lebanon,Indiana,46052,United States,7654848282,http://www.kloozbrewz.com,-86.467868,40.047862
6cd8296a-f6b6-4043-ae34-8e522670fd3f,Kopacetic Beer Factory,brewpub,12195 N US Hwy 421,,,Monticello,Indiana,47960,United States,5748083378,http://www.kopaceticbeer.com,-86.755319,40.726431
f6ee7fb1-b7d4-4bd2-99a3-e466b2f72bf7,Lafayette Brewing Co,brewpub,622 Main St,,,Lafayette,Indiana,47901,United States,7657422591,http://www.lafbrew.com,-86.889958,40.419398
ff7b87b1-9cd4-46c5-89ba-8e88944cc31c,Lakeville Brew Crew,taproom,124 S Michigan St,,,Lakeville,Indiana,46536,United States,,,-86.274091,41.523529
2dfb36bb-165a-4989-9045-8ebe2846a36e,Landing Beer Company,brewpub,118 W Columbia St,,,Fort Wayne,Indiana,46802,United States,2602652022,,-85.141056,41.08145
498336ae-d10e-4598-a7f8-74a60ebb1312,LaOtto Brewing LLC,brewpub,202 S Main St,,,Laotto,Indiana,46763-4800,United States,2608973360,,-85.197937,41.289143
1e779e71-e770-4700-bcd2-dc8031a09e39,Ledgeview Brewing Company,brewpub,975 Warren Street,,,Warsaw,Indiana,46580,United States,8155271425,http://www.ledgeviewbrewing.com,-85.871635,41.247047
35f5fb77-453a-4038-8124-cbe972f77f81,Lil' Charlie's Restaurant & Brewery,contract,504 E Pearl St,,,Batesville,Indiana,47006-1585,United States,8129346392,http://www.lilcharlies.com,-85.21614518,39.29564197
e7b3d1f4-c290-4c1c-b430-16e3b9876122,Liter House,planning,,,,Indianapolis,Indiana,46220,United States,3176940580,,,
2b14a487-b168-4d4e-abed-df03f119bc14,Liter House,brewpub,5301 Winthrop Ave,,,Indianapolis,Indiana,46220,United States,3176940580,,-86.141159,39.849323
2c72a29c-c716-47eb-87f2-ee578965fff7,Logan Beerwerks,micro,110 Godfrey Street,,,Logansport,Indiana,46947,United States,,,-86.368046,40.760594
864416b2-b7bd-464e-bed0-d836fad787f0,Mad Anthony Brewing Co,brewpub,2002 Broadway,,,Fort Wayne,Indiana,46802-3710,United States,2604262537,http://www.madbrew.com,-85.152969,41.067573
4b13a22e-5f01-4d26-8aff-f5f3e90ce2b6,Mad Paddle Brewery,brewpub,301 West St,,,Madison,Indiana,47250,United States,3175004385,http://www.madpaddle.com,-85.380551,38.735284
b7825867-5c07-4e12-a1f2-dbf533deb48b,Maidens Brewery,brewpub,209 North Wabash Avenue of Flags,,,Evansville,Indiana,47712,United States,8124312836,http://www.maidensbrewery.com,,
d8ebbd1e-ee4b-4230-89df-9d40c208e013,Main Street Brewing Inc/Turonis Pizza,brewpub,408 N Main St,,,Evansville,Indiana,47711-5418,United States,8124249871,,-87.56399527,37.98122094
33f9696f-aa27-4a7f-8895-adf6cf5c4612,Main Street Brewing Inc/Turonis Pizza,micro,412 N Main St,,,Evansville,Indiana,47711-5418,United States,8124249871,,-87.564103,37.981248
730119e0-aefa-4e96-a3fa-5fd7a8e3d881,Malt Brothers Brewery,brewpub,9585 N. Industrial Dr,,,Saint John,Indiana,46373,United States,2193656506,http://www.sjmaltbros.com,-87.463539,41.444979
55495197-490c-4a82-bfb0-f910b93b738a,Man Cave Brewing,brewpub,10201 N SR 13,,,Syracuse,Indiana,46567,United States,5743371308,http://www.mancavebrewing.com,-85.73356,41.400722
5e5efe9d-03bb-44f0-838e-b8e0cd2c99a2,MashCraft Brewing,brewpub,1140 N State Road 135 Ste M,,,Greenwood,Indiana,46142-1016,United States,3172154578,http://www.mashcraft.com,-86.159122,39.632669
4f8556b2-048c-4cde-b1ab-7afbafa7cacb,MashCraft Fishers,brewpub,11069 Allisonville Rd,,,Fishers,Indiana,46038,United States,3178635165,,-86.041965,39.950712
2a5d0815-e481-4c27-ba3c-4a733a88d85a,MashCraft On Delaware,taproom,2205 N. Delaware StSuite 10,,,Indianapolis,Indiana,46205,United States,3176022552,,-86.1359,39.8269
66a42492-4aa0-4b6a-a355-486c6049ec02,Metal Works Brewing Company,brewpub,108 E 6th St,,,Bloomington,Indiana,47408-3311,United States,8126761000,http://https://metalworksbrewingcompany.com,-86.533075,39.167358
42431b40-da93-44f6-923c-98a25a89e376,Metazoa Brewing Co.,micro,140 S College Ave,,,Indianapolis,Indiana,46202-4004,United States,3175082274,http://www.metazoa.beer,-86.14585025,39.76455049
3390a5cc-ae25-4793-a3d0-f1af48f37c6c,Metazoa Brewing Co.,micro,202 Miley Ave,,,Indianapolis,Indiana,46222,United States,3175082274,,-86.193876,39.769323
4b3a1b41-fbd4-4b42-9d16-837b118a1c5a,Metazoa Brewing Company,micro,140 South College Avenue,,,Indianapolis,Indiana,46202-4004,United States,3175082274,http://www.metazoabrewing.com,-86.146182,39.764323
4552be6f-35d3-4cd5-b4ba-fde9785eb275,Misconduct Brewing,planning,,,,Carmel,Indiana,46033-9414,United States,,,,
327dd95c-0197-47ea-9bb2-5cf63318fcf7,Moontown Brewing Company,brewpub,345 S Bowers St,,,Whitestown,Indiana,46075,United States,5742503114,http://www.moontownbeer.com,-86.346709,39.994401
3dd1654b-8279-4c8c-a0b8-e9c38d34a706,Myriad Brewing Company,taproom,101 SE 1st St,,,Evansville,Indiana,47708,United States,8124021515,,-87.574014,37.96853
117409b7-7f6d-49cb-90de-f635ed1b9756,Nailers Brewing Company,brewpub,6001 N US Highway 31,,,Whiteland,Indiana,46184,United States,3172813132,,-86.096532,39.577312
28f5a67c-49b0-4197-b7a7-5882a491d63d,New Albanian Bank Street Brewhouse,brewpub,415 Bank St,,,New Albany,Indiana,47150-3407,United States,8127259585,http://www.newalbanian.com,-85.82220842,38.28656732
bb34f1bf-8108-4dba-8b6a-18553ce95809,New Albanian Brewing Co,brewpub,3312 Plaza Dr,,,New Albany,Indiana,47150-2478,United States,8129442577,http://www.newalbanian.com,-85.817256,38.328018
806f78ce-18d8-4a28-a871-403807795cbe,New Boswell Brewing Co,micro,410 N 10th St,,,Richmond,Indiana,47374,United States,7655467856,http://www.newboswell.com,-84.88916811,39.83306544
948818d7-d0e7-4244-abd0-de2ab2d37c97,New Boswell Brewing Co,taproom,410 N 10th Street,,,Richmond,Indiana,47374,United States,7655467856,http://www.newboswell.com,-84.889468,39.833764
652351af-c051-4151-8d02-fb562513ec35,New Corner Brewing Company,micro,1900 W Mt Pleasant Blvd Ste G,,,Muncie,Indiana,47302-9566,United States,7657304376,http://www.newcornerbrewing.com,,
beb73add-a85c-4329-8f35-59e471908dcc,New Madison Brewing,taproom,3463 County Rd 100 W,,,Madison,Indiana,47250,United States,,http://www.newmadisonbrewing.com,-85.406979,38.788769
b3ffdca4-08b3-4759-9520-74691fd65bf6,New Oberpfalz Brewing,micro,121 E Main St,,,Griffith,Indiana,46319,United States,3128411173,http://www.newoberpfalz.com,-87.426728,41.522667
fb3382e7-dddc-4538-a920-8a73f8499fa0,Noble Order Brewing Company,brewpub,3407 National Rd W,,,Richmond,Indiana,47374-4416,United States,7659659463,http://www.nobleorderbrewing.com,-84.94882319,39.82198694
d0829fa2-1489-43a5-9bbf-a89d51e8747a,Norris English Pub,brewpub,202 E Seminary St,,,Liberty,Indiana,47353-1206,United States,7652232337,http://www.norrisenglishpub.com,-84.92508133,39.6344325
024ae123-c899-413e-8964-801b01d74d6e,Oaken Barrel Brewing Co,brewpub,50 Airport Pkwy Ste L,,,Greenwood,Indiana,46143-1438,United States,3178872287,http://www.oakenbarrel.com,-86.09061,39.615377
89cd06c5-f8ec-4d6a-9156-420f49bd1d2a,Off Square Brewing,brewpub,11000 Delaware Pkwy,,,Crown Point,Indiana,46307-7895,United States,2193108898,http://www.offsquarebrewing.com,-87.329728,41.417636
3849391c-aa10-417a-a2e9-109434568fca,Old 41 Brewing Company,brewpub,729 N 7th St,,,Terre Haute,Indiana,47807,United States,8122347356,http://www.old41brewing.com,-87.406802,39.47617
3c51af37-1774-4cdc-8c6f-0a978af2fa7b,Opocofi Brewing Company,planning,,,,Franklin,Indiana,46131-8901,United States,,,,
e0b526cd-7c86-49d9-8094-6369795dee93,Our Lady of Perpetual Hops,taproom,300 Foundation Blvd,,,New Albany,Indiana,47150,United States,8129895505,http://www.olphbrewery.com,-85.807235,38.366616
e041442e-c7f9-4896-a0b5-4c4f0bc66c9b,Pax Verum Brewing,brewpub,908 N Main St,,,Lapel,Indiana,46051-5537,United States,7653939070,http://www.paxverum.com,-85.847828,40.068739
6d395f83-0e7b-4f48-820d-b98859b0b8f1,Peoples Brewing Co,micro,2006 N 9th Street Rd,,,Lafayette,Indiana,47904-1036,United States,7657924677,http://www.peoplesbrew.com,-86.885995,40.43700688
e666a8a4-5b02-4385-a483-4c8d4e1b34aa,Peoples Brewing Co,taproom,2006 N 9th Street,,,Lafayette,Indiana,47904,United States,7657924677,http://www.peoplesbrew.com,-86.88661,40.437653
2eb9c869-f6e1-4e5b-9876-86c96f2c49ef,Planetary Brewing Company,taproom,500 Polk St Ste 22,,,Greenwood,Indiana,46143-1638,United States,3172154941,http://www.planetarybrewing.com,-86.098867,39.60916
0342dc02-62b5-4f51-8667-46d98847bde8,Point Blank Brewing Company,brewpub,105 E Beaver St,,,Corydon,Indiana,47112-1146,United States,8122255141,http://www.pointblankbrewing.com,-86.12616408,38.21111448
71adfacc-e332-40de-8fde-3a36caabd5ff,"Pokro Brewing Company, The",micro,311 N Broad St,,,Griffith,Indiana,46319-2222,United States,2199247950,http://www.pokrobrewing.com,-87.42755733,41.5266943
bd88172f-055e-4db1-a5fa-73cc5827f9a7,Power House Brewing Co's Columbus Bar,brewpub,2735 N State Road 9,,,Columbus,Indiana,47203-9648,United States,8123758800,http://www.powerhousebrewingco.com,,
c40501cc-53b0-4ad9-b7d2-1bf3f883b876,Primeval Brewing,brewpub,960 Logan Street,,,Noblesville,Indiana,46060,United States,,http://www.primevalbrewing.com,-86.012658,40.046824
30f16fe6-539b-4238-affb-1ad6604de275,Quaff On Brewing,micro,1934 State Road 135 N,,,Nashville,Indiana,47448-8418,United States,8129886006,http://www.quaffon.com,,
9bab519c-f982-48bf-8180-2bfb632ba549,Rad Brewing Co,brewpub,414 Dorman St,,,Indianapolis,Indiana,46202-3648,United States,3174265851,http://www.radbrewingco.wpcomstaging.com/,-86.138686,39.772835
3d2a2d0f-e13a-48d3-a1f3-8158d1538ab9,Raintree Brewing Company,micro,500 Church Street,,,New Harmony,Indiana,47631,United States,,http://www.raintreebrewing.com,-87.9348109,38.1299262
429297ab-f39b-40ee-a033-dbb560da0b3e,RAM Restaurant and Brewery - Indianapolis,brewpub,140 S Illinois St,,,Indianapolis,Indiana,46204,United States,3179559900,http://www.theram.com,-86.16050947,39.76475755
03fb287c-df2c-4d22-8e9f-2ab34dd74219,Rebelle Brewing,planning,,,,Noblesville,Indiana,46060,United States,,,,
0378d8a0-f63b-4e83-8f52-e436e5d25e99,Red Foot Brewing Co/ The Red Yeti,brewpub,256 Spring St,,,Jeffersonville,Indiana,47130-3340,United States,8122885788,http://www.redyetijeff.com,-85.740075,38.271702
243a4b48-c47d-405e-bffb-2a2a10d30b04,Redemption Alewerks,brewpub,7035 E 96th St Ste K,,,Indianapolis,Indiana,46250-3303,United States,3173483330,http://www.redemptionalewerks.com,,
ac70c288-4edc-400f-8f52-42cc3ba4fff9,Rock Bottom Brewery - Indianapolis,brewpub,10 W Washington St,,,Indianapolis,Indiana,46204-3402,United States,3176818180,http://www.rockbottom.com,-86.1584705,39.76717025
24fa73f1-2413-485e-8230-e8572837784a,Round Town Brewery,micro,950 S White River Pky West Dr Ste 100,,,Indianapolis,Indiana,46221-1373,United States,3174931375,http://www.roundtownbrewery.com,,
373ed987-ffe2-449d-a661-be2530753210,Ruhe@152,brewpub,152 W Market St,,,Nappanee,Indiana,46550,United States,,http://www.ruhe152.com,-86.002066,41.442947
6db95a97-2d83-4952-8a99-7bd8d77c5138,Salt Creek Brewery,brewpub,466 Old State Road 37 N,,,Bedford,Indiana,47421-8068,United States,8122778277,http://www.saltcreeekbrewery.beer,,
f4dfd9ef-1936-4d1a-b0b5-9358543a3ede,Scarlet Lane Brewing Company LLC,taproom,7724 Depot St,,,McCordsville,Indiana,46055-6173,United States,3173361590,http://www.scarletlanebrew.com,-85.925902,39.893888
9a25c885-c078-404c-9749-6a5aefef2f42,Schnabeltier,taproom,491 Apache Dr,,,Rochester,Indiana,46975,United States,5742243373,http://www.schnabeltier.com,-86.225448,41.048524
a653b55e-ebee-4ec6-9fa2-c83bf8e28ad6,Schnitz Brewery,brewpub,2031 Newton St,,,Jasper,Indiana,47546-1600,United States,8128482739,http://www.schnitzbrewery.com,-86.937703,38.405985
0d252476-51e1-4431-8344-006a5dbf3e6a,Science Project Brewing Company,brewpub,611 North St,,,Logansport,Indiana,46947,United States,,http://scienceprojectbrewing.com,-86.362748,40.755508
ffa5cec6-7668-44c8-9087-926df6e4624e,Shaggy Ass Brewery / TJ Haase Winery,taproom,708 E 3rd St,,,Clinton,Indiana,47842,United States,8122419463,http://www.tjhaasewinery.com,-87.413169,39.683369
13857aee-d2a5-4ca2-8a9a-1ab8ff2f626c,Shale Creek Brewing,brewpub,178 W Jefferson St,,,Franklin,Indiana,46131,United States,3178682200,http://www.shalecreekbrewing.com,-86.057741,39.480583
f1c0b05d-9aea-4dbf-991c-b48e652c2fe6,Shoreline Brewery,brewpub,208 Wabash St,,,Michigan City,Indiana,46360-3244,United States,2198794677,http://www.shorelinebrewery.com,-86.905846,41.719589
57c71937-4cb7-4ba1-939e-8872a8a28348,Smocktown Brewery,brewpub,223 W Main St,,,Greenwood,Indiana,46142,United States,3172154836,,-86.108983,39.613391
bbc48ed5-74ab-4114-aa44-8212468b3074,South Bend Brew Werks,brewpub,216 S Michigan St,,,South Bend,Indiana,46601-2002,United States,5743340356,http://www.southbendbrewwerks.com,-86.25285572,41.62611855
fb86315a-ba23-4845-9213-bc04d10f4799,South Bend Brew Werks,brewpub,321 S Main St,,,South Bend,Indiana,46601,United States,5743340356,http://www.southbendbrewwerks.com,-86.252421,41.672848
495b5dbf-29bc-45c0-ba38-1ac315e048df,St John Malt Brothers Brewing,brewpub,9607 Wicker Ave,,,Saint John,Indiana,46373-9487,United States,2196274294,http://www.sjmaltbros.com,-87.46998163,41.44507008
0d38db8d-fab3-44f6-985e-a84daf3a375f,St. Benedict's Brew Works,brewpub,860 E 10th St,,,Ferdinand,Indiana,47532-9240,United States,8129982337,http://www.saintbenedictsbrewworks.com,-86.854275,38.224265
086e6663-04da-4d88-a813-d5ea1fa579f3,St. Joseph Brewery & Public House,brewpub,540 N College Ave,,,Indianapolis,Indiana,46204,United States,3176025670,http://www.saintjoseph.beer.com,-86.145682,39.774898
6b730aef-f353-4f27-94c4-b45a2db292c6,Studebaker Brewing Company,planning,,,,South Bend,Indiana,46601,United States,5742349077,http://www.studebakerbrewingco.com,,
ee01df5a-4343-4605-8c4c-10cffb23af56,Studebaker Brewing Company,brewpub,620 W Washington St,,,South Bend,Indiana,46601,United States,5742349077,http://www.studebakerbrewingco.com,-86.257869,41.675652
834de8fa-bbd5-4dfc-a665-c1fc43781157,Summit City Brewerks,brewpub,1501 E Berry #106,,,Fort Wayne,Indiana,46803,United States,2604150782,http://www.summitcitybrewerks.com,-85.117668,41.08141
55bbec01-c1da-421a-9721-39d33b554f39,Sun King Brewery,micro,7848 E 96th St,,,Fishers,Indiana,46037-9629,United States,3174361926,,-86.0242557,39.9282185
3e2d9646-099d-4b01-b619-d40d3a45fdbe,Sun King Brewing,regional,135 N College Ave,,,Indianapolis,Indiana,46202-3801,United States,3176023702,http://https://www.sunkingbrewing.com,-86.145251,39.769261
3c18b709-1e13-45ef-8bdd-21411149f0c9,Sun King Brewing,taproom,9713 District North Dr,,,Fishers,Indiana,46037,United States,3174361926,,-86.0007,39.9551
100b8476-932e-4fc3-83ee-efec006f97ef,Sun King Brewing - Fishers Small Batch,micro,7848 E 96th St,,,Fishers,Indiana,46037-9629,United States,3174361926,,-86.024827,39.927407
120a1b1e-f09a-4e2f-8f10-2b9a7342d3bd,Sun King Brewing Co,planning,,,,Fishers,Indiana,46037,United States,,,,
586a547b-a2ba-45fb-9801-7d7aba23830a,Sun King Kokomo,taproom,500 N Buckeye St A,,,Kokomo,Indiana,46903-0236,United States,5125176164,http://www.sunkingbrewing.com,-86.1278,40.4638
1f7ae129-466f-42fb-95b9-10f5a8133dd0,Switchyard Brewing Company,brewpub,419 N Walnut St,,,Bloomington,Indiana,47404-3842,United States,8122878295,http://www.switchyardbrewing.com,-86.533945,39.170129
a3f8cc82-579b-4246-850a-292d9e21703a,Taxman Brewing Co,micro,13 S Baldwin St,,,Bargersville,Indiana,46106-9089,United States,,http://www.taxmanbrewing.com,-86.16716199,39.52148548
fe8c5018-b829-46aa-baed-e1bbe9e3c72d,Taxman CityWay,location,310 South Delaware St,,,Indianapolis,Indiana,46204,United States,,,-86.155034,39.762819
929fea48-5dc6-4506-8101-0ebbc3d4644c,Taxman Fortville,location,29 S Main St,,,Fortville,Indiana,46040,United States,,,-85.849,39.933654
f63f4c7c-57a6-4e56-b16d-6928e8c08aa0,Teays River Brewing,brewpub,3000 S 9th St Ste A,,,Lafayette,Indiana,47909-6702,United States,7657466614,http://www.teaysriverbrewing.com,-86.886928,40.383577
34400740-8da8-4c22-bf6f-9f4fe675a43c,Terre Haute Brewing Company,micro,401 S 9th St,,,Terre Haute,Indiana,47807-4417,United States,8128143071,http://www.terrehautebrewingcompany.com,-87.404615,39.462052
e8090627-f973-4ff3-b23d-947bfa7228b1,The Guardian Brewing Company,taproom,514 E Jackson Street,,,Muncie,Indiana,47305,United States,7652738918,http://www.theguardianbrewingco.com,-85.381184,40.193148
1c99b221-b06b-460d-abd9-530efa711fb2,The Koontz Lake Brewing Company,brewpub,7747 N State Road 23,,,Walkerton,Indiana,46574-9360,United States,5745862019,,-86.489373,41.414504
ac9cf2af-dd2f-4e14-9caf-cbb8b84a651d,"The Parlor City Brewing Company, LLC",brewpub,212 W. Market St.,,,Bluffton,Indiana,46714,United States,2603073858,http://www.parlorcitybrewing.com,-85.173178,40.739466
6bbb7654-62ef-4e36-8d19-eb09f86dbd85,The Pour Haus Tell City,brewpub,706 Humboldt Street,,,Tell City,Indiana,47586,United States,8125472739,,-86.770979,37.947908
724e6386-5227-4fce-908f-d8b863723c99,The Red Yeti,brewpub,256 Spring St,,,Jeffersonville,Indiana,47130-3340,United States,8122885788,http://www.redyetijeff.com,-85.7401585,38.2718249
542e0c16-9f97-45ff-9692-39a48026d507,The Seymour Brewing Company,brewpub,753 W 2nd St,,,Seymour,Indiana,47274,United States,8125248888,,-85.898274,38.956709
a9ccbf10-750c-4e98-bc3f-9b0d2ec90d7a,The Sour Note Brewing,micro,489 Fayette St,,,Hammond,Indiana,46320,United States,2198037917,http://www.thesournotebrewing.com,-87.517929,41.617312
31a04853-9975-43ef-94c0-311c40b29959,The Tap Brewery,brewpub,204 W Kirkwood Ave,,,Bloomington,Indiana,47404-5144,United States,8122878579,http://www.thetapbeerbar.com,-86.535487,39.166724
107c7330-ca31-41fa-a8df-32b97e3de416,The Vincennes Brewing Company,brewpub,124 Main St,,,Vincennes,Indiana,47591,United States,8123160485,http://www.vincennesbrewing.com,-87.532292,38.680158
c9c851ac-5d72-4837-ab89-18cea33eba8a,Thieme & Wagner Brewery,taproom,652 Main St,,,Lafayette,Indiana,47901,United States,7656074804,http://www.thiemeandwagner.com,-86.889217,40.419268
33f3340a-9c62-4071-be56-9c352fcb9857,Thr3e Wise Men Brewing Co,brewpub,1021 Broad Ripple Ave,,,Indianapolis,Indiana,46220-2034,United States,3172555151,,,
27d3bcb6-79ee-46e6-a178-9db8bd9974a1,Three Floyds Brewing,regional,9750 Indiana Pkwy,,,Munster,Indiana,46321-4004,United States,2199223565,http://www.3floyds.com,-87.516585,41.535703
a72dd018-8329-4112-b81e-05efb191ca47,Three Floyds Brewing Co,regional,9750 Indiana Pkwy,,,Munster,Indiana,46321-4004,United States,2199223565,http://www.3floyds.com,,
bccd3b26-9e23-4311-a82f-a3c591dccc30,Three Pints Brewpub,brewpub,610 W Mitchell Ave,,,Martinsville,Indiana,46151-2734,United States,7653499888,http://www.threepints.com,,
82a64a53-38c6-4919-9c96-3181b0ce5e99,Tin Man Brewing Company,micro,1430 W Franklin St,,,Evansville,Indiana,47710-1030,United States,8126183227,http://www.tinmanbrewing.com,-87.58452457,37.9802897
02760ee7-3975-4d69-82ce-fff5d62c0024,Tin Man Brewing Kokomo,micro,500 N Buckeye St Ste A,,,Kokomo,Indiana,46901-4544,United States,5125176164,,,
4e2d1963-f8b7-4680-b972-97de485bbbf9,Traders Brewing Company,taproom,8587  ZIONSVILLE ROAD,,,INDIANAPOLIS,Indiana,46268,United States,3172807505,http://www.tradersbrewingcompany.com,-86.258268,39.909296
8cb1359f-cf22-43c3-87ec-c0524eb917c9,Tree City Brew Co,taproom,101 N Broadway St,,,Greensburg,Indiana,47240,United States,8125936478,,-85.484569,39.336722
e225df86-c175-4cd4-a5c0-42dbea2e0cbe,Triton Brewing Company,brewpub,5764 Wheeler Rd,,,Indianapolis,Indiana,46216-1038,United States,3177352706,http://www.tritonbrewing.com,-86.006731,39.859681
193ddcd0-43ef-49de-a8cb-5f595fb7d663,Trubble Brewing,brewpub,2725 Broadway,,,Fort Wayne,Indiana,46807-1111,United States,2602676082,http://www.trubblebrewing.com,-85.151851,41.059766
4a8da7bd-80fb-4b2f-9447-eee7bd87781f,Twenty Below Brewing @ Twenty Tap,brewpub,5406 N College Ave,,,Indianapolis,Indiana,46220-3126,United States,3176028840,http://www.twentytap.com,-86.146118,39.851225
179899fd-256c-42c1-8fc5-7b68c340320b,TwoDEEP Brewing,brewpub,714 N Capitol Ave,,,Indianapolis,Indiana,46204-1114,United States,3176531884,http://www.twodeepbrewing.com,-86.161428,39.777426
6f07acc5-3db8-4380-b30f-98d256184c56,Union Brewing,micro,622 S Rangeline Rd Ste Q,,,Carmel,Indiana,46032-2152,United States,3175644466,http://www.unionbrewingco.com,,
fb26164e-82c1-4bf7-80a7-a60da692482e,Upland Brewing Co,micro,4060 W Profile Pkwy,,,Bloomington,Indiana,47404-2554,United States,8123362337,,-86.586342,39.172335
9a6ed651-787f-47de-9f0a-1a4fc3fb5d15,Upland Brewing Co - Bloomington Brewpub,regional,350 W 11th St,,,Bloomington,Indiana,47404-3720,United States,8123362337,http://www.uplandbeer.com,-86.53747927,39.173423
ba4fce56-4d45-4fa0-8195-37a1f788c975,Upland Brewing Co - Bloomington Brewpub,micro,4060 Profile Parkway,,,Bloomington,Indiana,47404-3720,United States,8123362337,http://www.uplandbeer.com,-86.583803,39.174439
a7a149ca-53fb-4040-8932-c8b01d882541,Upland Brewing Company,micro,350 W 11th Street,,,Bloomington,Indiana,47404,United States,,http://uplandbeer.com,-86.537427,39.17353
30dd9393-0b1f-446d-94e6-a2bc36edac81,Upland FSQ,brewpub,1201 E Prospect St,,,Indianapolis,Indiana,46203,United States,,,-86.137989,39.751972
75602d95-00f7-457d-a45d-e3df40d03fca,Urban Vines Winery and Brewery,taproom,303 E 161st St,,,Westfield,Indiana,46074,United States,3177630678,http://www.urban-vines.com,-86.153507,40.020055
61b506f5-dde9-446e-b922-b35bfedb4572,Viking Artisan Ales,micro,8622 Louisana Pl,,,Merrillville,Indiana,46410,United States,7735512878,http://www.vikingartisanales.com,-87.318765,41.461929
975c847e-393d-4d2e-9e03-da0147218238,Wabash Brewing,micro,5328 W 79th St,,,Indianapolis,Indiana,46268-1631,United States,3179384458,http://www.wabashbrew.com,,
6401037b-c1b1-42f4-98fa-1189857bc6cc,WarPigs USA Brewing Co.,contract,9750 Indiana Pkwy,,,Munster,Indiana,46321-4004,United States,2199223565,http://warpigs.com,,
d2f3ee61-b49c-4392-b40c-f35eafab445f,Wasser Brewing Company,brewpub,102 E Franklin St,,,Greencastle,Indiana,46135-1220,United States,7653019363,http://www.wasserbrewing.com,-86.86331023,39.64467171
a5ee1f40-795e-4c72-ba0c-d2c5618399a5,WaterTower Estates Winery and Brewery,taproom,525 W Springhill Dr,,,Terre Haute,Indiana,47802,United States,8122334390,http://www.watertowerestate.com,-87.425743,39.414095
ca43b426-5087-4406-9fed-761726e379ed,Wedgewood Brewing Company,taproom,106 S Main St,,,Middlebury,Indiana,46540,United States,5743580265,,-85.705599,41.67497
c63f9f73-f694-4668-8e90-977ec08e1604,Westwind Brewery Co.,planning,,,,Elkhart,Indiana,46514-2204,United States,5742745073,http://www.westwindbrewery.com,,
b6f544f0-5e66-41f3-a8f5-2e81ffbe20d8,Westwind Brewery Co. LLC,brewpub,911 Plum St,,,Elkhart,Indiana,46514-2204,United States,5743276767,http://www.westwindbrewery.com,-85.988501,41.693791
0b7dfe2c-2617-4aa6-9578-9aa1bc63e71f,White Raven Brewing,planning,,,,Warsaw,Indiana,46582-8089,United States,5747030643,http://www.whiteravenbrewing.com,,
132c460c-3ab8-46db-9dc7-f8123d513ef3,Wildrose Brewing Company,brewpub,1104 E Main St,,,Griffith,Indiana,46319-2826,United States,2195955054,http://www.wildrosebrewing.com,-87.41546,41.522811
ca8e0949-0067-4fb8-8aad-fa10a0e78fc2,Windmill Brewing,taproom,2121 Gettler St,,,Dyer,Indiana,46311-1859,United States,2194402189,http://www.windmillbrew.com,-87.522652,41.49364
e9625858-9a23-4aa5-847f-27c06ed5938a,Wooden Bear Brewing Co,brewpub,21 W North St,,,Greenfield,Indiana,46140-2171,United States,3173181221,http://www.woodenbearbrewing.com,-85.770083,39.785842
ec83629b-2f5d-4fae-a9fc-00ff3979c0f7,Zorn Brew Works,brewpub,605 E 9th St,,,Michigan City,Indiana,46360-3651,United States,2192437157,http://www.zornbrewworks.com,-86.891559,41.714409
720a84ad-c18f-4181-8d21-35eb6b80bec0,ZwanzigZ Brewing,brewpub,1038 Lafayette Ave,,,Columbus,Indiana,47201-5756,United States,8123760200,http://www.zwanzigz.com,-85.919142,39.209154