id,name,brewery_type,address_1,address_2,address_3,city,state_province,postal_code,country,phone,website_url,longitude,latitude
232e8f62-9afc-45f5-b4bc-582c26b5c43b,10th District Brewing Company,micro,491 Washington St,,,Abington,Massachusetts,02351-2419,United States,7813071554,http://www.10thdistrictbrewing.com,-70.94594149,42.10591754
e0f2f880-db5e-4def-ad3c-63c5ea2aa9b1,10th District Brewing Company,taproom,748 Brockton Ave,,,Abington,Massachusetts,02351-2419,United States,7813071554,http://www.10thdistrictbrewing.com,-70.966721,42.095013
9fdb80f1-a96f-4dc4-80a2-5b0d9a246916,3 Beards Beer Company,contract,4 Main St,,,Williamsburg,Massachusetts,01096,United States,6173837039,http://www.3beardsbeer.com,-72.7305059,42.3923659
842d193f-7a1b-4960-86f8-7d6614884005,3cross Fermentation Cooperative,micro,4 Knowlton Ave,,,Worcester,Massachusetts,01603,United States,5086158195,http://www.3cross.coop,-71.83057593,42.24364875
c7b3260a-b441-4dc8-958f-34c045e26f22,7th Wave Brewing,taproom,120 N Meadows Rd Ste 8,,,Medfield,Massachusetts,02052-1594,United States,6176453397,http://www.7thwavebrewing.com,-71.327799,42.192618
5a7b05f9-bf7b-49a2-a1de-0c1fe01b9374,Abandoned Building Brewery,taproom,142 Pleasant St Unit 103A,,,Easthampton,Massachusetts,01027-2805,United States,4132827062,http://www.abandonedbuildingbrewery.com,-72.661204,42.27349
59b8c8b8-6850-4b24-81f0-a16a9cd87773,Aeronaut Brewing Company,micro,14 Tyler St,,,Somerville,Massachusetts,02143-3224,United States,6179874236,http://www.aeronautbrewing.com,-71.105257,42.381601
c1e6f260-1f52-4e38-bc14-ae58fdb7bb14,Altruist Brewing Company,brewpub,559 Main St Unit 105,,,Sturbridge,Massachusetts,01518-1208,United States,7742418022,http://www.altruistbrewing.com,,
fb1c5883-f652-4375-b887-a424584d0d9d,Amherst Brewing Co / Hangar Pub and Grill,brewpub,10 University Dr,,,Amherst,Massachusetts,01002-2243,United States,4132534400,http://www.amherstbrewing.com,-72.532684,42.373523
be80d6fe-27bc-4b12-a046-e7fc8fd947b6,Amorys Tomb Brewing Co,micro,76 Main St,,,Maynard,Massachusetts,01754-2516,United States,9782430875,http://amorystomb.com,-71.45315644,42.43203845
bdc1beb9-2832-4c44-aa63-289726c3a13f,Anawan Brewing Company,planning,,,,Dighton,Massachusetts,02764,United States,7742296300,http://www.anawanbrewingco.com,,
61239a88-ebee-45d3-9794-12860e11259c,Aquatic Brewing LLC,planning,,,,Falmouth,Massachusetts,02540-3299,United States,5084442155,http://www.aquaticbrewing.com,,
f98f5740-4120-4401-b94d-7c269e5cafb5,Aquatic Brewing LLC,taproom,661 Main St.,,,Falmouth,Massachusetts,02540,United States,5084442155,http://www.aquaticbrewing.com,-70.604849,41.552228
596ac64f-9586-4b9c-8ca4-9e637be672ef,Arcpoint Brewing Co,micro,,,,Belchertown,Massachusetts,01007-9305,United States,5187964977,http://www.arcpointbrewco.com,,
5697048c-53dc-4d33-b49a-7f7b30245d5e,Arcpoint Brewing Co,micro,207 Warner st,,,Belchertown,Massachusetts,01007-9305,United States,5187964977,http://www.arcpointbrewco.com,-72.372249,42.292191
b82a4ccc-4c55-44dc-b0c2-b4f5dd0378a6,Article Fifteen Brewing,taproom,406 VFW Drive,,,Rockland,Massachusetts,02370,United States,5088433591,http://www.articlefifteenbrewing.com,-70.910868,42.152639
7a636fd1-7d5c-47f3-83cb-d5f12bc39e46,Backbeat Brewing Company,brewpub,31A Park Street,,,Beverly,Massachusetts,01915,United States,6172857346,http://www.backbeatbrewing.com,-70.884801,42.547799
092efaaf-02ab-4ac6-a9c3-6269af54ddeb,Backlash Beer Co,contract,,,,Boston,Massachusetts,02215,United States,,http://backlashbeer.com/,,
00012b9f-2a1c-4326-9f76-b30d44739470,Bad Martha East Falmouth Farmerâ€™s Brewery & Tasting Room,brewpub,270 Upper Main St,,,Edgartown,Massachusetts,02539,United States,5089394415,,-70.528137,41.393348
007b572b-cb61-478b-aa08-2966a1a028d5,Bad Martha Farmer's Brewery,brewpub,270 Upper Main St,,,Edgartown,Massachusetts,02539-,United States,5089394415,http://www.badmarthabeer.com,-70.52732,41.394402
e7d5ef43-36bd-4b43-a917-4e39d202cb88,Bad Martha Farmer's Brewery,taproom,876 E Falmouth Hwy,,,East Falmouth,Massachusetts,02536,United States,5089390540,http://www.badmarthabeer.com,-70.542982,41.579098
1c1fec67-f169-4646-b4d4-aeda1643fafb,BareWolf Brewing,micro,12 Oakland St,,,Amesbury,Massachusetts,01913,United States,9783906540,http://www.barewolfbrewing.com,-70.923918,42.856972
c6c6e790-345d-4f46-90e3-6264d4962e1d,Barnstable Brewing,taproom,485 W Main St,,,Hyannis,Massachusetts,02601-3644,United States,7744706989,http://www.barnstablebrewing.com,-70.314028,41.650102
2949226a-b599-4e47-9c00-5e19012dd22b,Barrel House Z,taproom,95 Woodrock Rd,,,Weymouth,Massachusetts,02189-2335,United States,3392017888,http://www.barrelhousez.net,-70.927446,42.192544
d92bd59c-e6ad-4311-90a0-ff2c7fa721ee,Barrington Brewery and Restaurant,brewpub,420 Stockbridge Rd Ste 4,,,Great Barrington,Massachusetts,01230-9512,United States,4135288282,http://www.barringtonbrewery.net,,
d1eff588-55c4-472a-a821-67130a5ee0a8,Barrington Brewery and Restaurant,brewpub,420 Stockbridge Rd Ste 7,,,Great Barrington,Massachusetts,01230-9512,United States,4135288282,http://www.barringtonbrewery.net,-73.344291,42.213234
bbacaa05-6e27-4383-8e2d-f36e3f52b8d5,Battle Road Brewing Co,micro,5 Clock Tower Pl,,,Maynard,Massachusetts,01754-2530,United States,9782985229,http://www.battleroadbh.com,-71.45416113,42.43001225
eb869777-2904-4e42-bff5-c3251b88735a,Bay State Beer Company,micro,,,,Sturbridge,Massachusetts,01566-1568,United States,6174130939,http://www.baystatebeer.com,,
964f69b0-df81-4d9d-ae90-72d6e86508ed,Bay State Beer Company - Worcester,brewpub,112 Harding St,,,Worcester,Massachusetts,01604,United States,5083539272,,-71.796124,42.258072
a7264d4c-818e-4575-ab60-9e452a7d31c2,Bay State Brewing Company,micro,1110 Whittemore Street,,,Leicester,Massachusetts,01524,United States,5083539272,http://www.baystatebeer.com,-71.941001,42.279017
5703ac6f-9a97-4529-b62e-7034433e0636,Bear and Bramble Brewing Company,micro,10 Payson Ave # 1,,,Easthampton,Massachusetts,01027-2207,United States,,,,
6ee026a4-f8c5-4ece-9298-2bc1b6ee7c69,Bear and Bramble Brewing Company,micro,86 Lake St,,,Florence,Massachusetts,01062,United States,4133486069,http://www.bearandbramble.com,-72.673949,42.342083
e7325848-32cc-487c-ae26-e25df7bfbdb5,Bearmoose Brewing Company,taproom,1934 Revere Beach Parkway,,,Everett,Massachusetts,02149,United States,6172941211,http://www.bearmoosebrewing.com,-71.051676,42.402752
05d4fc7f-58bc-4cc0-b5f8-c6829b0f6d86,Bent Water Brewing Company,micro,180 Commercial St Ste 18,,,Lynn,Massachusetts,01905-3058,United States,7817809948,http://www.bentwaterbrewing.com,-70.957177,42.45651
fdc796fe-ad16-4995-ad31-c7e896422d47,Berkley Beer Company,micro,,,,Berkley,Massachusetts,02779-1101,United States,5083269954,http://www.berkleybeer.com,,
660cfbf6-8abe-4f18-9b44-7a94740f91a5,Berkley Beer Company,taproom,17 Cotley St,,,Berkley,Massachusetts,02779-1101,United States,5083269954,http://www.berkleybeer.com,-71.051472,41.855164
3cbbbfeb-a69b-4cea-be92-f7ae2808a1eb,Berkshire Brewing Co Inc,regional,12 Railroad St,,,South Deerfield,Massachusetts,01373-0096,United States,4136656600,http://www.Berkshire-Brewing.com,-72.61025086,42.47779797
0aff7bc2-29eb-4127-b80c-d5fc3e05274a,Big Elm Brewing,micro,65 Silver St,,,Sheffield,Massachusetts,01257,United States,4132292348,http://www.bigelmbrewery.com,-73.350466,42.092976
61d6bc91-4366-49a9-ac55-5eed49482fc7,Black Hat Brew Works,micro,25 Scotland Blvd # 1,,,Bridgewater,Massachusetts,02324-2302,United States,5088075172,http://www.blackhatbrewworks.com,-71.005987,41.974579
8428c5dd-c356-482d-a9de-8af6b633447c,Bog Iron Brewing Co,taproom,33 W Main St,,,Norton,Massachusetts,02766-2711,United States,5089520555,,-71.19057,41.965463
f5da109c-ab26-413e-9c86-51a3c6086e29,Bolton Beer Works,brewpub,100 Wattaquadock Hill Rd,,,Bolton,Massachusetts,01740-1238,United States,9787795521,http://boltonbeerworks.com,-71.615404,42.42911
1c8aad05-295e-4362-b173-c4c48c287077,Bone Up Brewing Co.,taproom,38 Norman St,,,Everett,Massachusetts,02149-1932,United States,7816919092,http://www.boneup.beer,-71.065735,42.40568
9375dc3a-6315-4ef4-a5e6-35a257deb8a3,Boston Beer Co,regional,1 Design Center Pl Ste 850,,,Boston,Massachusetts,02210-2300,United States,6173685000,http://www.samueladams.com,-71.032884,42.344254
214c08f5-53a3-458a-a011-63b41d62254d,Boston Beer Co,micro,30 Germania St Ste 1,,,Boston,Massachusetts,02130-2312,United States,6173685000,http://www.samueladams.com,-71.102981,42.314119
df8ed59f-a7da-4ca7-89f7-2a014ed60bdc,Bramling Cross Brewing,micro,51 Gilchrest St,,,Lunenburg,Massachusetts,01462,United States,,http://www.bramlingcrossbrewing.com,-71.725785,42.611439
beebe3c2-f56b-4f0b-ab06-983ac5259c3a,Brazo Fuerte Artisanal Beer,proprietor,15 Main St Ste 125,,,Watertown,Massachusetts,02472-4403,United States,6176008140,http://www.brazofuertebeer.com,,
89948fc1-81d5-4b23-ad27-5730b2872e33,"Brew Practitioners, LLC.",taproom,36 Main St,,,Florence,Massachusetts,01062-3152,United States,4135842444,http://www.brewpractitioners.com,-72.628999,42.319677
ef191a39-3b92-451a-b37c-738d44bb986b,Brewery 44,taproom,2 Montello St,,,Carver,Massachusetts,02330,United States,7813369552,http://www.brewery44.com,-70.810147,41.928207
e392f1e7-c1bc-43ed-977c-9bfaa3b37b05,Brewery At Four Star Farms,micro,508 Pine Meadow Road,,,Northfield,Massachusetts,01360,United States,4132253187,http://www.fourstarbeer.com,-72.481381,42.632516
e193cecd-958f-4820-97d3-df215dea84b5,Brewery Silvaticus,brewpub,9 Water St,,,Amesbury,Massachusetts,01913-2936,United States,9785042337,http://www.silvaticusbeers.com,-70.9295559,42.8573815
dc230b28-7686-4c2f-897c-fd54afd55e33,Brewmasters Brewing Services,micro,4 Main St,,,Williamsburg,Massachusetts,01096-9428,United States,4132682199,,-72.730557,42.392267
776e95e1-cb7b-4a88-89a6-9829bde7a4f2,Brick and Feather Brewery,taproom,78 11th St,,,Turners Falls,Massachusetts,01376-1020,United States,4138632574,http://www.brickandfeatherbrewery.com,-72.564023,42.601979
573c1ccf-e13b-4084-be06-3e4b4cf6c848,Bright Ideas Brewing,taproom,111 Mass Moca Way,,,North Adams,Massachusetts,01247-2411,United States,4133464460,http://www.brightideasbrewing.com,-73.113917,42.702008
fb96e97e-6b00-4595-938b-d7ccccbbc371,Brockton Beer Company,taproom,121 Main Street,,,Brockton,Massachusetts,02301,United States,7748269476,http://www.brocktonbeer.com,-71.020367,42.083104
f20f4c6b-9e45-4ff6-af3e-c3f11d6a1828,Building 8 Brewing,micro,320 Riverside Dr Ste 8,,,Florence,Massachusetts,01062-2750,United States,4132501602,,-72.665034,42.320202
7c36b784-501d-4e81-8d76-f668566371c6,Bull Spit Brewing,micro,339 Seven Bridge Road,,,Lancaster,Massachusetts,01523,United States,9788783239,http://www.bullspitbrewing.com,-71.662644,42.463476
dd2fa1bb-5f8c-40c9-9638-332fc0795d03,Bull Spit Brewing,brewpub,20 Sudbury St,,,Maynard,Massachusetts,01754,United States,9788783239,,-71.459376,42.428973
e098a1d2-6efb-4aff-854f-4013ba2b9e57,Burke's Alewerks,taproom,200 Webster St Ste 3,,,Hanover,Massachusetts,02339-1230,United States,7813128207,http://www.burkesalewerks.com,-70.854511,42.153851
3fba5b89-2f49-4d45-8cf6-efc97bea8933,Buzzards Bay Brewing Co,taproom,98 Horseneck Rd,,,Westport,Massachusetts,02790-1399,United States,5086362288,http://www.buzzardsbrew.com,-71.054241,41.567138
a4979f24-580a-467a-8cb3-5ce9df1d30b4,Cambridge Brewing Co,brewpub,1 Kendall Sq Ste B1102,,,Cambridge,Massachusetts,02139-1592,United States,6174941994,http://www.cambridgebrewingcompany.com,-71.089477,42.36795
7f373ec6-348a-4146-b809-555219a1d1c1,Canned Heat Craft Beer Company,taproom,52 Ferry St Unit 1,,,Fall River,Massachusetts,02721,United States,4123704619,http://www.cannedheatbeer.com,-71.169056,41.701558
9749c8f4-5273-449f-9563-0dcd12a14e42,Cape Ann Brewing Co,brewpub,11 Rogers St,,,Gloucester,Massachusetts,01930-5014,United States,9782827399,,-70.66509344,42.61161602
7e1b62e7-054d-4dc9-8359-da4c874cc154,Cape Ann Lanes,planning,,,,Gloucester,Massachusetts,01930-2256,United States,9788799714,,,
0db2675b-27a2-4a37-a387-0a0477ef8e37,Cape Ann Lanes,brewpub,53 Gloucester Ave,,,Gloucester,Massachusetts,01930-2256,United States,9788799714,,-70.671449,42.622337
972823fa-5950-4bba-94e7-9a959b09a2bf,Cape Cod Beer,taproom,1336 Phinneys Ln Ste 2-2,,,Hyannis,Massachusetts,02601-1875,United States,5087904200,http://www.capecodbeer.com,-70.310604,41.678168
de3d4ee8-375c-4980-8ed1-c053afaf121e,Castle Island Brewing Co.,micro,31 Astor Ave,,,Norwood,Massachusetts,02062-5016,United States,7819512029,http://www.castleislandbeer.com,-71.192328,42.168841
034a0708-4767-4eda-ac20-99385ab746fb,Castle Island Brewing Co. - Boston,brewpub,10 Old Colony Ave,,,Boston,Massachusetts,02127,United States,,,-71.056551,42.337619
efecf28c-1f97-43b4-b283-11b8ad902d42,Cedar Point Brewery,planning,,,,Scituate,Massachusetts,02066-1317,United States,7818311724,,,
d7646611-58cd-4b1d-9572-c373a8c33401,Charlton Beer Company,micro,,,,Charlton,Massachusetts,01507,United States,5082485627,http://www.charltonbeercompany.com,,
58144e11-89a4-41bd-b65f-5b33de2b654a,Cheeky Monkey Brewing Co / Lucky Strike Jillians,brewpub,3 Lansdowne St,,,Boston,Massachusetts,02215-3412,United States,6178590030,http://www.cheekymonkeyboston.com,-71.094677,42.347312
7e749a31-8ae6-4997-9847-b3cdbd2e7c9e,Cisco Brewers,taproom,5 Bartlett Farm Rd,,,Nantucket,Massachusetts,02554-4341,United States,5083255929,http://www.ciscobrewers.com,-70.131276,41.263362
d6297627-04af-4209-a616-3ac16a87cb1c,Clown Shoes Beers,beer brand,220 BALLARDVALE ST STE E,,,WILMINGTON,Massachusetts,01887-1050,United States,7813651137,http://www.clownshoesbeer.com,-71.161841,42.591004
4ba70e1d-32f1-4f85-b722-74a0b0e329da,Coastal Mass Brewing,taproom,95 Rantoul St,,,Beverly,Massachusetts,01915,United States,9788571420,http://www.coastalmassbrewing.com,-70.884378,42.544765
6214314a-396b-4807-be4f-6033a61341ce,Cold Harbor Brewing Company,micro,108 Milk St Ste 6,,,Westborough,Massachusetts,01581-1228,United States,,http://www.coldharborbrewing.com,-71.624576,42.273639
4ebb74f6-57f4-4501-8dcd-a93bbcf28159,CraftRoots Brewing,taproom,4 Industrial Rd,,,Milford,Massachusetts,01757-3589,United States,5083811920,http://www.craftrootsbrewing.com,-71.492392,42.141659
26292d30-c367-4055-937b-c5c56aa6e170,"CraftRoots Brewing, LLC.",micro,4 Industrial Rd Ste 8,,,Milford,Massachusetts,01757-3589,United States,5083811920,http://www.craftrootsbrewing.com,,
96380a97-d12b-423e-9a03-a42991ecfb16,Crue Brew Brewery,micro,95 Ryan Dr Ste 6,,,Raynham,Massachusetts,02767-1992,United States,5082726090,http://www.cruebrewbrewery.com,,
d2f3c749-faf4-4551-a912-c207ccbc141a,Deadwood Brewery / Boston Bowl,brewpub,820 William T Morrissey Blvd,,,Boston,Massachusetts,02122-3404,United States,6177401440,http://www.deadwoodbrewery.com,-71.046282,42.293997
a78baae3-6e1e-496a-b014-544a5dc5d8d0,Democracy Brewing,brewpub,35 Temple Pl,,,Boston,Massachusetts,02111,United States,8572172739,http://www.democracybrewing.com,-71.06231578,42.35529623
31a96dc8-4986-42df-98d3-484a727f3ead,Devil's Purse Brewing Co,micro,120 Great Western Rd,,,South Dennis,Massachusetts,02660-3715,United States,5086947171,http://www.devilspurse.com,-70.141713,41.688583
075bfa1f-0e83-4fb9-9577-ddc789f63d16,Dirigible Brewing Company,taproom,3 South Terrace,,,Milford,Massachusetts,01757,United States,5088136069,,-71.505422,42.14456
57b8c4a5-0975-4916-ab6b-661e85a1fe4c,Distraction Brewing Company,planning,,,,Roslindale,Massachusetts,02131-3006,United States,,http://www.distractionbrewingco.com,,
1ea2e323-6932-41ed-8382-fb62ee3b4c1f,Distraction Brewing Company,micro,2 Belgrade Ave,,,Roslindale,Massachusetts,02132,United States,7818208863,http://www.distractionbrewingco.com,-71.130257,42.286863
113d2b74-bb5c-4954-9277-da0101571737,Dorchester Brewing Company,micro,1250 Massachusetts Ave,,,Dorchester,Massachusetts,02125-1698,United States,6175140900,http://www.dorchesterbrewing.com,-71.062552,42.321951
b070da5f-c530-4707-a3dd-5ae456ae7025,Double Down Brewing Company,micro,455B Park Ave,,,Worcester,Massachusetts,01610,United States,5083136791,http://www.doubledownbeer.com,-71.825343,42.254369
e1e4d221-608a-4a65-9a55-4f142ffb57d8,Down the Road Brewery,micro,199 Ashland Street,,,Everett,Massachusetts,02149,United States,6174544255,http://www.downtheroadbrewery.com,-71.061481,42.397645
642ebe90-354f-4cd3-af47-c599700123ae,Drawing Board Brewing Company,taproom,36 Main St,,,Florence,Massachusetts,01062,United States,4137278015,http://www.drawingboardbrewingco.com,-72.628999,42.319677
32d2362d-54d9-4b19-b8c7-112b369f5c45,"Drop Zone Brewery, LLC",taproom,10 Putnam St,,,Winthrop,Massachusetts,02152,United States,,,-70.985714,42.375446
cfff9480-fc9e-4ac6-addc-f64fbb834fef,Drunken Rabbit Brewing,micro,749A New Ludlow Rd,,,South Hadley,Massachusetts,01020,United States,4137282739,http://www.rabbit.beer,-72.556328,42.21575
08e6640c-2cd4-4af3-bdbd-befd040fa121,East Regiment Beer Company,taproom,30 Church St. #B1,,,Salem,Massachusetts,01970-4415,United States,9785944699,http://www.eastregimentbeercompany.com,-70.895051,42.522723
be78f4a5-2c4a-426b-8aa6-3577b0bde2ad,Element Brewing Co,micro,16 Bridge St,,,Millers Falls,Massachusetts,01349-1336,United States,4138356340,http://www.elementbeer.com,-72.49515,42.578809
3f8ad1a4-2cc8-4851-96f2-958f401ea4f0,Entitled Beer Company,proprietor,21 North St,,,Hingham,Massachusetts,02043-,United States,7817401035,http://www.entitledbrewing.com,-70.88618473,42.24360723
3e2e256e-ccdc-47e7-b079-7f39bc8a5a4a,Essex County Brewing Co,taproom,58 Pulaski Street,,,Peabody,Massachusetts,01960,United States,,,-70.927418,42.540543
8e8cea43-77dc-4504-9401-f3994b7a5659,Essex County Brewing Co,beer brand,58 Pulaski St Bldg A,,,Peabody,Massachusetts,01960,United States,6172764753,http://www.essexcountybrewing.com,-70.925748,42.540935
cbc96b9c-6ff0-4172-8bbd-02f4a55ab5bc,Exhibit 'A' Brewing Co. Inc,regional,81 Morton St,,,Framingham,Massachusetts,01702-7153,United States,7747773860,http://www.exhibit-A-brewing.com,-71.402123,42.278917
a7d211f2-dd84-4c2f-b8f9-498b74284a7a,Faces Brewing Co.,brewpub,50 Pleasant Street,,,Malden,Massachusetts,02148,United States,7818831807,http://www.facesbrewing.com,-71.0687,42.426666
a125b9a3-2013-4135-952b-3bb6ef90424f,Fetch Brew Co,micro,44 PLAZA AVE,,,BELCHERTOWN,Massachusetts,01007,United States,4134780414,,-72.443413,42.308294
4ad3ec8a-e09d-43f0-9d44-499e68bafee2,Fieldcrest Brewing Company,taproom,2343 Boston Road,,,Wilbraham,Massachusetts,01095,United States,4135963632,http://www.fieldcrestbrewing.com,-72.458464,42.150317
669510cc-1ffd-4141-bce1-f18d6d787b52,Floodwater Brewing Co,taproom,40 State St,,,Shelburne Falls,Massachusetts,01370,United States,,,-72.741068,42.604322
942a943c-ddf3-4a7c-984b-2176a1ba8834,Flying Dreams Brewing Co.,micro,455B Park Ave,,,Worcester,Massachusetts,01610,United States,5089268251,http://www.flyingdreamsbrewing.com,-71.82618857,42.25419957
41d63a65-bb95-45f5-8fb8-6c3cca5ead3a,Flying Dreams Brewing Co.,taproom,277 Main St 1st Floor,,,Marlborough,Massachusetts,01752,United States,5082510484,http://www.flyingdreamsbrewing.com,-71.55315,42.346932
99143ec6-594d-4ce6-8e94-cffe750dae0b,Fort Hill Brewery,micro,30 Fort Hill Rd,,,Easthampton,Massachusetts,01027-1268,United States,4132035754,http://www.forthillbrewery.com,-72.640176,42.281388
70f292fb-a251-48a2-b995-04a6c269185e,Four Phantoms Brewing Company,micro,301 Wells St,,,Greenfield,Massachusetts,01301,United States,,http://www.fourphantoms.net,-72.606414,42.601543
930f5822-bf77-4379-991e-a78d606b6a41,Gentile Brewing Company,taproom,59 Park St # 1,,,Beverly,Massachusetts,01915-4253,United States,9789696496,http://www.gentilebrewing.com,-70.884239,42.549363
7ef61779-bec2-4d78-a105-add85b71c03c,Gilded Skull Brewing & Blending,alt prop,19 Wade Ave,,,Woburn,Massachusetts,01801,United States,,http://www.gildedskullbrewing.com,-71.14762,42.482534
553e835b-4c41-4d59-954d-25f773afcf80,Goat Creek Brewing,planning,,,,Northampton,Massachusetts,01062-1326,United States,,,,
9207f8fd-49bc-4249-a9c5-a2fe40e521bd,Granite Coast Brewing Company,taproom,77 Main St,,,Peabody,Massachusetts,01960,United States,9785952775,http://www.granitecoastbrewing.com,-70.924486,42.524064
7fc10d9b-8289-4db8-9bc4-c09e72d94b6e,Greasy Luck Brewery,brewpub,791 Purchase St,,,New Bedford,Massachusetts,02740-6345,United States,7744254600,http://www.greasyluckbrewery.com,-70.92607527,41.63507079
12dd2af5-40dd-43ed-8b89-70c5ea17db1b,Great Awakening Brewing Company,brewpub,77 Mill St,,,Westfield,Massachusetts,01085,United States,4138757868,http://www.greatawakeningbrewing.com,-72.767926,42.112053
c0cbcf17-b28c-4d21-9fd5-9ce70e96050d,Great Marsh Brewing Company,brewpub,99 Main St,,,Essex,Massachusetts,01929,United States,3392222415,,-70.776901,42.631027
f54f3497-c3bd-406e-a185-c65382c8d7d6,Greater Good Imperial Brewing Co.,micro,55 Millbrook St,,,Worcester,Massachusetts,01606,United States,5089268736,http://https://greatergoodimperials.com,-71.80151,42.288839
3abc3db2-bf65-4cf1-9f0e-d9b11cf10a7c,Harper Lane Brewery,alt prop,127-1 Camelot Dr,,,Plymouth,Massachusetts,02360,United States,,,-70.645748,41.927906
3b88a2c7-a7be-48e9-9da9-590482876f57,Harpoon Brewery,regional,306 Northern Ave Ste 2,,,Boston,Massachusetts,02210-2367,United States,6175749551,http://www.harpoonbrewery.com,-71.033991,42.347476
9d1339aa-42b0-4e97-a074-bf4a9cf2a0d6,Henry And Fran Brewing,micro,185 Laurel St,,,West Boylston,Massachusetts,01583-1535,United States,4253273457,,-71.81026703,42.39166897
82f0d496-e55f-4f4d-944f-1cfefc7f9fbf,High Horse Brewery and Bistro,contract,24 N Pleasant St,,,Amherst,Massachusetts,01002-1703,United States,4132303034,http://www.highhorsebrewing.com,-72.5201343,42.376218
62dcbcdd-ffa4-4a9e-ad1e-bffba2b5cba5,Hingham Beer Works,brewpub,18 Shipyard Dr Ste 1K,,,Hingham,Massachusetts,02043-1670,United States,7817492337,,,
93793161-bc9b-46f7-908c-10d7af3cbbf8,Hitchcock Brewing Company,micro,129 Christian Ln,,,Whately,Massachusetts,01093,United States,4136952400,http://www.hitchcockbrewing.com,-72.60641222,42.44606511
1e139f22-2cc0-4cf6-be4f-17ac49856deb,Hitchcock Brewing Company,taproom,203 South Street,,,Bernardston,Massachusetts,01337,United States,4136952400,http://www.hitchcockbrewing.com,-72.561248,42.658799
0d66df52-905e-492d-8565-1fa33fe40195,Hog Island Beer Company,micro,PO Box 1901,,,Orleans,Massachusetts,02653-1901,United States,5082552337,http://www.hogislandbeerco.com,,
cca3925c-f25b-4b6e-bef8-868941b177c0,Hog Island Beer Company,micro,28 West Road,,,Orleans,Massachusetts,02653,United States,5082552337,http://www.hogislandbeerco.com,-70.000272,41.783255
39f3a150-6c50-4c04-a67e-13b9c5922ff7,Holyoke Craft Beer,micro,208 Race Street,,,Holyoke,Massachusetts,01040,United States,,http://https://www.holyokecraftbeer.com/,-72.605819,42.202099
a86a5712-7d32-4ade-a350-2245056ad635,Homefield Brewing,brewpub,3 Arnold Rd,,,Fiskdale,Massachusetts,01518,United States,7742426365,http://www.homefieldbrewing.com,-72.106652,42.115051
06b628c9-8bfb-40c3-abb5-bec1c15dc01f,Honest Weight Artisan Beer,taproom,131 W Main St Ste 104,,,Orange,Massachusetts,01364-1159,United States,4135376659,http://www.honestweightbeer.com,-72.31518,42.591634
54d9ede4-589a-4650-884a-415b9316548d,Hopothecary Ales,brewpub,303 Main Street,,,North Reading,Massachusetts,01887,United States,9783177771,http://www.HopothecaryAles.com,-71.118925,42.595715
19daae01-234c-471b-8541-5ec2ebda543f,Hopsters,brewpub,292 Centre St,,,Newton,Massachusetts,02458-1618,United States,6179160752,http://www.hopstersbrew.com,-71.1852104,42.3560516
c56c44b4-c4da-4563-814c-91232be3ef1d,Hot Plate Brewing Co.,taproom,1 School Street,,,Pittsfield,Massachusetts,01201,United States,9174841329,http://www.hotplatebeer.com,-73.253374,42.449517
ac61b0f1-cb04-4362-9446-ad4ade13ec74,Idle Hands Craft Ales,micro,89 Commercial St,,,Malden,Massachusetts,02148-5509,United States,7813336070,http://www.idlehandscraftales.com,-71.074686,42.424127
73357541-682f-4a38-89c0-599682ed8dbc,Independent Fermentations Brewing,taproom,127 Camelot Dr Ste 3,,,Plymouth,Massachusetts,02360-3039,United States,5087464634,http://www.independentfermentations.com,-70.645748,41.927906
783cf348-6a53-404f-99f6-eac225d1334d,Ipswich Ale Brewery,micro,2 Brewery Pl,,,Ipswich,Massachusetts,01938-1196,United States,9783563329,http://www.ipswichalebrewery.com,-70.841482,42.681173
df561fc1-54b8-4a17-94fb-c344202bafed,Iron Duke Brewing Co,micro,100 State St Ste 122,,,Ludlow,Massachusetts,01056-3435,United States,4136246258,http://www.irondukebrewing.com,-72.476569,42.156273
6299623b-bae2-4152-88a5-47e5b63bb4f8,"Jack's Abby Brewing, LLC",regional,100 Clinton St,,,Framingham,Massachusetts,01702-6748,United States,5088720900,http://www.jacksabby.com,-71.410717,42.280769
45f45287-e619-4497-87cb-79fab92d6ef7,John Harvards Brew House - Framingham,brewpub,1 Worcester Rd,,,Framingham,Massachusetts,01701-5359,United States,5088752337,http://www.johnharvards.com,-71.39619245,42.30411485
c343a4f2-8c31-4424-8ac6-ae514fe7f64e,Kismet Brewing Company,planning,,,,Westfield,Massachusetts,01085,United States,9789957711,http://www.kismetbrewing.com,,
acbb8b3a-489a-4f95-91d0-1f85652dbec2,Kismet Brewing Company,taproom,66 South Broad Street,,,Westfield,Massachusetts,01085,United States,9789957711,http://www.kismetbrewing.com,-72.745666,42.110277
703642bf-e271-404d-9da3-7f753a0e7fb4,Kretschmann Brewing Company,micro,9 Frederick St,,,Webster,Massachusetts,01570-2286,United States,5086717711,http://kbcbrewery.com,-71.8807961,42.05004191
52ea2f4a-4fa3-4b6e-9c96-bd89a8689d16,Lamplighter Brewing Co.,taproom,284 Broadway,,,Cambridge,Massachusetts,02139-1808,United States,6179450450,http://www.lamplighterbrewing.com,-71.097962,42.367779
92b13cdc-59fc-4237-87a0-c25c763ace38,Lamplighter CX,taproom,110 N First St,,,Cambridge,Massachusetts,02141,United States,,,-71.075911,42.372239
fbf747bf-9173-437b-941a-67a20d613c14,Laneside Pub & Brewery,brewpub,53 Gloucester Ave,,,Gloucester,Massachusetts,01930-2256,United States,9788799714,,-70.671537,42.622505
9257ed3d-c0df-47d5-9a4b-f4932d6f837f,Leadfoot Brewing,taproom,95 N Chicopee St,,,Chicopee,Massachusetts,01020-2216,United States,4133159828,http://www.leadfootbrewing.com,-72.597934,42.194775
69d7f5d8-0d45-48dc-8f7c-95d3c05efcbc,Lefty's Brewing Co,micro,301 Wells St,,,Greenfield,Massachusetts,01301,United States,4136486111,http://www.leftysbrew.com,-72.60686067,42.60121604
e7c13236-3cde-47c5-83e1-1698ce94e45e,Lookout Farm Brewing And Cider Co,taproom,89 Pleasant St,,,Natick,Massachusetts,01760-5669,United States,5086511539,http://www.lookoutfarmbrewing.com,-71.311384,42.26144
8f160bf6-649a-4365-8703-372aed64eca3,Lord Hobo Brewing Co,regional,5 Draper St,,,Woburn,Massachusetts,01801-4521,United States,7812810809,http://lordhobobrewing.com,-71.128879,42.476216
10c94933-4bfc-443c-9447-bab0352704a0,Lost Shoe Brewing and Roasting Company,taproom,19 Weed St,,,Marlborough,Massachusetts,01752,United States,,http://www.lostshoebrews.com,-71.547282,42.34642
79f6e8b9-5021-4760-bec4-b2fa8b1983ee,Lost Towns Brewing Company,taproom,483 Main St,,,Gilbertville,Massachusetts,01031-0165,United States,4132770818,http://www.losttownbrewing.com,-72.211126,42.301833
55bc3336-5482-47b0-ae38-f25cf2fa79ec,Lowell Beer Works,brewpub,203 Cabot St,,,Lowell,Massachusetts,01854-,United States,9789372337,,-71.31643612,42.6505753
6fb1b874-26c7-40bf-a963-9e374f495e41,Loyal Foe Brewing Company,micro,177 Mass Ave,,,Harvard,Massachusetts,01451,United States,8605390865,http://https://loyalfoebrewco.com/,-71.561073,42.494959
59736f54-303c-49d8-9daf-8080d3cff2ae,Lyons Den Brewing Co.,planning,,,,Wrentham,Massachusetts,02093,United States,,,,
2f2409c0-09db-4b7b-b68d-4eb5076226bc,Marblehead Brewing Company,micro,124 Pleasant St,,,Marblehead,Massachusetts,01945,United States,7817970211,http://www.marbleheadbrewing.co,-70.8573661,42.50125386
7d7f31a3-8e08-4cfc-b929-c545b41eaa05,Mayflower Brewing Co,micro,12 Resnik Rd,,,Plymouth,Massachusetts,02360-7245,United States,5087462674,http://www.mayflowerbrewing.com,-70.71255496,41.94926024
2f05f20a-6fb0-4fed-94d2-f968652439ea,Medford Brewing,taproom,30-34 Harvard Ave,,,Medford,Massachusetts,02155,United States,,http://www.medfordbrewingcompany.com,-71.133616,42.42042
0a21307c-a2d0-48eb-b9c9-a88032b3b49c,Medusa Brewing Company,micro,111 Main St,,,Hudson,Massachusetts,01749-2210,United States,5083950122,http://www.medusabrewing.com,-71.566681,42.3909986
137ab968-359e-4dbd-a4ac-e2ef05ace2bc,Medusa Brewing Company,micro,111 Main Street,,,Hudson,Massachusetts,01749,United States,5083950122,http://www.medusabrewing.com,-71.566664,42.390945
72c36c03-55db-4310-8b6f-66ed9942c29e,Merrimack Ales,micro,92 Bolt St,,,Lowell,Massachusetts,01852-5316,United States,9787017225,http://www.merrimackales.com,-71.297259,42.625202
f856d961-d228-4dce-aa16-57eef43e6298,Mighty Squirrel,contract,745 Atlantic Ave,,,Boston,Massachusetts,02111-2735,United States,7602120802,http://www.mightysquirrel.com,-71.0569929,42.3502282
c85af74a-e851-4ca4-9fb4-4acb24f05546,Milk Room Brewing Company,taproom,80 Hillside Rd,,,RUTLAND,Massachusetts,01543,United States,5088866616,http://www.milkroombrewing.com,-71.926402,42.354607
93025041-59f2-44a9-8a2b-bec7c74c158b,Moby Dick Brewing Co.,brewpub,16 S Water St,,,New Bedford,Massachusetts,02740-7235,United States,7742026961,http://www.mobydickbrewing.com,-70.92251325,41.63382101
2cdc0149-5835-41d0-95a7-4d528b21488b,Modest Roots Brewing Co.,micro,3 Industrial Way,,,Tyngsborough,Massachusetts,01879,United States,,http://www.modestrootsbrewing.com,-71.427758,42.662789
ab554af2-05cd-43cf-865a-2e5442ff8f2a,"Moon Hill Brewing Co., Inc.",brewpub,74 Parker St,,,Gardner,Massachusetts,01440-3809,United States,9786690122,http://www.gardnerale.com,-71.997427,42.575797
8de27ce6-0a50-4c0c-99a1-52f361e954a0,Mystic Brewery,micro,174 Williams St,,,Chelsea,Massachusetts,02150-3804,United States,,,-71.0445104,42.3915659
4aac21f5-3cd7-450e-9245-fa07d1c444f7,Naukabout Brewery,brewpub,13 Lake Ave,,,Mashpee,Massachusetts,02649-2075,United States,7743130200,http://www.naukabout.com,-70.484309,41.650096
facec4b8-02cb-4257-b12f-6188679557d8,Navigation Brewing Co,taproom,122 Western Ave,,,Lowell,Massachusetts,01851-1433,United States,,http://www.navigationbrewing.com,-71.320958,42.639918
a0ee9d3c-4672-45c4-9d1c-372ce110fd01,New City Brewery,taproom,180 Pleasant St Ste 2,,,Easthampton,Massachusetts,01027-1297,United States,4135292000,,-72.659399,42.274782
c94db1c9-bd81-4a4d-a3c6-bfab07f991cc,Newburyport Brewing Co,micro,4 New Pasture Rd,,,Newburyport,Massachusetts,01950-4040,United States,9784638700,http://www.nbptbrewing.com,-70.886543,42.804505
9cac1034-004e-42e5-803a-20051f1f79f3,Night Shift Brewing,planning,,,,Boston,Massachusetts,02114,United States,,,,
6e6ea598-892b-4fcd-827c-2b3cf0c78c03,Night Shift Brewing Lovejoy Wharf,brewpub,"1 Lovejoy Wharf, Suite 101",,,Boston,Massachusetts,02114,United States,,,-71.059455,42.367326
b5e1df63-f7fe-4350-b724-f55935e77638,"Night Shift Brewing, Inc",regional,87 Santilli Hwy,,,Everett,Massachusetts,02149-1906,United States,6172944233,http://www.nightshiftbrewing.com,-71.068006,42.405991
6fcab9b2-c9bf-40eb-a82e-53bc6a69e5e5,Northampton Brewery,brewpub,11 Brewster Ct,,,Northampton,Massachusetts,01060-3801,United States,4135849903,http://www.northamptonbrewery.com,-72.6303406,42.317397
cfaff05e-fab7-4530-b84e-bf10f5d439b7,Notch Brewing,micro,283R Derby St,,,Salem,Massachusetts,01970,United States,9782389060,http://www.notchbrewing.com,-70.890832,42.519877
fd935ab3-02c3-4c7d-ac5e-019a0a296394,Notch Brewing - Brighton,taproom,525 Western Ave,,,Brighton,Massachusetts,02135,United States,9782389060,,-71.130094,42.373682
47226f07-fbbd-4f97-88b9-e8a7a6e0f5a8,Oak & Iron Brewing Co,taproom,18 Red Spring Rd,,,Andover,Massachusetts,01810-3448,United States,9784754077,http://www.oakandironbrewing.com,-71.147118,42.656502
ab099cdc-0176-4dc9-8d81-f5180490f624,Oakholm Brewing Company,taproom,80 Lake Rd,,,Brookfield,Massachusetts,01506,United States,4132729620,http://www.oakholmbrewing.com,-72.080369,42.194599
3208af9a-4b72-4023-827c-8f41336a6227,Off The Cuff Brewing Company,planning,,,,West Brookfield,Massachusetts,01585-6023,United States,4132810525,,,
9e3524ee-a548-4089-8de2-7a82c9cd767f,Offshore Ale Co,brewpub,30 Kennebec Ave,,,Oak Bluffs,Massachusetts,02557,United States,5086932626,http://www.offshoreale.com,-70.55790959,41.45488324
ba6f163e-34ae-4314-9003-59f0720e2197,Old Colony Brewing,taproom,605 Bedford St Unit 1,,,Whitman,Massachusetts,02382-2088,United States,7815237105,http://www.oldcolonybrew.com,-70.945782,42.07742
2582e5ad-5382-4e33-a5a3-7c0e321b7208,Old Planters Brewing Co.,micro,100 Corning St,,,Beverly,Massachusetts,01915-3837,United States,9785226446,http://www.oldplanters.com,-70.86287139,42.55499645
1ac65b29-5bc0-4361-9be2-6f4d014e2fd9,Old Planters Brewing Co.,taproom,232 Rantoul St,,,Beverly,Massachusetts,01915,United States,978.522.6446,http://www.oldplanters.com,-70.883919,42.549374
d4a00a92-4683-4476-8184-d20564ccc81d,ONE WAY Brewing,taproom,807 Maple Road,,,Longmeadow,Massachusetts,01106,United States,4132227763,http://www.1waybrewing.com,-72.55222,42.032745
e7098631-04bb-4065-bf60-1416a452a022,Opa Opa Brewery,contract,19 Wemelco Way,,,Easthampton,Massachusetts,01027,United States,4135270808,http://www.opaopasteakhousebrewery.com,-72.69191299,42.25467048
816eae14-e2ae-434e-8c7d-f24481dd4c9b,Outlook Farm Brewery,micro,136 Main Rd,,,Westhampton,Massachusetts,01027-9673,United States,4135299388,http://www.outlookfarm.com,-72.761408,42.28735
5e934252-53d3-4160-8021-f490d1b7eb7e,Owen OLearys Restaurant and Brewery,brewpub,17 Connector Rd,,,Westborough,Massachusetts,01581-3916,United States,5083669262,http://www.owenolearys.com,-71.585905,42.287657
a17858d1-e5aa-41c5-a429-8418b7890d9d,Paramount Brewing Company,planning,,,,Andover,Massachusetts,01810-5011,United States,6178691388,,,
3980d9d3-0831-4f23-96f9-83e08f176fc6,Penny Pinchers Brewing Co,taproom,75 Elm Street,,,Millbury,Massachusetts,01527,United States,5085814181,http://www.pennypinchersbrewing.com,-71.759609,42.191428
da9fa8f8-bf7d-47b8-baa9-9e3f4da93b86,Percival Brewing Company,taproom,83 Morse St,,,Norwood,Massachusetts,02122,United States,7816644705,http://www.percivalbeercompany.com,-71.20564,42.171249
0d206bbe-547d-4180-b0d4-2cdf05676971,Plymouth Beer Company / Dirty Water Distillery,taproom,10 Water St,,,Plymouth,Massachusetts,02360-3349,United States,5085910589,,-70.662156,41.95489
e2ae7c8c-6317-4c6b-8b13-f36667508ddb,Portico Brewing Co,contract,256 Moody Street,,,Waltham,Massachusetts,02453,United States,,,-71.2366218,42.3718244
195b0ab2-ebc4-476e-a52a-8b454432227e,Powder Hollow Brewery - Yankee Candle Village,taproom,25 Greenfield Rd,,,South Deerfield,Massachusetts,01373,United States,8602050942,,-72.615366,42.474909
73753cf6-da86-48d8-baff-5ae013e04c16,Progression Brewing Company,brewpub,9 Pearl St,,,Northampton,Massachusetts,01060,United States,4133413517,http://www.progressionbrewing.com,-72.627179,42.318572
db4d0126-b6df-4218-b18c-5020b203d561,Provincetown Brewing Co.,brewpub,141 Bradford St,,,Provincetown,Massachusetts,02657,United States,5084184499,http://www.provincetownbrewingco.com,-70.185673,42.053472
2fc1f3e1-43bf-4e50-9877-cc80a600de29,"Purgatory Beer Co, LLC",taproom,670 Linwood Ave Bldg C,,,Whitinsville,Massachusetts,01588-2068,United States,7745450243,http://www.purgatorybeer.com,-71.646827,42.09775
1084cdaa-c536-42c0-a2c6-20c9f0253aed,Rapscallion Ales,micro,5 Strawberry Hill Rd,,,Acton,Massachusetts,01720-5706,United States,5083477500,http://www.drinkrapscallion.com,-71.41585461,42.4919605
c4bc2421-589c-44b6-b836-9912b7603757,Rapscallion Ales,micro,8 Meadow Rd,,,Sturbridge,Massachusetts,01562,United States,5083477500,http://www.drinkrapscallion.com,-72.008272,42.238486
f8dad557-f4a4-4ca0-ae18-b8b4411ca6ff,Red Bird,planning,,,,Waltham,Massachusetts,02453-5208,United States,7818915486,http://www.redbirdwaltham.com,,
9491b38d-d802-4d8b-86c8-f4c20ff48267,Redemption Rock Brewing Co,taproom,333 Shrewsbury St,,,Worcester,Massachusetts,01604,United States,9786605526,http://www.redemptionrock.beer,-71.777901,42.268964
8fe6ed9e-872b-46dd-a33d-1a2661bb1fbf,Remnant Brewing,taproom,2 Bow Market Way,,,Somerville,Massachusetts,02143,United States,,http://www.remnantsomerville.com,-71.1033,42.3786
f3aeb883-5ed4-41c2-a4da-0ca55516affd,River Styx Brewing,micro,166 Boulder Dr Ste 112,,,Fitchburg,Massachusetts,01420-3168,United States,9786965176,http://www.riverstyxbrewing.com,-71.801374,42.582478
b3ff8d79-69ef-41d5-b907-1f154bd5fe7a,Riverwalk Brewing Co.,micro,40 Parker St,,,Newburyport,Massachusetts,01950-4056,United States,9784992337,http://www.riverwalkbrewing.com,-70.86726727,42.79921535
ddc99c09-7f86-48c5-aabf-be2b1e4233ab,Rockport Brewing Company,micro,9 Ridgewood Terrace,,,Rockport,Massachusetts,01966,United States,,http://rockportbrewingcompany.com,-70.607624,42.637445
51dcb550-d320-4435-a3a0-a21ce9bc9be6,Roundhead Brewing Company,brewpub,1 Westinghouse Plaza,,,Hyde Park,Massachusetts,02136,United States,,http://www.roundheadbrewing.com,-71.131622,42.245736
4a0c5671-534e-409b-9a48-67e0a83aab50,Rushford & Sons Brewhouse,taproom,8 Grove St,,,Upton,Massachusetts,01568-1316,United States,5089632167,http://www.rasbrewhouse.com,-71.602775,42.173134
b0dc7800-265d-42e8-8c76-baebeecd2bf4,Rustic Brewing Company,taproom,34 Front St Studio G21,,,Indian Orchard,Massachusetts,01151,United States,4132737166,http://www.rusticbrewco.com,-72.5071,42.153
d75ad0e6-7f74-4708-9828-4298ca8b9e46,Salem Beer Works,location,278 Derby St,,,Salem,Massachusetts,01970-3635,United States,9787452337,http://www.beerworks.net,-70.891193,42.520632
d2950fc3-0965-4692-90ad-b9d8a8031829,Saltbox Brewery,brewpub,84 Commonwealth Ave,,,Concord,Massachusetts,01742-2904,United States,9782123585,http://www.saltboxkitchen.com,-71.394997,42.45725
7f0a3ebf-1467-4a6c-af59-561fa81ff1d0,Saltmarsh Brewery,planning,,,,Foxboro,Massachusetts,02035-2299,United States,6177996627,http://adam@saltmarshbrewery.com,,
9f4e6e6d-4766-45b0-af37-c6d837870451,Samuel Adams Boston Taproom,taproom,60 State Street,,,Boston,Massachusetts,02019,United States,6174666418,,-71.056399,42.35935
7f3deb67-f5c3-41d3-87fb-e7cfad259674,Scantic River Brewery,taproom,25 Mill Rd,,,Hampden,Massachusetts,01036-9624,United States,4132049163,http://www.scanticriverbrewery.com,-72.441217,42.051964
f15270cc-923b-439a-98de-03634439e101,Scottish Bloodline Brewing,planning,,,,Lowell,Massachusetts,01851-4638,United States,9784556163,http://Www.scottishbloodlinebrewing.com,,
881330a0-bd06-4d83-b003-ae429a44b761,Second Wind Brewing Company,taproom,7 Howland St,,,Plymouth,Massachusetts,02360-3810,United States,5085915915,http://www.secondwindbrewing.com,-70.666585,41.958474
82cace02-124a-4cc5-bec1-0cd7a5b78129,Sena Farm Brewery,micro,151 Buffington Hill Rd,,,Worthington,Massachusetts,01098,United States,4138962627,http://www.senafarmbrewery.com,-72.950411,42.415977
361c55f0-236e-4e2c-b6a1-0393b820676e,Seven Saws,taproom,112 Industrial Drive,,,Holden,Massachusetts,01520,United States,6177103242,http://www.sevensawsbrewing.com,-71.843758,42.338356
84c013fc-1f60-4569-b009-973a48e480dc,Shire Breu Hous,brewpub,63 Flansburg Ave,,,Dalton,Massachusetts,01226,United States,4138428313,http://www.shire.beer,-73.173046,42.474596
721d8224-c432-47ec-a706-3a888cdb72f2,"Shovel Town Brewery, Inc.",brewpub,50 Oliver St Rear,,,North Easton,Massachusetts,02356-1446,United States,5082057151,,,
78479bf5-953c-4339-8e12-a3ba3c0a5fb3,Skyline Beer Company,brewpub,98 Southwick Rd,,,Westfield,Massachusetts,01085,United States,4133783333,http://www.skylinebeerco.com,-72.763862,42.106914
e7cde6c1-fce9-43cd-8cb8-6867172e084c,Skyroc Brewery,taproom,11 Riverbank Rd,,,Attleboro,Massachusetts,02703,United States,7743312336,http://www.skyrocbrewery.com,-71.286208,41.94436
6d654268-585f-4da4-9bcd-bc6a3fd550e2,Slesar Bros Brewing Co - Boston Beer Works,location,112 Canal St,,,Boston,Massachusetts,02114-1805,United States,6178962337,http://www.beerworks.net,-71.060497,42.364378
6b946d80-9365-4f6c-90d5-ad9258e2b149,Slesar Bros Brewing Co - Boston Beer Works,location,61 Brookline Ave,,,Boston,Massachusetts,02215-3406,United States,6175362337,http://www.beerworks.net,-71.099126,42.347209
f54feebc-3b22-4c50-acdc-aedcad5837a1,Slesar Bros Brewing Co - Corp,office only location,110 Canal St,,,Boston,Massachusetts,02114-1805,United States,,,-71.060524,42.364554
d4b6dce4-8521-402d-a39b-0eef19bfcb7f,Somerville Brewing Company,micro,15 Ward St,,,Somerville,Massachusetts,02143-4228,United States,8004281150,http://www.slumbrew.com,-71.0890345,42.3749103
12acf8bd-a7f5-4eb7-acbd-c07ec983d7c7,Sour Not Sorry Brewing,micro,48 JAMIES PATH,,,PLYMOUTH,Massachusetts,02360,United States,5083329662,http://www.sournotsorrybrewing.com,-70.716651,41.943682
ebe3d590-e35e-49ba-9ce6-df24e50fe330,Spencer Brewery,micro,167 N Spencer Rd,,,Spencer,Massachusetts,01562-1232,United States,5088855756,http://www.spencerbrewery.com,-72.0133159,42.2976331
4d19feb8-f7f2-405b-ab9d-5844c7c28542,Spicket River Brewery,brewpub,56 Island St,,,Lawrence,Massachusetts,01840,United States,9786555784,http://www.spicketriverbrewery.com,-71.152472,42.705849
851420af-9b77-498f-ac1b-43daddc03941,Start Line Brewing Company,taproom,151R Hayden Rowe St,,,Hopkinton,Massachusetts,01748-2511,United States,5082587200,http://www.startlinebrewing.com,-71.513236,42.210257
17086f05-6d04-4e38-8924-8b16ad921480,Stellwagen Beer Company,planning,,,,Marshfield,Massachusetts,02050,United States,7817899162,http://www.stellwagenbeer.com,,
705da44f-1f70-4e91-90a9-7750db379306,Stellwagen Beer Company,taproom,100 Enterprise Drive,,,Marshfield,Massachusetts,02050,United States,7817899162,http://www.stellwagenbeer.com,-70.747771,42.103505
8033932d-07cb-4edb-8116-fc1dfa4428e2,Sterling Street Brewery,taproom,175 Sterling Street,,,Clinton,Massachusetts,01510,United States,9788751808,http://www.sterlingstreetbrewery.com,-71.693821,42.422791
51406172-17ff-49ec-a1ec-218756528dd4,Still River Brewery,micro,121 Clinton Shore Dr.,,,Still River,Massachusetts,01467-0157,United States,,,,
28e04f1d-11f9-4ea9-b67c-a155e8c88b81,Stone Cow Brewery,brewpub,500 West St (Route 122),,,Barre,Massachusetts,01005,United States,9782578600,,-72.120901,42.427251
772310d2-06d3-42c6-b494-7622dc87b15d,Stoneman Brewery,micro,20 Stetson Bros Rd,,,Colrain,Massachusetts,01340-9733,United States,4136245195,,-72.780347,42.705691
ba213843-3fc3-4447-a9da-682d2b86c605,Tackle Box Brewing LLC,taproom,416 Boston Post Rd E,,,Marlborough,Massachusetts,01752,United States,5083952096,http://www.tackleboxbrewing.com,-71.513447,42.348406
923164b5-74c4-4d58-ab73-611910c4be8c,The Brewery at Four Star Farms,taproom,508 Pine Meadow Rd.,,,Northfield,Massachusetts,01360,United States,4132253187,http://www.fourstarbeer.com,-72.481381,42.632516
1e4065a2-1d35-4571-bc57-f3a0e1c0baa6,The Girls Brewery,alt prop,53,,,Bridgewater,Massachusetts,02324,United States,7817386394,http://www.thegirlsbrewery.com,-70.9743,41.9786
044fc194-fa8d-41cb-8a8c-6b1d18b4b3bd,The People's Pint / Franklin County Brewing Co,micro,76 Hope St,,,Greenfield,Massachusetts,01301-3573,United States,4137730333,http://www.thepeoplespint.com,-72.599529,42.584486
f726f11e-905b-4378-aefe-ab63a493900c,The Tap Brewing Company,brewpub,100 Washington St,,,Haverhill,Massachusetts,01832-5500,United States,6178358315,http://www.tapbrewingcompany.com,-71.085219,42.772679
3dad5c51-fc9e-4d00-8760-dd82518311f1,Thirsty Robot Brewing Company,micro,Thirsty Robot Brewing Co.,,,Fitchburg,Massachusetts,01420,United States,9788955931,http://www.thirstyrobotbrewing.com,-71.8055,42.5773
72466771-4af4-4da5-a120-06081eda08d8,Timberyard Brewing Co.,planning,,,,East Brookfield,Massachusetts,01515,United States,4135526048,http://timberyardbrewing.com,,
f41d97b8-4e1b-4527-b11e-bd38c5779905,Timberyard Brewing Co.,taproom,555 E Main St,,,East Brookfield,Massachusetts,01515,United States,7747458192,http://http://timberyardbrewing.com,-72.029088,42.230853
da072acf-a430-4fa7-9b49-39bd2a391fce,Tin Bridge Brewing,taproom,487 E Main St,,,Westfield,Massachusetts,01085,United States,4136426418,http://www.tinbridgebrewing.com,-72.721315,42.111785
1c0e323d-45ab-4d0c-9f27-8e8a62df3703,Tree House Brewery,regional,129 Sturbridge Rd,,,Charlton,Massachusetts,01507-5330,United States,4139491891,http://www.treehousebrew.com,-72.016159,42.139624
915ef353-903f-49a1-9752-935885ae28e7,Tree House Cape Cod,taproom,98 Town Neck Rd,,,Sandwich,Massachusetts,02563,United States,,http://www.treehousebrew.com/visiting-sandwich,-70.491815,41.772038
c03a12eb-9a25-4841-8f41-e78d0053fa3d,Trillium Brewing,taproom,110 Shawmut Rd,,,Canton,Massachusetts,02021-1412,United States,6174538745,http://www.trilliumbrewing.com,-71.152628,42.184404
02f6cd69-0a9e-4f29-b24f-cca95437ab81,Trillium Brewing,brewpub,100 Royall St,,,Canton,Massachusetts,02021,United States,8574490083,,-71.122437,42.205741
2cc487d7-f197-45b7-b8ae-735cfa47d1f4,Trillium Brewing - Fenway,taproom,401 Park Drive,,,Boston,Massachusetts,02215,United States,6174538745,,-71.102782,42.34397
c35df466-1259-49f8-9d31-b212c7c34d8e,Trillium Brewing - Fort Point,brewpub,50 Thomson Pl,,,Boston,Massachusetts,02210,United States,8574490083,,-71.047299,42.351769
17834bb1-5612-476b-975f-ac3e58604799,Troy City Brewing,taproom,16 Anawan St,,,Fall River,Massachusetts,02721,United States,5085671502,http://www.troycitybeer.com,-71.16353,41.703129
3212e300-8e52-4f6a-a845-e68ca7492c6b,True North Ale Company,micro,116 County Rd,,,Ipswich,Massachusetts,01938-2501,United States,9783126473,http://www.TrueNorthAles.com,-70.836348,42.669821
4e46363e-54f7-454f-91e7-2aa59c95361d,True West Brewing Company,brewpub,525 Massachusetts Ave Ste 107,,,Acton,Massachusetts,01720-2962,United States,9782061600,http://www.brewtruewest.com,-71.470329,42.476201
d80aff0a-64a7-4a7f-b609-4386dc7a1d59,Turtle Swamp Brewing,taproom,3377 Washington St,,,Jamaica Plain,Massachusetts,02130-2617,United States,6175220038,http://www.turtleswampbrewing.com,-71.105457,42.308999
e8c3e21f-3e81-40a3-9495-3ccd38c6feb1,Twisted Fate Brewing,taproom,120 Andover St Ste 4,,,Danvers,Massachusetts,01923-5304,United States,6178517205,http://www.twistedfatebrewing.com,-70.967039,42.555634
aa0d1d53-c1cc-4c73-9478-024401f767d5,Two Weeks Notice Brewing,taproom,110 Bosworth St,,,West Springfield,Massachusetts,01089,United States,7817275789,http://www.twoweeksnoticebrewing.com,-72.619411,42.095419
0aa072bb-50cc-49b2-bda0-a4d8fd2ce34f,Untold Brewing,micro,6 Old Country Way,,,Scituate,Massachusetts,02066-3773,United States,7813780559,http://www.untoldbrewing.com,-70.74750286,42.18080776
6aa5bb2f-7b2f-43b6-8291-216bdc545f8e,Vanished Valley Brewing Co.,brewpub,782 Center Street,,,Ludlow,Massachusetts,01056,United States,4132710503,http://www.vanishedvalley.com,-72.462541,42.187207
affe57b1-0891-4df3-aef1-28a3546e6571,Vitamin Sea Brewing,planning,,,,Hull,Massachusetts,02045-2907,United States,7815894569,,,
5f6a874b-33de-4387-928e-b095e03a58f8,Wachusett Brewing Co,regional,175 State Rd E,,,Westminster,Massachusetts,01473-1208,United States,9788749965,http://www.wachusettbrew.com,-71.870196,42.558437
b81fff19-0289-4b1b-83d4-c2d13d1b02f1,Wachusett Brewing Co,taproom,152 Green Street,,,Worcester,Massachusetts,01604,United States,9788749965,,-71.797659,42.255785
31b7c264-84ca-4317-92a1-9f742031fca9,Wandering Soul,micro,21 Wellesley Rd,,,Beverly,Massachusetts,01915,United States,,http://www.wanderingsoulbeer.com,-70.903649,42.570479
60cc92dc-9216-4fff-81cf-24d84adfe8aa,Wandering Star Brewing Co,micro,11 Gifford St,,,Pittsfield,Massachusetts,01201-3701,United States,9175733942,http://www.wanderingstarbrewing.com,-73.211476,42.456969
44c00cc8-f329-452b-9d37-1ba777144535,Westfield River Brewing Co,brewpub,707 College Hwy,,,Southwick,Massachusetts,01077-9733,United States,4133748425,http://www.westfieldriverbrewing.com,-72.768758,42.074514
f7fed178-dc61-473d-a847-efc5fd887105,White Lion Brewing Company,contract,36 Garland St,,,Springfield,Massachusetts,01118-2128,United States,4133261829,http://www.whitelionbrewing.com,-72.53380924,42.08981856
2d535d6f-fc28-4cb6-9d30-e3d356bdb95f,White Lion Brewing Company,micro,1500 Main Street,,,Springfield,Massachusetts,01103,United States,4133261829,http://www.whitelionbrewing.com,-72.59125,42.10343
ec93ee84-6dde-43c1-a4fc-c1b37b2fae61,Widowmaker Brewing,micro,220 Wood Rd,,,Braintree,Massachusetts,02184-2408,United States,7812549856,http://www.widowmakerbrew.wordpress.com,,
2dabc038-a32f-400d-ac09-84b369df1528,Winter Hill Brewing Company,brewpub,328 Broadway,,,Somerville,Massachusetts,02145-2803,United States,6177182337,http://www.winterhillbrewing.com,-71.093993,42.392624
9ee6e94f-60fb-4770-b250-6801cec8c770,Wormtown Brewery,regional,72 Shrewsbury St,,,Worcester,Massachusetts,01604-4625,United States,7742391555,http://www.wormtownbrewery.com,-71.79048,42.263584
519ddbab-1b66-49b1-bf0b-8e8f9c683358,Wormtown Brewery - Patriot Place,taproom,2 Patriot Pl,,,Foxborough,Massachusetts,02035,United States,7742391555,,-71.26406,42.09309
3b703b36-86bb-4d24-846d-80c88bf7df07,ZeLUS Beer Company,contract,120 N Meadows Rd,,,Medfield,Massachusetts,02052-1594,United States,6275100270,http://www.zelusbeer.com,-71.335472,42.200799