id,name,brewery_type,address_1,address_2,address_3,city,state_province,postal_code,country,phone,website_url,longitude,latitude
42aa37d5-8384-4ffe-8c81-7c982eff0384,10K Brewing,taproom,2005 2nd Ave,,,Anoka,Minnesota,55303-2243,United States,7633924753,http://10KBrew.com,-93.389621,45.198259
50521ef7-f543-4c5d-98b1-0d0ee1a2be01,12welve Eyes Brewing,micro,141 E 4th St Ste LL2,,,Saint Paul,Minnesota,55101-1639,United States,6514938106,http://www.12welveEyes.com,,
b7b68d22-5045-4501-b9bf-ec94946eaffc,14 Lakes Brewery,micro,,,,Crosslake,Minnesota,56442,United States,2186924129,,,
abdb263d-e31f-4649-ab57-bc47ef64ff57,14 Lakes Brewery,taproom,36846 County Hwy 66,,,Crosslake,Minnesota,56442,United States,2182322178,http://14lakes.com,-94.112114,46.687142
e94ff788-109f-4ebd-8459-9147788806cd,22 Northmen Brewing Company,brewpub,6693 County Road 34 NW,,,Alexandria,Minnesota,56308-9857,United States,3208465443,http://www.22northmen.com,-95.387515,45.96057
5fc7df7b-4279-403a-997d-197e8285eece,3rd Act Craft Brewery,brewpub,4120 Radio Dr,,,Woodbury,Minnesota,55129,United States,6518022540,http://www.3rdactbrew.com,-92.944849,44.887842
b0d5d69d-b439-44a6-ab3e-0cbd15658dc7,56 Brewing,micro,3055 Columbia Ave NE Ste 102,,,Minneapolis,Minnesota,55418-1860,United States,6124040056,http://www.56brewing.com,,
2eaa8a43-f1b4-499f-a7c8-faa1d611cc1f,56 Brewing,taproom,3055 Columbia Ave NE,,,Minneapolis,Minnesota,55418-1860,United States,6124040056,http://www.56brewing.com,-93.272235,45.023674
f3e9ba4b-0246-44ac-9170-f095d19e8d64,612 Brew,taproom,945 Broadway St NE,,,Minneapolis,Minnesota,55413-1471,United States,6129304606,http://www.612brew.com,-93.246642,44.999093
c739bea8-7a09-4a9e-b20e-c70795ed0403,A-Side Public House,brewpub,754 Randolph AVe,,,St. Paul,Minnesota,55102,United States,6128058454,http://asidepublichouse.com,-93.131686,44.92657
31678502-edf6-4eb0-bc10-4ede5ac279b6,Able Seedhouse and Brewery,micro,1121 Quincy St NE,,,Minneapolis,Minnesota,55413-2773,United States,6124054642,http://www.ablebeer.com,-93.2510686,44.9993934
98466784-a486-4e46-8a72-c1700550d676,Aegir Brewing Company,taproom,707 Main St NW,,,Elk River,Minnesota,55330,United States,7637779015,http://www.aegirbrewco.com,-93.567921,45.302933
1b259770-4334-44ad-be18-8097be571df6,Alloy Brewing Company,taproom,2700 Coon Rapids Blvd NW,,,Coon Rapids,Minnesota,55433-3955,United States,7634230939,http://www.alloybrewingcompany.com,-93.336548,45.169729
3c825ddb-ec22-4d4b-a413-037155ca6ad3,Angry Hog Brewery & Taproom,taproom,500 23rd Ave NW,,,Austin,Minnesota,55912,United States,5074026718,http://www.angryhogbrewery.com,-92.979961,43.691615
4f22a5e8-e8e0-471b-8070-888584fc446a,Angry Inch Brewing,taproom,20841 Holyoke Ave,,,Lakeville,Minnesota,55044,United States,,http://www.angryinchbrewing.com,-93.243004,44.647928
e38d5dc2-4bf9-4627-b468-922baaa621ab,Arbeiter Brewing Company,planning,,,,Minneapolis,Minnesota,55418-2325,United States,,http://www.arbeiterbrewing.com,,
834604e0-cc25-4f9b-9abf-a7d113276ce7,Arbeiter Brewing Company,taproom,3038 Minnehaha Ave,,,Minneapolis,Minnesota,55406,United States,,http://www.arbeiterbrewing.com,-93.233836,44.947036
64749ace-0bca-4548-83e4-c6465547c60f,Ashby Brewing Company,micro,109 Main St,,,Ashby,Minnesota,56309-4687,United States,8886350291,http://www.abcbrewing.net,-95.816847,46.092867
ae638521-397f-4d34-ae6a-974022a46655,Ashby Brewing Company - Battle Lake,brewpub,114 Memory Lane,,,Battle Lake,Minnesota,56515,United States,8886350291,,-95.719433,46.275519
e8f104ff-0e7e-429d-b3da-ae6655830e8c,August Schell Brewing Company,regional,Schells Park/1860 Schell Rd,,,New Ulm,Minnesota,56073,United States,5073545528,http://www.schellsbrewery.com,-94.4686,44.3085
cb595c72-e65b-444e-83a6-9d07d731e2b6,Back Channel Brewing,micro,4787 Shoreline Dr,,,Spring Park,Minnesota,55384-9713,United States,,http://www.backchannelbrewing@gmail.com,-93.64430718,44.93673794
d9f794ae-b859-467c-9cd0-4d424b485f19,Back Channel Brewing,taproom,4787 Shoreline Drive,,,Spring Park,Minnesota,55384,United States,7634580568,http://www.backchannelbrewing.com,-93.643909,44.936333
44c71004-49c0-49a2-b0f8-812ed73984e8,Back Shed Brewing,taproom,624 Sundial Dr,,,Waite Park,Minnesota,56387,United States,3203710636,http://www.backshedbrewing.com,-94.225029,45.543071
c1496ab2-788d-454c-b205-9e852e54f682,Bad Habit Brewing Company,micro,15 E Minnesota St Ste 108,,,Saint Joseph,Minnesota,56374-4691,United States,3204024442,http://www.badhabitbeer.com,,
191cd70c-6e1f-43d4-9839-eacfb7a4248a,Bad Habit Brewing Company,taproom,25 College Ave N,,,Saint Joseph,Minnesota,56374,United States,3204024442,http://www.badhabitbeer.com,-94.318392,45.565509
6f9649a1-b449-4542-8f23-837bec41f649,Bad Weather Brewing LLC,taproom,414 7th St W,,,Saint Paul,Minnesota,55102-2733,United States,6512076627,http://www.badweatherbrewery.com,-93.110463,44.938594
d85636df-f559-4277-ab0c-c3ddf3853c4e,Badger Hill Brewing,micro,4571 Valley Industrial Blvd S Ste 500,,,Shakopee,Minnesota,55379-1846,United States,,http://www.badgerhillbrewing.com,-93.461124,44.793774
ca101b8b-4b59-4298-a163-e5559e72358a,Bald Man Brewing Company,taproom,2020 Silver Bell Rd Ste 25,,,Eagan,Minnesota,55122-1030,United States,6515080007,http://www.BaldManBrewing.com,-93.211128,44.820018
d2af1d0e-cc9d-4c26-90a0-f768b9cfb344,Bang Brewing,micro,2320 Capp Rd,,,Saint Paul,Minnesota,55114-1251,United States,6512432264,http://www.bangbrewing.com,-93.192626,44.970535
133a1850-eabe-4a10-95dc-827ae90965ee,Bank Brewing Co,micro,218 N Main St,,,Hendricks,Minnesota,56136-9501,United States,6123092513,http://www.bankbrewing.com,-96.425951,44.508415
050945b3-143d-4c19-976d-be130c5b9628,Barley Johns Brewpub,brewpub,781 Old Highway 8 SW,,,New Brighton,Minnesota,55112-7735,United States,6516364670,http://www.barleyjohns.com,-93.198285,45.036113
e11f74dd-00c9-4b81-b284-879dc08f3132,Barrel Theory Beer Company,taproom,248 7th St E,,,Saint Paul,Minnesota,55101-2349,United States,6516003422,http://www.barreltheory.com,-93.088115,44.950963
45bf9811-0d89-40c3-a020-2d2638a0c932,Bauhaus Brew Labs,micro,1315 Tyler St NE,,,Minneapolis,Minnesota,55413-1530,United States,6122976911,http://bauhausbrewlabs.com,-93.245894,45.001089
2ca3add8-8d9b-4195-a269-5cc0d4afcc07,Beaver Island Brewing Company,micro,216 6th Ave S,,,Saint Cloud,Minnesota,56301-4304,United States,3202535907,http://www.beaverislandbrew.com,-94.15722,45.558569
2d09846c-3718-402f-aa66-f87a2e5cc0a1,BeerClub Brewing,micro,854 Forest Ave E,,,Mora,Minnesota,55051-1616,United States,3206796633,http://www.beerclubbrewing.com,-93.285759,45.876165
e99c9fda-b861-4dc4-99bb-58b685654f4f,Bemidji Brewing Company,micro,211 America Ave NW,,,Bemidji,Minnesota,56601-3176,United States,2184447011,http://www.bemidjibeer.com,-94.884437,47.469733
71531995-c5a9-42fc-8e1e-04b3b57f13b5,"Bengal Brewing, LLC.",planning,,,,Spring Lake Park,Minnesota,55432-2802,United States,6125188146,http://www.BengalBrewingLLC.com,,
449a1e99-45aa-40d0-a3a8-d825919641d6,Bent Brewstillery,taproom,1744 Terrace Dr,,,Roseville,Minnesota,55113-1315,United States,8448792368,http://www.bentbrewstillery.com,-93.174687,45.025541
8b43bd7c-41f0-4865-a9cf-0d82a7b53dcb,Bent Paddle Brewing Co,regional,1912 W Michigan St,,,Duluth,Minnesota,55806-2135,United States,2182792722,http://www.bentpaddlebrewing.com,-92.1219171,46.7676912
5f903142-5e9b-4f1c-8b84-8953457128b7,Bent Paddle Taproom / Pilot Brewery,taproom,1832 W Michigan St,,,Duluth,Minnesota,55806-2135,United States,2182792722,,-92.120688,46.768464
03fe4348-0e01-446b-81af-dda8167284e8,Big Axe Brewing Company,taproom,25435 Main St,,,Nisswa,Minnesota,56468-5001,United States,2189612337,http://www.bigaxebrewing.com,-94.289074,46.520059
fcae18a9-9809-487e-a8e8-21125010ce4a,Big Wood Brewery,taproom,2222 4th St Ste REAR,,,White Bear Lake,Minnesota,55110-3045,United States,6512831507,http://www.bigwoodbrewery.com,-93.006849,45.085261
5a56a77e-507d-4fb8-b62d-31c48240d512,Big Woods Brewery,brewpub,2222 4th Street,,,White Bear Lake,Minnesota,55110,United States,8139886000,http://www.bigwoodsbeer.com,-93.007108,45.08530367
ffd991bf-fb26-470c-9167-77d54c1fd57b,Birch's On the Lake,brewpub,1310 Wayzata Blvd,,,Long Lake,Minnesota,55356-8314,United States,9524737373,http://www.birchsrestaurantandbar.com,-93.556613,44.985325
48e1320e-3669-41d7-8bd3-c39df498a970,Blacklist Artisan Ales,micro,120 E Superior St,,,Duluth,Minnesota,55802-2116,United States,2183109368,http://www.blacklistbeer.com,-92.09596598,46.7882669
6200d91c-fee3-4d95-9473-0aac41836303,Blacklist Brewing Co.,micro,206 E Superior St,,,Duluth,Minnesota,55802-2116,United States,2183109368,http://www.blacklistbeer.com,-92.095062,46.788936
d306cd9b-40d8-4be9-9581-5ad25289c9d4,BlackStack Brewing,micro,755 Prior Ave N Ste 110,,,Saint Paul,Minnesota,55104-1064,United States,6123692932,http://www.blackstackbrewing.com,,
dd18cb30-ece9-4aa2-91f4-9741296b80f2,BlackStack Brewing,micro,755 Prior Ave N,,,Saint Paul,Minnesota,55104-1064,United States,6123692932,http://www.blackstackbrewing.com,-93.182998,44.965339
98e0e7b5-c033-4cb4-a8c7-2396aefe382a,Block North LLC,brewpub,302 Minnesota Ave. N,,,Aitkin,Minnesota,56431,United States,2189288090,http://www.blocknorthbrewpub.com,-93.706335,46.534613
1487d681-ecde-4a87-a70d-12956186e99c,Blue Wolf Brewing Company LLC,micro,8515 Edinburgh Centre Dr.,,,Brooklyn Park,Minnesota,55443,United States,7633906700,http://www.bluewolfbrew.com,,
863ccdbc-4d91-4499-9e10-c6c175e54d6d,Boathouse Brewery LLC,micro,47 E Sheridan St,,,Ely,Minnesota,55731-1289,United States,2183654301,http://www.boathousebrewpub.com,-91.865993,47.90386
3b84f884-47c8-4dbb-84f7-1cb785d2c2a1,Boathouse Brothers Brewing Co,micro,16211 Main Avenue SE,,,Prior Lake,Minnesota,55372-2332,United States,9522506143,,-93.42397083,44.71449616
8179ce9c-7d38-417b-b065-b01340723056,Bobbing Bobber Brewing Company,taproom,900 Hwy 15 S,,,Hutchinson,Minnesota,55350,United States,3204554999,http://bobbingbobber.com,-94.371651,44.881507
abcf36fa-7b69-4a58-b471-f4511a80512c,Boom Island Brewing Company,micro,2014 Washington Ave North #300,,,Minneapolis,Minnesota,55411-2220,United States,6122279635,http://www.boomislandbrewing.com,-93.2739955,44.9855585
b1b2f4ae-f50e-4618-8e0d-428c6840f82c,Boom Island Brewing Company,taproom,5959 Baker Rd.,,,Minnetonka,Minnesota,55345,United States,6122279635,http://www.boomislandbrewing.com,-93.447015,44.896048
edfa72b9-a54d-44db-94fd-6714470fef11,BoomTown Brewery and Woodfire Grill,brewpub,531 E Howard St,,,Hibbing,Minnesota,55746-1713,United States,2184401710,http://www.boomtownwoodfire.com,-92.935509,47.427782
f5d52737-490c-48c3-9da4-eff851e726f1,Brass Foundry Brewing Co.,micro,8441 Wayzata Blvd Ste 290,,,Minneapolis,Minnesota,55426,United States,7633504153,http://www.brassfoundrybrewing.com,,
ce432619-5e6c-4f35-95ec-220d96721157,Brass Foundry Brewing Co.,micro,2195 Daniels St,,,Long Lake,Minnesota,55356,United States,7633504153,http://www.brassfoundrybrewing.com,-93.579308,44.986342
f55a16cf-5ce0-46d4-a5eb-8240c01721f7,Brau Brothers Brewing Co,micro,1010 E Southview Dr,,,Marshall,Minnesota,56258-2401,United States,5077472337,http://www.braubeer.com,-95.776305,44.43627
2c0e680d-87ee-4bfc-ae5a-8dd62b43f3a3,Brew D'Etat,micro,,,,Burnsville,Minnesota,55337,United States,4132072355,,,
4db5af39-92ed-4aa0-8bd6-dd609e5b4af5,"Brew D'Etat, LLC",micro,"12651 Zenith Ave S, Suite 106",,,Burnsville,Minnesota,55337,United States,3399704605,http://www.brewdetatmn.com,-93.319689,44.774446
8c90d6b2-63d2-45aa-9195-d537066deaa6,Bricksworth Beer Co.,brewpub,12257 Nicollet Ave S,,,Burnsville,Minnesota,55337,United States,9526575236,http://www.bricksworthbeer.co,-93.278326,44.780733
6b1d81d7-c53e-48f0-b4ee-2b901aad23b0,Broken Clock Brewing Cooperative,micro,3134 California St NE Ste 122,,,Minneapolis,Minnesota,55418-1789,United States,9703330135,http://www.brokenclockbrew.com,,
0306426e-2698-430b-9b39-80107ba8e2c1,Broken Clock Brewing Cooperative,taproom,1712 Marshall St NE # 100,,,Minneapolis,Minnesota,55413-1046,United States,9703330135,http://www.brokenclockbrew.com,-93.272109,45.005127
d6cf6ecf-8850-4cbb-8a00-395d215252d8,Bucks Mill Brewing,taproom,824 Washington Avenue,,,Detroit Lakes,Minnesota,56501-9462,United States,7632187085,http://www.bucksmillbrewing.com,-95.845717,46.817708
80003377-c4c9-4ab6-83e2-11046a1a287a,Burning Brothers Brewing,micro,1750 Thomas Ave Ste 2,,,Saint Paul,Minnesota,55104-2918,United States,6514448882,http://burnbrosbrew.com,,
370ef58b-c862-4b57-9127-d5111bce2d5f,Burning Brothers Brewing,taproom,1750 Thomas Ave,,,Saint Paul,Minnesota,55104-2918,United States,6514448882,http://burnbrosbrew.com,-93.174261,44.959108
ea9cb09f-6a1f-4635-b3d8-4817e75571ea,Canal Park Brewery,brewpub,300 Canal Park Dr,,,Duluth,Minnesota,55802-2316,United States,2184644790,http://www.canalparkbrewery.com,-92.093832,46.784839
6d4e169d-8a90-46c3-9960-e1001ac18dcd,Carmody Irish Pub & Brewing,brewpub,308 E Superior St,,,Duluth,Minnesota,55802-2120,United States,2187404747,http://www.carmodyirishpub.com,-92.093851,46.789888
7440477a-6410-4967-b856-c031ced810b3,Castle Danger Brewery,micro,17 7th St,,,Two Harbors,Minnesota,55616-1672,United States,2188345800,http://www.castledangerbrewery.com,-91.6731853,47.0194124
f2987cbd-b357-4542-972f-085db975f732,Chanhassen Brewing Company,taproom,951 West 78th St,,,Chanhassen,Minnesota,55317,United States,9522396419,http://www.chanhassenbrewing.com,-93.545603,44.8619
15286e70-83ee-4a79-a280-d25201623682,Chaotic Good Brewing Company,taproom,601 3rd Ave NW,,,Kasson,Minnesota,55944,United States,5073190267,http://www.chaoticgoodbrewing.com,-92.752413,44.035203
e2a24eaa-1fc3-44a9-b05b-38820ef4a978,Chapel Brewing,taproom,15 Hester St E,,,Dundas,Minnesota,55019-3942,United States,5076641300,http://www.chapelbrewing.com,-93.203866,44.429699
80315299-debd-4568-8975-a06f1d0038f3,Clockwerks Brewing,brewpub,25 N 4th St,,,Minneapolis,Minnesota,55401-1719,United States,6123399375,http://www.clockwerksbrewing.com,-93.27195031,44.98071827
4c9cb42c-766a-4555-aa44-8ed9a70cce64,Clutch Brewing Company,taproom,928 W 7th Street,,,Saint Paul,Minnesota,55102,United States,7637448736,http://www.clutchbeer.com,-93.1178,44.9337
3d514b53-5534-4fd0-889c-07559f283842,Clyde Brewing,taproom,2920 West Michigan Street,,,Duluth,Minnesota,55806,United States,,,-92.133997,46.758325
baecf304-6a51-4e6e-a488-4b5ee0e199af,Copper Trail Brewing Co.,micro,410 30th Ave E Ste 103,,,Alexandria,Minnesota,56308-4770,United States,3202196688,http://www.coppertrailbrewing.com,,
50049ef4-c707-4330-9948-5f37c20d5939,Copper Trail Brewing Co.,micro,205 Broadway St,,,Alexandria,Minnesota,56308-1416,United States,3202196688,http://www.coppertrailbrewing.com,-95.377316,45.890381
d452871c-f0c1-44a2-b67b-fc50fd3d48d2,Cosmos Brewing,micro,9480 140th St N,,,Hugo,Minnesota,55038-9411,United States,6512699199,http://www.cosmosbrewing.com,-92.91372949,45.15266627
bd226b9c-1b32-4c16-a6b8-499c82f1f375,Cuyuna Brewing Company,brewpub,1 E Main St,,,Crosby,Minnesota,56441-1613,United States,2188660914,http://cuyunabrewing.com,-93.952037,46.482698
f2966753-8d96-4939-bf1a-7802016e9d56,Dangerous Man Brewing Co,taproom,1300 2nd St NE,,,Minneapolis,Minnesota,55413-1132,United States,6122364087,http://www.dangerousmanbrewing.com,-93.266408,45.001095
cd47e129-f9a4-4744-9f43-de3638550dbe,Day Block Brewing Company,taproom,1105 Washington Ave S,,,Minneapolis,Minnesota,55415-1225,United States,6126177793,http://Dayblockbrewing.com,-93.253072,44.974933
c6dd7547-06f7-4cc6-8041-f1fab596b201,Disgruntled Brewing,taproom,735 2nd St NE,,,Perham,Minnesota,56573-1828,United States,2183464677,http://www.disgruntledbeer.com,-95.557525,46.590771
03bd3686-0b2e-4c13-9f56-d1450d27e29e,Drastic Measures Brewing,brewpub,101 Jefferson Street S,,,Wadena,Minnesota,56482,United States,2186394109,http://www.drasticmeasuresbrew.com,-95.1374,46.441078
9f749cda-57a0-487e-91b5-a3464b1c2ec9,Dual Citizen Brewing Co.,taproom,725 Raymond Ave,,,Saint Paul,Minnesota,55114-1709,United States,6513304750,http://www.dcbc.com,-93.198109,44.963159
3ebb636f-ae1e-4e19-b273-7eae97ed4856,Dubh Linn Brew Pub,brewpub,109 W Superior St,,,Duluth,Minnesota,55802-3026,United States,2187271559,http://dubhlinnpub.com,-92.100187,46.78586
d5ff39b2-d63d-433b-aa9a-f5259f256d68,Eastlake Craft Brewery,taproom,920 E Lake St Ste 123,,,Minneapolis,Minnesota,55407-4129,United States,6122174668,http://www.eastlakemgm.com,-93.260867,44.948495
b41d4f17-3af3-4cce-97f6-026acade0470,Elizabeth Schmidt Household,taproom,8335 Crystal View Rd,,,Eden Prairie,Minnesota,55344,United States,9526586987,,-93.43202,44.853503
a74584b0-0cb1-4284-b1dc-4279ee2f24fa,Elm Creek Brewing Co,taproom,11469 Marketplace Drive,,,Champlin,Minnesota,55316,United States,16512453308,,-93.390488,45.16233
561a5198-be7f-447a-991c-516dcbc7dbae,Enki Brewing,taproom,1495 Steiger Lake Ln,,,Victoria,Minnesota,55386-9537,United States,9523008408,http://www.enkibrewing.com,-93.656349,44.861141
42159682-82fd-4be8-8fe4-2e8a4799339d,Excelsior Brewing Co,micro,421 3rd St Ste 3,,,Excelsior,Minnesota,55331-2008,United States,9524747837,http://www.excelsiorbrew.com,,
88b7bd9e-84b5-4757-82e9-f966aff2d45c,Excelsior Brewing Company,micro,421 - 3rd St.,,,Excelsior,Minnesota,55331,United States,7632212933,http://www.excelsiorbrew.com,-93.566732,44.902107
b2040588-749b-4784-b662-24d3e14c0827,F-Town Brewing Company,micro,22 4th St NE,,,Faribault,Minnesota,55021-5207,United States,5073317677,http://www.ftownbeer.com,-93.26734492,44.29499775
cdbad8ba-146f-45dd-b87c-c91eec35d170,Fair State Brewing Cooperative,micro,2506A Central Ave NE,,,Minneapolis,Minnesota,55418,United States,6124443209,http://www.fairstate.coop,-93.247879,45.013554
8cb37c9f-01f0-4737-b068-0563e61da8d8,Fair State Brewing Cooperative - St. Paul,micro,2075 Ellis Ave,,,Saint Paul,Minnesota,55114-1308,United States,6124443209,,-93.18652,44.968016
73288956-c648-4651-89ac-dacf7f4faceb,Fairmont Brewing Company,taproom,414 Downtown Plaza,,,Fairmont,Minnesota,56031,United States,,http://www.fairmontbrewing.com,-94.461989,43.656385
863d3d5e-f8d6-48b9-b2aa-3603fe218c8a,Falling Knife Brewing Company,taproom,783 Harding St NE,,,Minneapolis,Minnesota,55413,United States,6123274594,http://fallingknife.beer,-93.221508,44.998371
f8d419d5-4d16-4757-83ed-e08c93a3f25c,Fat Pants Brewing Co.,brewpub,8335 Crystal View Rd,,,Eden Prairie,Minnesota,55344,United States,9522104719,,-93.432359,44.853655
d94d7745-ff6d-49ba-a4c3-49ff60068fd8,Fergus Brewing Co.,taproom,1683 Ottertail Dr,,,Fergus Falls,Minnesota,56537,United States,2187703547,http://www.fergusbrewing.com,-96.103722,46.280978
72afec57-f322-4208-b6e8-9fc4cf0975c9,FINNEGANS Brew Co,micro,817 5th Ave So,,,Minneapolis,Minnesota,55404,United States,2072394937,http://www.finnegans.com,,
4e9d6e8e-8ee7-4374-81fb-4f876bc8539b,FINNEGANS Brew Co,micro,817 S 5th Ave,,,Minneapolis,Minnesota,55404,United States,6122083374,http://www.finnegans.org,-93.26628,44.97275
cf195575-212d-4245-93a1-0a65c3e310c6,Fitger's Brewhouse,brewpub,600 E Superior St,,,Duluth,Minnesota,55802-2222,United States,2187224825,http://www.fitgersbrewhouse.com,-92.090763,46.792009
9a0b7dcc-f027-4812-8c83-ede412316a89,Flat Earth Brewing Co,micro,688 Minnehaha Ave E,,,Saint Paul,Minnesota,55106-4462,United States,6516981945,http://www.flatearthbrewing.com,-93.07042082,44.96294245
190e7e9c-9e20-4b26-b820-f951c75c27b3,Forager Brewing Company,brewpub,1005 6th St NW,,,Rochester,Minnesota,55901-2741,United States,5072587490,http://www.foragerbrewery.com,-92.478308,44.029574
28d43730-efda-451f-8044-63f1fcb9ae20,Forbidden Barrel Brewing,taproom,900 3rd Ave,,,Worthington,Minnesota,56187,United States,5073292071,,-95.597388,43.618767
4dfa56e7-8b23-4b3d-8746-67bf6d5a43f6,Foremost Brewing Cooperative,brewpub,131 W Broadway St,,,Owatonna,Minnesota,55060-2301,United States,5072143460,http://www.foremost.coop,-93.227041,44.084683
e3c042a4-5605-4227-8d9b-ad686a039be9,Forgotten Star Brewing Company,taproom,38 Norther Stacks Dr,,,Fridley,Minnesota,55421,United States,5072029554,http://www.forgottenstarbrewing.com,-93.273452,45.055666
b0d9dfce-11dc-4f85-9b26-133a664f8a88,Founding Fathers Brewing Company,contract,1844 W Wayzata Blvd,,,Long Lake,Minnesota,55356-9491,United States,9527676403,http://www.foundingfathersbrewingco.com,,
f2681950-6634-476e-a20d-b7b68617c96e,Foxhole Brewhouse,taproom,313 4th St SW,,,Willmar,Minnesota,56201,United States,3204412071,http://www.foxholebrewhouse.com,-95.04749,45.120856
6e7d8fda-f517-4aa8-ade3-19d145857052,Fulton Beer,regional,2540 2nd St NE,,,Minneapolis,Minnesota,55418-3412,United States,6128760904,http://www.fultonbeer.com,-93.266964,45.014539
177ae602-e2bb-4c07-a1f9-1cd7fc796d12,Fulton Beer,micro,414 6th Ave N,,,Minneapolis,Minnesota,55401-1214,United States,6128760904,,-93.279149,44.984915
3b121bff-bb9c-4b97-a027-c1936fd98e2b,Gambit Brewing Company,micro,141 4th St E Ste LL2,,,Saint Paul,Minnesota,55101-1639,United States,4144301394,,-93.089802,44.947155
6b1e2b96-92a4-4cc7-b400-338f97f8e365,Game On Brewing,contract,1999 Shepard Rd,,,Saint Paul,Minnesota,55116-3210,United States,,,-93.153604,44.90528
5de70f8f-79a6-4c7f-bdcb-669d7c7c4599,Garphish Brewing Company,taproom,165 Main St,,,Bethel,Minnesota,55005,United States,7634520270,http://www.garphish.com,-93.269319,45.404257
66c64272-72a3-4e8c-96af-2471a32dd812,Giesenbr√§u Bier Co LLC,taproom,1306 1st St NE,,,New Prague,Minnesota,56071-2451,United States,9527584226,http://www.giesenbraubierco.com,-93.558407,44.544182
4626a269-2893-4805-9b88-27152e8a6fab,Goat Ridge Brewing,taproom,17 Central Ave W,,,New London,Minnesota,56273,United States,3203542383,http://www.goatridgebrewing.com,-94.944717,45.301079
0a5882a8-ba47-43a1-b5f5-804fa1ea8f2a,Grand Rounds Brewing Company,brewpub,4 3rd St SW,,,Rochester,Minnesota,55902-3019,United States,5072921628,http://www.grandroundsbrewing.com,-92.46339522,44.0202771
2c2a69a6-9f4c-4900-ae17-7b967ca7e253,Granite City Food (Corp),micro,12701 Whitewater Drive,,,Minnetonka,Minnesota,55343,United States,9524561900,http://www.gcfb.com,-93.436167,44.897172
2c27d5f3-3bc0-46e0-99d6-643ea0793c2b,Granite City Food & Brewery (#1),brewpub,3945 2nd St S,,,Saint Cloud,Minnesota,56301-3792,United States,3202039000,http://www.gcfb.net,-94.206638,45.550107
4b782498-3563-4805-a691-548493182001,Granite City Food & Brewery (#10),brewpub,3330 Pilot Knob Rd,,,Eagan,Minnesota,55121-2055,United States,6514524600,http://www.gcfb.net,-93.166473,44.836675
b6fcdc66-343c-4621-8a3f-d50ce05e0699,Granite City Food & Brewery (#17),brewpub,1595 Highway 36 W Ste 1005,,,Saint Paul,Minnesota,55113-1092,United States,6512093500,http://www.gcfb.net,-93.170608,45.012806
7f627de4-1a32-40dd-838f-5f0e3a4d700b,Granite City Food & Brewery (#8),brewpub,11909 Main St,,,Maple Grove,Minnesota,55369-7098,United States,7634160010,http://www.gcfb.net,-93.432359,45.090504
f70a5e7b-69fb-4423-a214-5a609e8049e3,Gravity Storm Brewery Cooperative,taproom,309 Main St N,,,Austin,Minnesota,55912,United States,,http://www.gravitystormbrewery.com,-92.975169,43.668627
64c21730-f704-40c9-98b8-132b3dc1a37e,Great Waters Brewing Company,brewpub,426 Saint Peter St,,,Saint Paul,Minnesota,55102-1105,United States,6512242739,http://www.greatwatersbc.com,-93.096926,44.94672
81b4e34e-0bfb-47d8-917c-a057f2bae670,"Gull Dam Brewing, Inc.",micro,23836 Smiley Rd,,,Nisswa,Minnesota,56468,United States,2189632739,http://www.gulldambrewing.com,-94.29766266,46.49834978
21c53c8a-a1c1-4504-9040-a5bd3052c179,Gun Flint Tavern,brewpub,111 W Wisconsin St,,,Grand Marais,Minnesota,55604,United States,2183871563,http://www.gunflinttavern.com,-90.335254,47.749547
4b68b4d3-6171-4e9f-b105-75114b1a666f,Half Bushel Brewing,brewpub,201 North Sibley Avenue,,,Litchfield,Minnesota,55355,United States,,http://https://halfbushel.com/,-94.528421,45.127548
594d8a5c-95e6-4afb-bbc9-b89c6911cfe8,Half Pint Brewing Company,taproom,40099 150th St.,,,Waseca,Minnesota,56093,United States,5074619235,,-93.468145,44.139648
2deddb89-ee77-4758-a800-052de103c6db,HammerHeart Brewing Company,micro,7785 Lake Dr,,,Lino Lakes,Minnesota,55014-1109,United States,6513482654,http://www.hammerheartbrewing.com,-93.106983,45.189199
fd05cf2c-9058-491f-a77f-b17b767ec0da,Hayes Public House,taproom,112 1st St S,,,Buffalo,Minnesota,55313-1402,United States,7637466389,http://www.hayespublichouse.com,-93.874482,45.170813
165d44f6-04a6-4034-8e86-cb99929f46d2,HeadFlyer Brewing,taproom,861 E Hennepin Ave,,,Minneapolis,Minnesota,55414-1201,United States,6125676345,http://www.headflyerbrewing.com,-93.243482,44.991818
cd8dd163-3c65-4118-ab46-7185f234b673,Heavy Rotation Brewery,taproom,9801 Xenia Ave N,,,Minneapolis,Minnesota,55443,United States,,http://www.heavyrotationbrewing.com,-93.355922,45.134616
0019a864-4e70-479e-b140-29eaba1aff40,Herkimer Pub and Brewery,brewpub,2922 Lyndale Ave S,,,Minneapolis,Minnesota,55408-2110,United States,6128210101,http://www.theherkimer.com,-93.2883778,44.9492064
d5e5cf02-f75b-4c69-a838-944f077734b0,High Pines Brewing Company,taproom,2704 Snelling Ave. N.,,,Roseville,Minnesota,55113,United States,6512003581,http://Highpinesbrewing.com,-93.164875,45.022001
95a61dd8-6e66-4fec-994f-f239441ea385,Hoops Brewing,taproom,325 S Lake Ave # 110,,,Duluth,Minnesota,55802-2305,United States,2186061666,http://www.hoopsbrewing.com,-92.096029,46.783084
a4a48223-7c4c-486f-87d3-2265fb59052e,Hop & Barrel Brewing - Spring Valley,taproom,141 N Broadway Ave,,,Spring Valley,Minnesota,55975,United States,5073469959,,-92.390597,43.688536
2db716e2-28fb-4db3-95de-11a5d86a29d6,Hunyuck Brew Co.,planning,,,,Oakdale,Minnesota,55128-2276,United States,6514915066,http://www.hunyuckbrewco.com,,
62baf078-a996-4fd5-8705-256badd33c0f,Imminent Brewing,taproom,519 Division St S Unit 2,,,Northfield,Minnesota,55057-2021,United States,5076462327,http://www.imminentbrewing.com,-93.159649,44.45431
cfc5db6b-e633-4f32-bc38-eab080adfbd3,Inbound Brewco,taproom,701 N 5th St,,,Minneapolis,Minnesota,55401-1124,United States,6122940375,http://www.inboundbrew.co,-93.281542,44.985525
c63bd7c9-1614-4494-8893-077f4e21151e,Indeed Brewing Company,regional,711 15th Ave NE Ste 102,,,Minneapolis,Minnesota,55413-3103,United States,6128435090,http://www.indeedbrewing.com,-93.251549,45.003453
182dd666-148b-49ed-8f51-a07cc5584531,Ineffable Brewing Company,brewpub,1905 County Road 42 E,,,Burnsville,Minnesota,55306,United States,,http://www.ineffablebrewing.com,-93.249459,44.731805
c7a00c2e-2404-40ca-9157-3819026eac99,Insight Brewing Company,micro,2821 E Hennepin Ave,,,Minneapolis,Minnesota,55413-2916,United States,,,-93.212953,44.991932
327aa2a2-9800-43ba-9443-84c41c44daac,Inver Grove Brewing Company,brewpub,9051 Buchanan Trail,,,Inver Grove Heights,Minnesota,55076,United States,6512451466,,-93.043712,44.818121
f2d17fb9-2f1a-4654-88fc-105fa0600df3,Invictus Brewing Co,planning,,,,Blaine,Minnesota,55449,United States,6127234090,http://www.InvictusBrewingCo.com,,
16d30fe7-5308-4905-8ce9-15bc61275c2a,Invictus Brewing Co,taproom,2025 105th Ave NE,,,Blaine,Minnesota,55449-5202,United States,6127234090,http://www.InvictusBrewingCo.com,-93.218839,45.161526
b45c8e65-765e-4502-9592-bef4e8c8f66d,Iron Exchange Tavern and Brewery,brewpub,1500 Howard Ave. Ste.,,,Maple Plain,Minnesota,55359,United States,7634792337,,-93.648443,45.005605
662f9bed-fae7-47a7-96df-bb0a434be701,Island City Brewing Company,taproom,65 E Front St,,,Winona,Minnesota,55987-3494,United States,5074588873,http://www.islandcitybrew.com,-91.634692,44.053758
cf0a06ee-0b23-4922-843c-f0443d7e1707,Jack Pine Brewery,micro,15593 Edgewood Dr,,,Baxter,Minnesota,56401-6952,United States,2182708072,http://www.jackpinebrewery.com,,
a20bf318-58f1-40c0-8749-eb72989c6526,Jack Pine Brewery,taproom,15593 Edgewood Dr,,,Brainerd,Minnesota,56401-6952,United States,2182708072,http://www.jackpinebrewery.com,-94.253436,46.377301
e2cbce93-bcc6-4508-85fd-071101a6942d,Joseph Wolf Brewing Company,contract,85 7th Pl E Ste 200,,,Saint Paul,Minnesota,55101-2143,United States,6127519422,http://www.josephwolfbrewing.com,,
3399a400-b526-43d1-9900-1b0d04fdaa72,Junkyard Brewing Company,taproom,1416 1st Ave N,,,Moorhead,Minnesota,56560-2208,United States,7012618403,http://www.junkyardbeer.com,-96.757109,46.876252
f5e9a169-9359-4fbf-b485-bbec9bae7f06,Just Plain Wrong Brewing,alt prop,701 N. 5th Street,,,Minneapolis,Minnesota,55401,United States,,http://jpwbrewing.com,-93.281542,44.985525
07070d73-6cfd-409b-ac55-e8bb95d19884,Karst Brewing,taproom,315 1st St,,,Fountain,Minnesota,55935-8816,United States,6127476367,http://www.karstbrewed.com,-92.135054,43.740068
90d71e53-16cf-4e32-ab36-fd068ab717aa,Kinney Creek Brewery,micro,1016 7th St NW,,,Rochester,Minnesota,55901-2668,United States,,,-92.477971,44.031139
a33adc30-c0cc-4222-b3a8-7fe7f213fdb2,Klockow Brewing Company,taproom,36 SE 10th St,,,Grand Rapids,Minnesota,55744-3947,United States,2189997229,http://www.klockowbrewing.com,-93.527607,47.220781
5770e017-bc96-414f-9b13-58f94246266c,La Dona Cerveceria,planning,,,,Minneapolis,Minnesota,55405,United States,,http://www.dameladona.com,,
5e9d7db8-79af-4efd-b994-a8396768f527,La Dona Cerveceria,taproom,241 Fremont Ave N Unit B,,,Minneapolis,Minnesota,55405,United States,,http://www.dameladona.com,-93.29602,44.979453
fa5713fd-507f-458e-bf79-0e4f552281f4,Lake Monster Brewing,taproom,550 Vandalia St Ste 160,,,Saint Paul,Minnesota,55114-1997,United States,6129646288,http://www.lakemonsterbrewing.com,-93.190929,44.957736
00745d83-0317-4c50-bb86-df7f6a98220b,Lake of the Woods Brewing Company,planning,,,,Williams,Minnesota,56686-4652,United States,8074682337,,,
f382a559-d328-4d55-bb9c-2eee29e5f6ab,Lake of the Woods Brewing Company,micro,104 Main Ave NE,,,Warroad,Minnesota,56763,United States,8333212337,http://www.lowbrewco.com,-95.31639,48.904523
259fd742-dcfc-4a77-90dc-78e89103fef9,Lake Superior Brewing Co,micro,2711 W Superior St Ste 204,,,Duluth,Minnesota,55806-1893,United States,2187234000,http://www.lakesuperiorbrewing.com,,
ff1d3505-a180-450b-951a-a9771e11d9b0,Lake Superior Brewing Company,micro,5324 E Superior Street,,,Duluth,Minnesota,55802,United States,2184280192,http://www.lakesuperiorbrewingduluth.com,-92.01648,46.835978
613ec22c-761a-4d9b-bfa6-548d6349b1c0,Lakes & Legends Brewing Company,taproom,1368 Lasalle Ave,,,Minneapolis,Minnesota,55403-2316,United States,6129996020,http://www.lakesandlegends.com,-93.280081,44.969054
c84f01b1-da62-4d3a-b58a-91faa3d1f976,Lakeside Tavern & Brewery,brewpub,200 W Lake Dr,,,Detroit Lakes,Minnesota,56501-3917,United States,2188471891,,-95.847949,46.806871
f4c82777-00d8-43b8-905f-ebec11e16795,"Lakeville Brewing Co., LLC",brewpub,8790 Upper 208th Street W,,,Lakeville,Minnesota,55044,United States,9524692739,http://www.lakevillebrewing.com,-93.243912,44.647751
147013b0-866c-4579-9312-5277df314577,Lazy Loon Brewing Co,micro,8750 County Road 43,,,Chaska,Minnesota,55318-9358,United States,9524673500,http://www.lazyloonbrewing.com,,
37b50e53-2fd3-49a0-b6ea-221695feae65,"Lazy Loon Brewing Company, LLC",brewpub,610 13th Ste E,,,Glencoe,Minnesota,55336,United States,9524843417,http://www.lazyloonbrewing.com,-94.154074,44.771735
63051dfb-b101-4b2a-9393-b70d089f1381,Lift Bridge Brewing Co.,regional,1900 Tower Dr W,,,Stillwater,Minnesota,55082-7515,United States,8884302337,http://www.liftbridgebrewery.com,-92.831803,45.039186
2688cb2b-a937-42d7-a49f-3e1894a66021,Little Thistle Brewing,planning,,,,Rochester,Minnesota,55901,United States,5073584647,http://www.littlethistlebeer.com,,
66f19be0-1040-4084-8ddb-d42635ba5124,Little Thistle Brewing,taproom,2031 14th St NW,,,Rochester,Minnesota,55901,United States,5072268014,http://www.littlethistlebeer.com,-92.495032,44.036848
a2f39345-e203-46ae-b015-3a16689a1f80,LocAle Brewing Company,taproom,228 Poplar St,,,Mankato,Minnesota,56001,United States,,http://www.localebrew.com,-94.009522,44.163781
952bb265-aa65-467e-8286-ae423eea9e10,Loons Landing Brewery,taproom,12925 Eagle Creek Parkway,,,Savage,Minnesota,55378,United States,9527365917,http://www.loonslanding.beer,-93.388931,44.766531
c652d2e4-4b4f-4e71-8aa7-806b68fa63ea,Loony's Brew,brewpub,3481 Main St,,,Ranier,Minnesota,56668,United States,2185401001,http://www.loonysbrew.com,-93.3474314,48.6152185
e9fbd8bf-b1f9-4922-9b5b-98641229a648,Loony's Brew,brewpub,3481 Main,,,Ranier,Minnesota,56668,United States,2185401001,http://www.loonysbrew.com,-93.3472,48.6115
8c1991b0-aba4-4ae2-84ee-222eb8927c67,Lost Sanity Brewing Co.,taproom,12 West Main Street,,,Madelia,Minnesota,56062,United States,5076422337,http://https://www.lostsanitybrewing.com/,-94.417108,44.050529
099e4b04-ec6c-4b4f-8691-b1d202bd90c4,LTD Brewery,taproom,725 Mainstreet,,,Hopkins,Minnesota,55343-7624,United States,9529382415,http://www.ltdbrewing.com,-93.409239,44.924545
4d1d38b6-5514-45bc-a020-74efd0c1bf8f,LTS Brewing Company,taproom,2001 32nd Ave NW,,,Rochester,Minnesota,55901-8321,United States,5072268280,http://www.ltsbrewing.com,-92.510317,44.045049
22a35eba-17f5-4a57-ba81-bea5ef5c84f2,Luce Line Brewing Co,taproom,12901 16th Ave. N,,,Plymouth,Minnesota,55441,United States,7633248114,http://www.lucelinebrewing.com,-93.4434,44.995874
917424e7-ecc3-4a22-8174-abfe86581f66,LuPine Brewing Co,micro,248 River St N,,,Delano,Minnesota,55328-8264,United States,7633331033,http://www.lupinebrewing.com,-93.788914,45.042798
09f9fd85-fa02-451a-8efc-c4233290bbce,Lupulin Brewing,micro,570 Humboldt Dr Ste 107,,,Big Lake,Minnesota,55309-4868,United States,7632639549,http://www.lupulinbrewing.com,,
8b47093e-0ec1-4380-a36d-e225f05cccca,Lupulin Brewing Company,micro,"570 Humboldt Drive, Suite 107",,,Big Lake,Minnesota,55309,United States,7632639549,http://www.lupulinbrewing.com,-93.739569,45.331408
a39e5f76-1435-4f84-bb48-d9fe56df3055,LynLake Brewery,taproom,2934 Lyndale Ave S,,,Minneapolis,Minnesota,55408-2110,United States,6122249682,http://www.lynlakebrewery.com,-93.288519,44.948913
43c6ef40-977d-4131-a5f9-343c7b533afe,Mana Brewing,brewpub,16196 Visionary Heights Cir NW,,,Prior Lake,Minnesota,55372,United States,5077209646,,-93.462432,44.714799
03f6dd60-d50e-4053-94db-1e83d087333f,Mankato Brewery,micro,1119 Center St,,,North Mankato,Minnesota,56003-2108,United States,5073862337,http://www.mankatobrewery.com,-94.014351,44.182399
129dfd95-492b-443d-af67-dd03bef8a157,Mantorville Brewing Co LLC,contract,101 5th St E,,,Mantorville,Minnesota,55955-8087,United States,6513870708,http://www.mantorvillebeer.com,-92.753035,44.067031
c806e91b-2179-46f1-ab2c-390291ed7cba,Maple Island Brewing,taproom,225 Main St N,,,Stillwater,Minnesota,55082-5021,United States,6514300044,http://www.mapleislandbrewing.com,-92.806472,45.058152
65d0ac73-d0f5-4e63-a411-d2be1438139f,MetroNOME Brewery,taproom,385 N Broadway #104,,,St. Paul,Minnesota,55104,United States,6513179080,http://metronomebrewery.com,-93.085672,44.95053
208c36c4-e979-4492-adcd-228a7794b24b,Mineral Springs Brewery,taproom,111 N Walnut Ave,,,Owatonna,Minnesota,55060,United States,5074136281,http://www.mineralspringsbrewery.com,-93.229229,44.085343
655b93f8-9108-460a-a33d-5b418b62f42c,Minneapolis Town Hall Brewery,brewpub,1430 Washington Ave S,,,Minneapolis,Minnesota,55454-1038,United States,6123398696,http://www.townhallbrewery.com,-93.248008,44.973399
e8ab6bdf-5454-47ef-95c2-dcba95d5c70a,Minnewaska House Brewing Co,brewpub,24895 State HWY 28,,,Glenwood,Minnesota,56334,United States,3206344566,,-95.446823,45.629803
f5d9e0de-18c9-4763-aef9-36d71d6b1bce,Modist Brewing Company,micro,505 N 3rd St,,,Minneapolis,Minnesota,55401-1201,United States,6124540258,http://www.modistbrewing.com,-93.276538,44.985236
fb2cd2d3-8368-455c-97f4-81376d06e4fe,Montgomery Brewing Company,taproom,306 2nd St NW,,,Montgomery,Minnesota,56069-1011,United States,,http://www.montgomerybrewing.com,-93.582843,44.441338
d64bd3bd-1e46-41ab-8c9d-f38de50db77f,Moose Lake Brewing Company,taproom,244 Lakeshore Drive,,,Moose Lake,Minnesota,55767,United States,2184854585,http://www.mooselakebrewing.com,-92.768011,46.447312
3d8e0fe8-3987-4750-a67b-c501d49da4a2,Nine Mile Brewing Company,micro,9555 James Ave S,,,Minneapolis,Minnesota,55431,United States,,http://www.9milebrewing.com,-93.299888,44.83087
c550a5c5-987d-49f6-af4b-77144765d2d1,North 20 Brewing Co,brewpub,12266 Bacardi Ave W,,,Rosemount,Minnesota,55068,United States,6124762961,,-93.105713,44.77226
83c8e63b-c302-46e3-bb2b-7f3ac12ba99b,Northbound Smokehouse Brewpub,brewpub,2716 E 38th St,,,Minneapolis,Minnesota,55406-3004,United States,6122081450,http://www.smokehousebrewpub.com,-93.23303,44.934266
0b4eb573-7823-4950-b54a-3e8a8e2924e2,Nouvelle Brewing By Travail,brewpub,4124 W BROADWAY AVE,,,Minneapolis,Minnesota,55422-1809,United States,7639238192,http://https://www.pigatemypizza.com/,-93.337797,45.030409
f9c62e1c-dd1a-4e87-b3b7-c70f941976b9,Nutmeg Brewhouse,brewpub,1905 County Road 42 W,,,Burnsville,Minnesota,55306-6211,United States,9528921438,http://www.nutmegbrewhouse.com,-93.30547377,44.74636346
fd794f89-4bed-44f2-b4d5-2f88820de9ab,Oldenburg Brewing Company,brewpub,116 West Main Street,,,Belle Plaine,Minnesota,56011,United States,9528180504,http://www.oldenburgbrewing.com,-93.768873,44.623321
077b9bc3-e570-4f08-a6c6-87325271424a,Olvalde Farm & Brewing,micro,16557 County Road 25,,,Rollingstone,Minnesota,55969-4046,United States,5072054969,http://www.olvalde.com,-91.809916,44.094377
670097b2-bf75-4157-b909-e829676a0592,OMNI Brewing Company,taproom,9462 Deerwood Ln N,,,Maple Grove,Minnesota,55369-3629,United States,7152229832,http://www.omnibrewing.com,-93.425811,45.126273
c74b0536-3885-495d-b945-fb0b75d64cc8,Oswald Brewing Company,brewpub,110 S Main St,,,Blue Earth,Minnesota,56013-2007,United States,5075263101,http://www.oswaldbrewingcompany.com,-94.2184542,44.10610449
cf838e5b-da1b-487b-aa7f-44af17e2e121,Outstate Brewing Company LLC,planning,,,,Fergus Falls,Minnesota,56537,United States,9702175026,http://www.oustatebrew.co,,
25e41b12-953f-44fb-a482-b08ecf4fdce6,Outstate Brewing Company LLC,taproom,309 S Vine St,,,Fergus Falls,Minnesota,56537,United States,9702175026,http://www.oustatebrew.co,-96.079965,46.281353
b4364f80-3e30-40fc-bae8-00b3fa7b9c58,Pantown Brewing Company,planning,,,,Saint Cloud,Minnesota,56303-3047,United States,3209803100,http://www.pantownBrewing.com,,
710d7d11-078c-4944-bacc-03871b36bb89,Pantown Brewing Company,micro,408 37th Ave N,,,Saint Cloud,Minnesota,56303-3047,United States,3204280007,http://www.pantownBrewing.com,-94.202043,45.561656
6f2798c9-c9ac-48bb-b220-d48bdc3bc5ae,Pigs Eye Pub,alt prop,10107 Bridgewater Pkwy,,,Woodbury,Minnesota,55129-8587,United States,6517341661,http://www.pigseyebeer.com,-92.901358,44.922338
275dc201-9ef9-452f-bbb3-5332fa6bfd3f,Portage Brewing Company,taproom,107 South 5th St,,,Walker,Minnesota,56484,United States,2185476217,http://www.portagebeer.com,-94.581719,47.100995
1243a0bb-ddff-44a2-8257-05a597432665,Pryes Brewing Company,micro,1401 W River Rd # N,,,Minneapolis,Minnesota,55411-3436,United States,6127877937,http://www.pryesbrewing.com,-93.277136,44.993632
9fcb13bb-f7c4-42c0-807f-d802c447aa71,Rahr Eagle Brewery,micro,502 first avenue west,,,shakopee,Minnesota,55379,United States,8312455496,,-93.533857,44.797406
e24adb1a-11ab-4db3-8e5f-93c14a8c7a09,Rahr Technical Center LLC,micro,800 1st Ave W,,,Shakopee,Minnesota,55379-1148,United States,9524650585,,-93.5365005,44.7968103
7b94abf2-6db9-467c-bef9-ec718360e454,Rapids Brewing Company,brewpub,214 N Pokegama Ave,,,Grand Rapids,Minnesota,55744,United States,2183908664,http://www.rapidsbrewingco.com,-93.527871,47.234292
c960bed4-d36d-4f6c-b41b-c7483f70cece,Reads Landing Brewing Co,brewpub,70555 202nd Ave,,,Reads Landing,Minnesota,55968-6842,United States,6515604777,http://www.rlbrewingco.com,-92.078982,44.402727
6ee9898b-1de5-4cd0-8c9e-066b4391ba06,Red Wing Brewing Company,brewpub,1411 Old West Main St,,,Red Wing,Minnesota,55066-2162,United States,6513272200,http://www.redwingbrewing.com,-92.547382,44.562579
e8344607-3a02-43ad-8be0-e7f8cac65bf0,Rendezvous Brewing,taproom,112 First Street S #88,,,Hackensack,Minnesota,56452,United States,2186754200,http://Www.rendezvousbrewing.com,-94.521682,46.930476
e94d0838-8c69-4848-9897-2855d5ec6b49,Revel Brewing,brewpub,201 Main Avenue South Park,,,Park Rapids,Minnesota,56470,United States,2183662229,http://www.revelingbrew.com,-95.0635,46.9728
e8dd8302-d33a-4710-ba06-d0d96905d4b9,Revelation Ale Works,taproom,146 S Atlantic Ave,,,Hallock,Minnesota,56728,United States,2185100001,http://www.revales.com,-96.946155,48.774473
6e560e12-8a7c-41ef-97ef-a7b2bf23dedc,Rivers and Rails Brewing,taproom,324 2nd St E.,,,Thief River Falls,Minnesota,56701,United States,,http://www.trfbrew.com,-96.177379,48.117712
db07e9cc-5c84-419e-aa9a-149b068b945f,Rock Bottom Brewery - Minneapolis,brewpub,800 Lasalle Ave,,,Minneapolis,Minnesota,55402-2006,United States,6123322739,http://www.rockbottom.com,-93.274687,44.976427
330e829d-53ca-4d79-b13a-ba4f36356458,Roets Jordan Brewery Co.,brewpub,230 Broadway St S,,,Jordan,Minnesota,55352-1508,United States,6128173265,http://www.drinkroetsbeer.com,-93.626311,44.665542
f331a8eb-748a-4a84-ac4e-bc0e0307dfa1,Roma Brewery,micro,310 Stillwater Rd,,,Willernie,Minnesota,55090-4400,United States,6516534733,http://www.roman-market.com,-92.957802,45.057213
43731cc4-87d3-47e7-9ca1-ff0be7b481f2,Roundhouse Brewery,micro,1551 Northern Pacific Rd,,,Brainerd,Minnesota,56401-2687,United States,2184542739,http://roundhousebrew.com,-94.1870055,46.3572831
9a25f47c-56f7-4e84-99f5-93091d078fa5,Roundhouse Brewery,taproom,23836 Smiley Rd,,,Nisswa,Minnesota,56468-2469,United States,2189632739,http://www.roundhousebrew.com,-94.297163,46.497706
76ff12a8-536d-4eac-964c-263817d38b0d,Rustech Brewing Company,taproom,105 W 3rd St,,,Monticello,Minnesota,55362-8792,United States,7632721593,http://www.rustechbrewing.com,-93.794842,45.304793
d138f5c2-f5f8-4d68-bcd9-b69a021cae6d,Saint Croix Beer Co. DBA Saint Croix Brewing Co.,contract,363 Webster St,,,Saint Paul,Minnesota,55102-3651,United States,6513870708,http://www.stcroixbeer.com,-93.12454994,44.93128073
2b2250c5-1771-4cfb-a5d4-fbe51b250291,Schram Haus Brewery,taproom,3700 Chaska Blvd,,,Chaska,Minnesota,55318,United States,,,-93.608819,44.786071
1331451d-a64f-49f8-adc1-ea7aac9cf68a,Schram Vineyards Winery & Brewery,taproom,8785 Airport Rd,,,Waconia,Minnesota,55387-9634,United States,9524425105,http://SchramVineyards.com,-93.745727,44.842579
820ff9c7-8083-4573-9f36-e57f7bece0f7,Shakopee Brewhall,taproom,124 1st Ave E,,,Shakopee,Minnesota,55379-1310,United States,9525824292,http://www.shakopeebrewhall.com,-93.526026,44.798526
f2fd7e1b-85a7-4a6e-9351-41e1c9b7f18f,Sisyphus Brewing,micro,712 Ontario Ave W,,,Minneapolis,Minnesota,55403-1138,United States,6124448674,http://www.sisyphusbrewing.com,-93.28833571,44.973158
4a2208d3-a653-4e68-86fb-75c93ef1377a,Sisyphus Brewing,taproom,712 Ontario Ave W #100,,,Minneapolis,Minnesota,55403-1138,United States,6124448674,http://www.sisyphusbrewing.com,-93.288904,44.973302
6418dffd-a5b9-4474-957c-67aa4fbe4cb7,"Sleepy Eye Brewing Company, LLC",taproom,121 Main St W,,,Sleepy Eye,Minnesota,56085-1327,United States,6056106039,http://www.sleepyeyebrewing.com,-94.723552,44.296943
b0e6f930-660d-4623-a242-ea8e1d85c391,Snarky Loon Brewing Company,brewpub,33488 State Highway 371,,,Jenkins,Minnesota,56472,United States,2315681136,http://www.snarkyloonbrewing.com,-94.328396,46.638934
b6a17419-65d8-4d92-a996-bf26330e9f0a,Sociable Cider Werks,micro,1500 Fillmore St NE,,,Minneapolis,Minnesota,55413-1657,United States,6127580105,http://www.sociablecider.com,-93.242461,45.002741
7d71c32d-7a8a-414a-bd6c-f3e79d807e39,South By Southeast Brewing Company,taproom,51146 US-52,,,Pine Island,Minnesota,55963,United States,5073562299,http://www.sxsebrewingmn.com,-92.627799,44.201468
7fdb8e35-58e6-40f2-955d-b57fff14eddb,Spilled Grain Brewhouse,taproom,300 Elm St E,,,Annandale,Minnesota,55302-9406,United States,3202741129,http://www.spilledgrainbrewhouse.com,-94.118939,45.259691
3e5a42f9-3f8d-4156-b732-00e4a3f734ce,Spiral Brewery,taproom,111 2nd St E,,,Hastings,Minnesota,55033-1265,United States,6512127160,http://Spiralbrewery.com,-92.851772,44.744765
87465738-6b69-49d2-9879-f330924a1d25,Stacked Deck Brewing,planning,,,,Saint Paul,Minnesota,55101-1712,United States,6512145448,http://www.stackeddeckbrewing.com,,
ec5adb97-6e45-40cd-bc9c-860f1068bde9,Starkeller,regional,2215 N Garden St,,,New Ulm,Minnesota,56073,United States,5073597827,http://www.schellsbrewery.com,-94.49142,44.332145
11c5fe19-a115-4284-bae8-b24ba3841f35,Starry Eyed Brewing Company,taproom,16757 11th St NE,,,Little Falls,Minnesota,56345-2203,United States,3202320382,http://www.starryeyedbrewing.com,-94.345542,46.003557
d469044a-3e41-4b21-8112-582d47a656a7,Steel Toe Brewing,micro,4848 W 35th St,,,St Louis Park,Minnesota,55416-2610,United States,9529559965,http://www.steeltoebrewing.com,-93.340901,44.940744
34323b25-c681-4f9c-8e04-d599116b644a,StormKing Brewpub and Barbecue,brewpub,618 N 5th St,,,Minneapolis,Minnesota,55401,United States,6123153562,http://www.stormkingbrewpub.com,-93.279407,44.984701
e436d990-d5b4-4771-ba9b-a77531a5b0c1,Summit Brewing Co,regional,910 Montreal Cir,,,Saint Paul,Minnesota,55102-4246,United States,6512657800,http://www.summitbrewing.com,-93.13959808,44.91398765
30ad92e9-51a9-4c5d-b44b-15358e430fc9,Summit Brewing Co,regional,910 Montreal Circle,,,Saint Paul,Minnesota,55102,United States,6512657800,http://www.summitbrewing.com,-93.139113,44.914292
c6d9b59a-8df0-4e92-a13d-363cc183b1ab,Sunken Ship Brewing Company,taproom,32273 124th St,,,Princeton,Minnesota,55371,United States,,http://www.sunkenshipbrewing.com,-93.582441,45.555188
c54d9149-0b2f-45f0-bf12-36860e56a1da,Surly Brewing Company,regional,4811 Dusharme Dr,,,Brooklyn Ctr,Minnesota,55429-3940,United States,7635353330,http://www.surlybrewing.com,-93.324275,45.042572
f187921a-c59d-47f2-a40a-b1d3bfccc0e0,Surly Brewing Company,regional,520 Malcolm Ave SE,,,Minneapolis,Minnesota,55414-3312,United States,7635353330,,-93.208638,44.973293
98443afd-4225-4cc5-b67d-7a08192f151b,Swing Barrel Brewing,taproom,814 Center Ave,,,Moorhead,Minnesota,56560,United States,2182842121,,-96.767683,46.8752
a96e6c8e-e9b3-4cb4-aba3-89b47cac4e80,Sylvan Brewing,taproom,100 Beacon Street W,,,Lanesboro,Minnesota,55949,United States,5074674677,http://www.sylvanbeer.com,-91.977293,43.723256
4ccc73ca-f74a-486b-b3e0-46a2dc322c07,Take 16 Brewing Company,taproom,509 E Main St,,,Luverne,Minnesota,56156-1905,United States,8666639986,http://www.take16beer.com,-96.203494,43.654583
f4a9eb65-edcc-44f9-9f5e-b74f7795bf49,Talking Waters Brewing Co.,taproom,205 S 1st St,,,Montevideo,Minnesota,56265-1412,United States,3203211444,http://www.talkingwatersbrewing.com,-95.724315,44.944168
fb7d91d0-dc5c-483e-ac0c-c932ed291fa0,Tanzenwald Brewing Company,brewpub,103 Water St N,,,Northfield,Minnesota,55057-2121,United States,5073662337,http://www.tanzenwald.com,-93.162112,44.459658
634bd2d5-223d-482a-a6ca-0e57f25a21ae,Tavern Brewery,brewpub,200 W Lake Dr,,,Detroit Lakes,Minnesota,56501-3917,United States,2188471891,,-95.8477011,46.8066561
65db24ef-49b5-4099-941f-cd0c4ea1b425,The Freehouse,brewpub,701 Washington Ave N Ste 101,,,Minneapolis,Minnesota,55401-2820,United States,6123397011,http://www.freehousempls.com,-93.277452,44.987542
32a25858-6d85-4801-b687-853aa29a4d43,The Nordic Brewing Co,brewpub,530 Cedar St,,,Monticello,Minnesota,55362,United States,7632712739,http://www.thenordicbrewing.com,-93.79456,45.302302
352bacdc-ba67-4d97-a515-e6164ad8f8ea,Thesis Beer Project,taproom,1929 2nd St. SW,,,Rochester,Minnesota,55902,United States,5079936444,http://www.thesis.beer,-92.49315,44.021902
d6548df7-6909-4410-84b6-ca15e02821ab,Third Street Brewhouse,regional,219 Red River Ave N,,,Cold Spring,Minnesota,56320-1624,United States,3206853690,http://www.thirdstreetbrewhouse.com,-94.429867,45.458783
e54a8173-29df-4a48-9665-20274659f682,Thousand Lakes Brewing Company,taproom,110 W Lake St,,,Parkers Prairie,Minnesota,56361-4971,United States,3204607744,http://https://thousandlakesbrewing.com,-95.329185,46.146979
6326f909-d30f-4139-b75a-36335db20309,Three Twenty Brewing Co.,taproom,135 5th St SE,,,Pine City,Minnesota,55063-1510,United States,3203227177,http://www.threetwentybrewing.com,-92.969893,45.828156
1cc59b0c-b341-4f04-838f-815a7db1e2c9,Thunder Brothers Brewery,taproom,801 Highway 65 NE,,,Isanti,Minnesota,55040,United States,7634520132,http://www.thunderbrothersbrewery.com,-93.236865,45.500805
d40d4619-e0a2-44ce-b9d3-8ca2e8eb2c08,Tilion Brewing Company,taproom,432 Mill St W,,,Cannon Falls,Minnesota,55009-2046,United States,6512311426,http://www.tilionbrewing.com,-92.906978,44.5082
35b63fae-0c3d-4e39-a21a-6643fc97a1bd,Tin Whiskers Brewing,micro,125 9th St E Unit 127,,,Saint Paul,Minnesota,55101-2308,United States,,,,
93271344-d85f-41c0-89f1-f57daf704d4c,Torg Brewery,planning,,,,Minneapolis,Minnesota,55432,United States,7636390539,http://www.torgbrewery.com,,
701492cd-809d-4762-bb43-ebbed140b0f1,Torg Brewery,taproom,8421 University Ave NW,,,Minneapolis,Minnesota,55432,United States,7636390539,http://www.torgbrewery.com,-93.2545,45.097
fe174bf5-9e3b-4db3-83c2-5e73ffe77b88,Trout City Brewing,brewpub,132 St Anthony St S,,,Preston,Minnesota,55965,United States,5079933706,http://https://www.troutcitybrewing.com/,-92.081709,43.66965
5ace8b30-927a-4c9d-96c2-200c8d128d34,Turning Waters Back Alley Brewing Co.,brewpub,136 Bridge Ave,,,Wabasha,Minnesota,55981,United States,6515641568,http://www.turningwatersbackalleybrewingco.com,-92.035901,44.384577
f997d03c-9301-4ce2-b71c-ac67dca594bd,"U4ic Brewing, Inc.",micro,23436 Union Trl Ste 1,,,Belle Plaine,Minnesota,56011-9008,United States,9528733303,http://www.u4icbrewing.com,-93.8017001,44.6232246
20bd4461-1a56-4f99-900b-29243d796a03,"U4ic Brewing, Inc.",taproom,410 S Front St,,,Mankato,Minnesota,56001,United States,9528733303,http://www.u4icbrewing.com,-94.006334,44.163903
ac9a637d-b075-4a07-8e20-d93b88c9c734,Uncommon Loon Brewing Company,taproom,10825 Lake Blvd,,,Chisago City,Minnesota,55013-9665,United States,6513214468,http://www.uncommonloonbrewing.com,-92.886742,45.374382
bb57eee2-6d46-4318-a503-e3b003f9a5b6,Under Pressure Brewing Company,planning,,,,Plymouth,Minnesota,55442-3211,United States,6128509779,http://www.underpressurebrewing.com,,
5a2d13d4-f4c5-4612-a1c7-5e7bb5db623a,Under Pressure Brewing Company,micro,8806 Seventh Ave. N,,,Golden Valley,Minnesota,55427,United States,6128509779,http://www.underpressurebrewing.com,-93.391688,44.985854
03f236ab-d400-4a43-b4b9-e91adf9dc13f,Union 32 Crafthouse,brewpub,2864 Highway 55 Ste 200,,,Eagan,Minnesota,55121-1455,United States,9528079777,http://www.union32crafthouse.com,-93.130659,44.853949
85fca49d-7715-4238-b3ab-4252a5299795,Union Pizza & Brewing Co,brewpub,114 S Union Ave,,,Fergus Falls,Minnesota,56537,United States,2189988888,http://www.unionpizzaandbrewing.com,-96.078349,46.283019
6eab32b5-1f19-44bf-9901-285deb3581f8,Unmapped Brewing Co.,taproom,14625 Excelsior Blvd,,,Minnetonka,Minnesota,55345-6605,United States,9525009622,http://www.unmappedbrewing.com,-93.466527,44.903553
4b3ddf69-f7b2-4292-8966-2fca894c87b1,Urban Growler Brewing Co,taproom,2325 Endicott St,,,Saint Paul,Minnesota,55114-1223,United States,6513405793,http://www.urbangrowlerbrewing.com,-93.193233,44.970378
9000f7f7-dc89-442b-9e22-9a9cbf9ddd0d,Urban Lodge Brewery,brewpub,415 N Benton Dr,,,Sauk Rapids,Minnesota,56379-1534,United States,3202815454,http://urbanlodgebrewery.com,-94.1628025,45.58571953
9b0f39aa-f7db-4378-a80c-7cfc88541776,Ursa Minor Brewing,planning,,,,Duluth,Minnesota,55806,United States,2182690537,http://www.ursaminorbrewing.com,,
71be697b-92e9-4cbb-9c88-2cf2d2a5d812,Ursa Minor Brewing,taproom,2415 W Superior St,,,Duluth,Minnesota,55806-1933,United States,2182690537,http://www.ursaminorbrewing.com,-92.128999,46.763862
9ba3356c-8888-410b-ac2e-1f0550aeb43f,Utepils Brewing Co,micro,225 Thomas Ave N Apt 700,,,Minneapolis,Minnesota,55405-3397,United States,6122497800,http://www.utepilsbrewing.com,-93.312829,44.979044
cdb0ccdd-a7c9-457e-aaef-2aacb17954b9,Venn Brewing Company,micro,3550 E 46th St Suite 140,,,Minneapolis,Minnesota,55406-3965,United States,,http://www.vennbrewing.com,,
efb10fd7-f7da-43ee-8479-e931904a1eb5,Venn Brewing Company,taproom,3550 E 46th St Ste 140,,,Minneapolis,Minnesota,55406-3881,United States,,http://www.vennbrewing.com,-93.220794,44.920352
7acd06bc-672e-4bc0-85ae-efa205f92b25,Vine Park Brewing Co,micro,1254 7th St W,,,Saint Paul,Minnesota,55102-4123,United States,6512281355,http://www.vinepark.com,-93.134319,44.922223
8bd0a895-229e-4e74-af13-771ddddf6562,Voyageur Brewing Co,brewpub,233 W Hwy 61,,,Grand Marais,Minnesota,55604,United States,2183873163,,,
a0102498-57e2-4879-861d-519c8e05fd3b,Voyageur Brewing Co,taproom,233 W Hwy 61 -1244,,,Grand Marais,Minnesota,55604,United States,2183873163,,-90.3546,47.8752
5d79c64c-7bdd-4287-9703-deeb3465f807,Wabasha Brewing Company,taproom,429 Wabasha St S,,,Saint Paul,Minnesota,55107-1126,United States,6512242102,http://www.wabashabrewing.com,-93.084861,44.93283
bbea4e34-3881-457b-a8d5-764b12c2517d,Waconia Brewing Company,taproom,255 W Main St,,,Waconia,Minnesota,55387-1025,United States,6128882739,http://www.waconiabrewing.com,-93.789945,44.850322
07fc25d5-1782-4022-a941-305925d8c9ab,Waldmann Brewery,taproom,445 Smith Ave N,,,Saint Paul,Minnesota,55102,United States,6512221857,http://www.waldmannbrewery.com,-93.109646,44.938213
4b417ecc-46a5-4feb-bff1-cc1362da1c7f,Wandering Leaf Brewing Company,office only location,2463 W 7th St,,,St. Paul,Minnesota,55116,United States,3203097819,http://wanderingleafbrewing.com,-93.169545,44.902368
8f33f7f4-d4af-4252-8db0-3acab330b602,Ward House Brewery,taproom,111 Elm Ave W,,,Waseca,Minnesota,56093-2433,United States,,http://www.wardhousebrewing.com,-93.508022,44.077452
d80e2b6b-9e5f-4b6b-83a9-3b7a8e555e05,Warrior Brewing Company,micro,"2711 W Superior St, Ste 204",,,Duluth,Minnesota,55806,United States,2184092113,http://www.warriorbrewingco.com,-92.132078,46.761173
8c7c9ef9-1232-4e9d-8bf4-ba02e30cbc78,"Wayzata Brew Works, LLC",micro,"294 Grove Lane E, ste 150",,,wayzata,Minnesota,55391,United States,9527371023,http://www.wayzatabrewworks.com,,
4a48f4f8-fa5f-48d1-9576-b9fff7d87e63,"Wayzata Brew Works, LLC.",proprietor,294 Grove Ln E,,,Wayzata,Minnesota,55391-1680,United States,9527371023,http://www.wayzatabrewworks.com/,-93.5172166,44.9696023
a269a5ba-6871-4460-8daa-0eaf617c8230,Wicked Wort Brewing Company,brewpub,4165 W Broadway Ave,,,Minneapolis,Minnesota,55422-1823,United States,7633029849,http://www.wickedwortbrewingco.com,-93.33937,45.030884
4170f5a5-0bea-4a5f-8692-2053a62a941c,Wild Mind Ales,taproom,6031 Pillsbury Ave S,,,Minneapolis,Minnesota,55419-2328,United States,6123454514,http://www.wildmindales.com,-93.28156,44.893111
ae267bbc-95bf-4a45-a8ff-6e7b9a9e88a0,Wooden Hill Brewing Company,brewpub,7421 Bush Lake Road,,,Edina,Minnesota,55439,United States,9529609663,http://www.woodenhillbrewing.com,-93.3596061,44.86781169
668933fd-2903-4c5e-baf9-f1e2aac4626d,Wooden Hill Brewing Company,taproom,7421 Bush Lake Rd,,,Edina,Minnesota,55439-2802,United States,9529609663,http://www.woodenhillbrewing.com,-93.359479,44.867934
25dacf17-8f0d-4fa7-ab01-106bd5794b45,Wooden Ship Brewing Company,taproom,3330 W 44th St,,,Minneapolis,Minnesota,55410,United States,6123543300,http://www.woodenshipbrewing.com,-93.32189,44.923482
7d33fde3-6a76-4dbf-a7ef-5bdfe88e0620,Yoerg Brewing Company,brewpub,378 Maria Ave,,,Saint Paul,Minnesota,55106,United States,7632003645,http://www.yoergbeer.com,-93.072229,44.956964