id,name,brewery_type,address_1,address_2,address_3,city,state_province,postal_code,country,phone,website_url,longitude,latitude
28e05fda-77a4-4a5a-9f8a-08169ec07ce5,Abolitionist Ale Works,brewpub,129 W Washington St,,,Charles Town,West Virginia,25414-1529,United States,6812521548,http://www.abolitionistaleworks.com,-77.860773,39.28848
97ea0a56-c25b-45ab-afaa-ff0b37d68de5,Amani Brewing,brewpub,654 Ropp Dr,,,Martinsburg,West Virginia,25403-1533,United States,3042793861,https://amanibrewing.com,-77.949602,39.5332966
7e470330-e32a-42aa-8d9b-db15529b8faa,Bad Shepherd Beer Company,brewpub,702 Quarrier St,,,Charleston,West Virginia,25301-2627,United States,3045527569,http://www.blacksheepwv.com,-81.635578,38.350515
9e12b6a6-9445-4a29-818c-4b96dbd30f55,Banjo Brewing,planning,,,,Fayetteville,West Virginia,25840,United States,3042164231,,,
6865f9b6-b99a-4d4c-a12a-824924ac27ea,Banning's Inc,micro,620 Water St,,,Summersville,West Virginia,26651-1453,United States,3046196972,,-80.85147552,38.281623
f5d36db3-999a-49b8-84e0-7416f86bd23a,Bavarian Brothers Brewing,brewpub,164 Shepherd Grade Rd,,,Shepherdstown,West Virginia,25443-4601,United States,3048762551,,-77.805561,39.435875
dcf991c9-6692-4346-a52a-b6e9ff25520e,Berkeley Springs Brewing Co,brewpub,110 Michigan Ln,,,Berkeley Springs,West Virginia,25411-3008,United States,3042583369,http://www.berkeleyspringsbrewingcompany.com,-78.2282,39.6289
36840152-444d-4615-b422-752e0e0bf044,Big Draft Brewing,micro,697 Main St E,,,White Sulphur Springs,West Virginia,24986-3003,United States,3049152442,https://bigdraftbrewing.com/,-80.3001175,37.7945598
77e31ad7-17aa-4c92-9200-ab12888aaacd,Big Timber Brewing,micro,1210 S Davis Ave,,,Elkins,West Virginia,26241-3437,United States,3046375008,http://www.bigtimberbrewing.com,-79.85143109,38.91765609
53b80ad6-ea0f-41a9-afae-c88daf7b36f9,Big Timber Brewing,micro,2 Davis Ave,,,Elkins,West Virginia,26241-3437,United States,3046375008,http://www.bigtimberbrewing.com,-79.849442,38.928487
b248192a-f86e-4dbd-a324-0a71424f2656,Blackwater Brewing Co,micro,912 William Ave,,,Davis,West Virginia,26260-0356,United States,3042098118,http://www.BlackwaterBrewingWV.com,-79.4695264,39.1274943
ec51ec32-1a6a-4e97-9571-70a81db3bec8,Brew Keepers,micro,2245 Market St,,,Wheeling,West Virginia,26003-2866,United States,7248098968,,-80.724774,40.059259
71341146-e7d5-4bab-ae49-80cb15d60e66,Brew Keepers,taproom,2245 Market Street,,,Wheeling,West Virginia,26003-2866,United States,3042389132,,-80.724785,40.059237
f3598750-c881-4e7c-a2d5-c978c56416da,Brewstel,micro,120 Davis Ave,,,Elkins,West Virginia,26241-3812,United States,3049974769,http://www.brewstel.com,-79.849588,38.923407
6c2e3bd6-08af-43b8-881b-35a6342be026,Bridge Brew Works,micro,335 Nick Rahall Greenway,,,Fayetteville,West Virginia,25840-1617,United States,3042822201,http://www.bridgebrewworks.com,-81.113188,38.016007
9adaa48a-3028-426d-8ccd-8f4dd1d9e986,Cacapon Mountain Brewing Company,taproom,282 Williams Street,,,Berkeley Springs,West Virginia,25411,United States,7605499681,,-78.224779,39.630956
e3b6cd4a-7566-4e23-90da-63cb5c5f735e,Charleston Nano Brewery,taproom,320 W Washington St,,,Charleston,West Virginia,25302,United States,,http://www.charlestonnano.com,-81.641112,38.361723
ad90e19c-cc4a-47ff-ba91-8779d55aa040,Chestnut Brew Works,micro,444 Brockway Ave,,,Morgantown,West Virginia,26501,United States,3042762737,http://www.chestnutbrewworks.com,-79.950718,39.627196
219a63ea-526b-4f02-9d2e-7e6a406d401f,Clendenin Brewing Company,brewpub,2 Main St,,,Clendenin,West Virginia,25045,United States,,,-81.348524,38.489242
0e0d87e1-64b3-423d-a658-a81fc56341c2,Dobra Zupas,brewpub,600 S Oakwood Ave,,,Beckley,West Virginia,25801-5928,United States,3042539872,http://www.dobrazupas.com,-81.196724,37.770863
0c4225cc-f91e-4955-a19c-07d6e43b9849,Eight Rivers Brewery,planning,,,,Hillsboro,West Virginia,24946-0039,United States,2022513083,,,
a7309b56-cc35-4563-b6d7-4872ead5b1b9,Fife Street Brewing,brewpub,180 Summers St,,,Charleston,West Virginia,25301,United States,3045496431,,-81.634522,38.351266
4e4dd1c0-4bfb-45ab-ae2d-33a45e0b6307,Greenbrier Valley Brewing Company,micro,862 Industrial Park Rd Ste A,,,Maxwelton,West Virginia,24957,United States,3045204669,http://gvbc.beer,-80.399371,37.86404
619494eb-6947-43e5-9af7-222b038c0aa8,High Ground Brewing,micro,102 Railroad Ave,,,Terra Alta,West Virginia,26764,United States,,http://www.highgroundbrewing.co,-79.546588,39.444309
57d8c1a8-2932-4735-88d1-eba02bd05e4e,Mash Brewing Company,micro,122 N George St,,,Charles Town,West Virginia,25414-1502,United States,6812521788,http://www.mashbrewingcompany.com,-77.86015133,39.28926882
e64f154b-6644-49e1-89b4-f1c042ae34d5,Morgantown Brewing Company,brewpub,1291 University Ave,,,Morgantown,West Virginia,26505,United States,3042926959,http://www.morgantownbrewing.com,-79.958456,39.630776
750a134b-a13a-44ed-a7d4-56d429d5e9aa,Mountain State Brewing Co,micro,1 Nelson Blvd,,,Thomas,West Virginia,26292,United States,3044634500,http://www.mountainstatebrewing.com,-79.50051,39.139636
776c596c-3abe-4efd-ae37-da9c258d8609,North Branch Brewing Co,brewpub,101 Armstrong St,,,Keyser,West Virginia,26726,United States,3047907125,,-78.973536,39.440818
ca5d6e06-3eb3-4a52-a827-5c237b414323,North End Tavern & Brewery,brewpub,3500 Emerson Ave,,,Parkersburg,West Virginia,26104-1806,United States,3044285854,http://www.netbrewery.com,-81.533103,39.287353
d6dab3d7-38df-41b7-a2f0-21699fcf1a7b,Old Spruce Brewing,brewpub,10 Snowshoe Dr,,,Snowshoe,West Virginia,26209,United States,3045721020,http://www.oldsprucetavern.com,-80.036148,38.416222
c7357cb1-7087-47fb-89cc-6dc40bbf96b3,Old Spruce Brewing,brewpub,85 Rescue Road,,,Snowshoe,West Virginia,26209,United States,3045721020,http://www.oldsprucetavern.com,-80.1227,38.4174
536453ac-c66c-4cd2-b3c4-34095183ed62,Parkersburg Brewing Co,brewpub,707 Market St,,,Parkersburg,West Virginia,26101-4628,United States,3049161502,http://www.parkersburgbrewing.com,-81.55821,39.267373
1194e820-846b-47be-a99b-fe9cbdbf6df8,Pubstomper Brewing Company,proprietor,132 Tower Ln,,,Westover,West Virginia,26501-4506,United States,3046850996,http://www.pubstomperbrewing.com,-79.96183033,39.63624754
65781162-e6bc-4aa7-a98e-fbf609fc2a79,Rippon Brewing Company,micro,2153 Berryville Pike,,,Rippon,West Virginia,25441,United States,3048392263,http://www.ripponbrewing.com,-77.9055,39.2183
f0feae2a-8472-4d11-bceb-c29b4bbeffa4,Screech Owl Brewing,micro,2323 Ralph Livengood Rd,,,Bruceton Mills,West Virginia,26525-5889,United States,3043794777,http://www.screechowlbrewing.com,-79.566045,39.588472
af6eaa73-2763-49d5-86ec-001b84cd8e84,Short Story Brewing,brewpub,5904 Fairmont Rd,,,Rivesville,West Virginia,26588-8844,United States,3049332165,http://www.shortstorybrewing.com,-80.119642,39.54499
a0af6b24-2eb6-4ce8-b42d-87e7cad700cd,Sophisticated Hound Brewing Company,micro,,,,Princeton,West Virginia,24739,United States,3043206674,https://www.facebook.com/sophisticatedhoundbrewing,-81.094116,37.369408
3a573352-cab2-4622-8421-ab2f55d1a061,Sophisticated Hound Brewing Company,brewpub,833 Mercer St,,,Princeton,West Virginia,24740,United States,3043206674,,-81.094088,37.369334
24bea67c-fd27-4e48-968e-14e46f842203,Stumptown Ales,taproom,390 William Ave,,,Davis,West Virginia,26260,United States,3042595570,http://www.stumptownales.com,-79.46463,39.129053
1dd33c00-3a98-42bc-a33c-4c19da3a6a8b,The Peddler,brewpub,835 3rd Ave,,,Huntington,West Virginia,25701,United States,3046910415,,-82.445375,38.421611
d6f56731-a478-40b4-a3a8-9c50bfb44776,The Rambling Root,brewpub,101 Fairmont Ave,,,Fairmont,West Virginia,26554,United States,3045348475,http://www.theramblingroot.com,-80.146517,39.482722
c5b50d77-0a38-43e3-82fc-c240281c0139,Weathered Ground Brewery,micro,2027 Flat Top Rd,,,Ghent,West Virginia,25843-9303,United States,3047166230,http://www.weatheredgroundbrewery.com,-81.09682583,37.64833857
6c38d270-fecb-45b4-94fc-e098e3c9e16c,Weathered Ground Brewery,taproom,2027 Flat Top Rd,,,Cool Ridge,West Virginia,25843-9303,United States,3047166230,http://www.weatheredgroundbrewery.com,-81.096629,37.649131
ca4dec0f-a148-492a-80c5-b78aa252b288,Wheeling Brewing Co,brewpub,2247 Market St,,,Wheeling,West Virginia,26003-3839,United States,3049058757,http://www.wheelingbrewing.com,-80.72429082,40.05925145