id,name,brewery_type,street,address_2,address_3,city,state,county_province,postal_code,website_url,phone,created_at,updated_at,country,longitude,latitude,tags
creatures-of-habit-brewing-co,Creatures Of Habit Brewing Co,planning,,,,Anderson,Indiana,,46016-1749,http://facebook.com/CreaturesBrew/,7654000116,2018-07-24 01:33:22,2018-08-11 21:37:19,United States,,,
chapmans-brewing-company,Chapman's Brewing Company,brewpub,300 Industrial Dr,,,Angola,Indiana,,46703-1053,http://www.chapmansbrewing.com,2603195495,2018-07-24 01:33:22,2018-08-24 00:32:43,United States,-85.00164782,41.64836256,
auburn-brewing-company,Auburn Brewing Company,planning,,,,Auburn,Indiana,,46706,,2609081074,2018-07-24 01:33:21,2018-08-11 21:37:17,United States,,,
great-crescent-brewery,Great Crescent Brewery,micro,315 Importing St,,,Aurora,Indiana,,47001-1415,http://www.gcbeer.com,8126559079,2018-07-24 01:33:22,2018-08-24 00:32:58,United States,-84.90051257,39.05760229,
taxman-brewing-co,Taxman Brewing Co,micro,13 S Baldwin St,,,Bargersville,Indiana,,46106-9089,http://www.taxmanbrewing.com,,2018-07-24 01:33:23,2018-08-24 00:33:27,United States,-86.16716199,39.52148548,
lil-charlies-restaurant-and-brewery,Lil' Charlie's Restaurant & Brewery,contract,504 E Pearl St,,,Batesville,Indiana,,47006-1585,http://www.lilcharlies.com,8129346392,2018-07-24 01:33:22,2018-08-24 00:33:05,United States,-85.21614518,39.29564197,
salt-creek-brewery,Salt Creek Brewery,brewpub,466 Old State Road 37 N,,,Bedford,Indiana,,47421-8068,http://www.saltcreeekbrewery.beer,8122778277,2018-07-24 01:33:23,2018-08-11 21:37:21,United States,,,
feed-store-beer-co,Feed Store Beer Co,planning,,,,Bloomfield,Indiana,,47424-1137,http://www.feedstorebeer.com,8123814343,2018-07-24 01:33:22,2018-08-11 21:37:19,United States,,,
upland-brewing-co-bloomington-brewpub,Upland Brewing Co - Bloomington Brewpub,regional,350 W 11th St,,,Bloomington,Indiana,,47404-3720,http://www.uplandbeer.com,8123362337,2018-07-24 01:33:23,2018-08-24 00:33:38,United States,-86.53747927,39.173423,
bloomington-brewing-co-production-facility,Bloomington Brewing Co - Production Facility,micro,2234 West Industrial Drive,,,Bloomington,Indiana,,47404,http://www.bbcbloomington.com,8126992005,2018-07-24 01:33:21,2018-08-11 21:37:18,United States,,,
civilian-brewing-corps,Civilian Brewing Corps,planning,,,,Bloomington,Indiana,,47403-9658,,,2018-07-24 01:33:22,2018-08-11 21:37:19,United States,,,
bloomington-brewing-co,Bloomington Brewing Co,brewpub,1795 E 10th St,,,Bloomington,Indiana,,47407-6955,,8123392256,2018-07-24 01:33:21,2018-08-24 00:32:36,United States,-86.51136673,39.1720504,
function-brewing-co,Function Brewing Co,brewpub,108 E 6th St,,,Bloomington,Indiana,,47408-3311,http://www.functionbrewing.com,8126761000,2018-07-24 01:33:22,2018-08-24 00:32:53,United States,-86.53337072,39.16746781,
upland-brewing-co,Upland Brewing Co,micro,4060 W Profile Pkwy,,,Bloomington,Indiana,,47404-2554,,8123362337,2018-07-24 01:33:23,2018-08-11 21:37:22,United States,,,
the-tap-brewery,The Tap Brewery,brewpub,204 W Kirkwood Ave,,,Bloomington,Indiana,,47404-5144,http://www.thetapbeerbar.com,8122878579,2018-07-24 01:33:23,2018-08-24 00:33:30,United States,-86.5350444,39.16650797,
switchyard-brewing-company,Switchyard Brewing Company,micro,419 N Walnut St,,,Bloomington,Indiana,,47404-3842,http://www.switchyardbrewing.com,8122878295,2018-07-24 01:33:23,2018-08-24 00:33:26,United States,-86.53436059999999,39.1865667,
carbon-brewing-company,Carbon Brewing Company,planning,,,,Brazil,Indiana,,47834-7046,http://www.carbonbrewing.com,,2018-07-24 01:33:22,2018-08-11 21:37:18,United States,,,
crasian-brewing-co,Crasian Brewing Co,micro,207 S Railroad St Ste B,,,Brookston,Indiana,,47923-8137,http://www.crasianbrewing.com,7655638339,2018-07-24 01:33:22,2018-08-11 21:37:19,United States,,,
danny-boy-beer-works,Danny Boy Beer Works,brewpub,12702 Meeting House Rd,,,Carmel,Indiana,,46032-7292,http://www.dannyboybeerworks.com,3176698080,2018-07-24 01:33:22,2018-08-24 00:32:45,United States,-86.1971767,39.971556,
brewery-in-planning-carmel-in,Brewery In Planning - Carmel IN,planning,,,,Carmel,Indiana,,46033-9732,,,2018-07-24 01:33:22,2018-08-11 21:37:18,United States,,,
flix-brewhouse,Flix Brewhouse,brewpub,2206 E 116th St,,,Carmel,Indiana,,46032-3215,,5122442739,2018-07-24 01:33:22,2018-08-24 00:32:50,United States,-86.0897644,39.9567195,
misconduct-brewing,Misconduct Brewing,planning,,,,Carmel,Indiana,,46033-9414,,,2018-07-24 01:33:22,2018-08-11 21:37:20,United States,,,
union-brewing,Union Brewing,micro,622 S Rangeline Rd Ste Q,,,Carmel,Indiana,,46032-2152,http://www.unionbrewingco.com,3175644466,2018-07-24 01:33:23,2018-08-11 21:37:22,United States,,,
hunters-brewing,Hunter's Brewing,brewpub,1535 S Calumet Rd,,,Chesterton,Indiana,,46304-3301,,2197286729,2018-07-24 01:33:22,2018-08-24 00:33:00,United States,-87.0475184,41.5971593,
450-north-brewing-company-simmons-winery,450 North Brewing Company @ Simmons Winery,brewpub,8111 E 450 N,,,Columbus,Indiana,,47203-8106,http://www.450northbrewing.com,8125460091,2018-07-24 01:33:21,2018-08-11 21:37:17,United States,,,
power-house-brewing-cos-columbus-bar,Power House Brewing Co's Columbus Bar,brewpub,2735 N State Road 9,,,Columbus,Indiana,,47203-9648,http://www.powerhousebrewingco.com,8123758800,2018-07-24 01:33:23,2018-08-11 21:37:21,United States,,,
zwanzigz-brewing,ZwanzigZ Brewing,brewpub,1038 Lafayette Ave,,,Columbus,Indiana,,47201-5756,http://www.zwanzigz.com,8123760200,2018-07-24 01:33:23,2018-08-24 00:33:42,United States,-85.91883647,39.20865674,
point-blank-brewing-company,Point Blank Brewing Company,brewpub,105 E Beaver St,,,Corydon,Indiana,,47112-1146,http://www.pointblankbrewing.com,8122255141,2018-07-24 01:33:23,2018-08-24 00:33:14,United States,-86.12616408,38.21111448,
backstep-brewing-company,Backstep Brewing Company,micro,125 N Green St,,,Crawfordsville,Indiana,,47933-1708,http://www.backstepbrewingcompany.com,7652302337,2018-07-24 01:33:21,2018-08-24 00:32:29,United States,-86.89998607,40.04207712,
crown-brewing-co,Crown Brewing Co,brewpub,211 S East St,,,Crown Point,Indiana,,46307-4058,http://www.crownbrewing.com,2196634545,2018-07-24 01:33:22,2018-08-11 21:37:19,United States,,,
off-square-brewing,Off Square Brewing,brewpub,11000 Delaware Pkwy,,,Crown Point,Indiana,,46307-7895,http://www.offsquarebrewing.com,2193108898,2018-07-24 01:33:23,2018-08-24 00:33:12,United States,-87.329728,41.417636,
george-ringler-and-company,George Ringler & Company,planning,,,,Danville,Indiana,,46122-1623,,3176268353,2018-07-24 01:33:22,2018-08-11 21:37:19,United States,,,
windmill-brewing,Windmill Brewing,micro,2121 Gettler St,,,Dyer,Indiana,,46311-1859,http://www.windmillbrew.com,2194402189,2018-07-24 01:33:23,2018-08-24 00:33:41,United States,-87.52262489,41.49333495,
iechyd-da-brewing,Iechyd Da Brewing,brewpub,317 N Main St,,,Elkhart,Indiana,,46516-3034,http://www.iechyddabrewingcompany.com,5742930506,2018-07-24 01:33:22,2018-08-24 00:33:01,United States,-85.97531332,41.69004065,
brewery-in-planning-elkhart-in,"Brewery in Planning - Elkhart, IN",planning,,,,Elkhart,Indiana,,46516,http://sty.stedman@hotmail.com,9705979865,2018-07-24 01:33:22,2018-08-11 21:37:18,United States,,,
westwind-brewery-co,Westwind Brewery Co.,planning,,,,Elkhart,Indiana,,46514-2204,http://www.westwindbrewery.com,5742745073,2018-07-24 01:33:23,2018-08-11 21:37:22,United States,,,
carsons-brewery,Carson's Brewery,micro,2404 Lynch Rd,,,Evansville,Indiana,,47711-2953,http://www.carsonsbrewery.com,8127598229,2018-07-24 01:33:22,2018-08-11 21:37:18,United States,,,
main-street-brewing-inc/turonis-pizza,Main Street Brewing Inc/Turonis Pizza,brewpub,408 N Main St,,,Evansville,Indiana,,47711-5418,,8124249871,2018-07-24 01:33:22,2018-08-24 00:33:06,United States,-87.56399527,37.98122094,
tin-man-brewing-company,Tin Man Brewing Company,micro,1430 W Franklin St,,,Evansville,Indiana,,47710-1030,http://www.tinmanbrewing.com,8126183227,2018-07-24 01:33:23,2018-08-24 00:33:33,United States,-87.58452457,37.98028970000001,
maidens-brewery,Maidens Brewery,brewpub,209 North Wabash Avenue of Flags,,,Evansville,Indiana,,47712,http://www.maidensbrewery.com,8124312836,2018-07-24 01:33:22,2018-08-11 21:37:20,United States,,,
bad-dad-brewery,Bad Dad Brewery,micro,407 W. Washington St. Ste. C,,,Fairmount,Indiana,,46928,http://www.baddadbrewery.com,7654990941,2018-07-24 01:33:21,2018-08-11 21:37:18,United States,,,
st-benedicts-brew-works,St. Benedict's Brew Works,micro,860 E 10th St,,,Ferdinand,Indiana,,47532-9240,http://www.saintbenedictsbrewworks.com,8129982337,2018-07-24 01:33:23,2018-08-24 00:33:23,United States,-86.85419491,38.2242289,
herrmann-brewthers-llc,"Herrmann Brewthers, LLC",planning,,,,Fishers,Indiana,,46038-2313,,3179641390,2018-07-24 01:33:22,2018-08-11 21:37:20,United States,,,
four-day-ray-brewing,Four Day Ray Brewing,brewpub,11671 Lantern Rd,,,Fishers,Indiana,,46038-2952,http://www.fourdayray.com,3173430200,2018-07-24 01:33:22,2018-08-24 00:32:52,United States,-86.013396,39.956908,
sun-king-brewing-co,Sun King Brewing Co,planning,,,,Fishers,Indiana,,46037,,,2018-07-24 01:33:23,2018-08-11 21:37:22,United States,,,
sun-king-brewery,Sun King Brewery,micro,7848 E 96th St,,,Fishers,Indiana,,46037-9629,,3174361926,2018-07-24 01:33:23,2018-08-24 00:33:25,United States,-86.0242557,39.9282185,
brewery-in-planning-fort-wayne-in,"Brewery in Planning - Fort Wayne, IN",planning,,,,Fort Wayne,Indiana,,46808,http://www.dotandlinebrewing.com,2604822720,2018-07-24 01:33:22,2018-08-11 21:37:18,United States,,,
birdboy-brewing-co,Birdboy Brewing Co,micro,210 E Collins Rd,,,Fort Wayne,Indiana,,46825-5304,http://www.birdboybrewing.com,2605795508,2018-07-24 01:33:21,2018-08-24 00:32:33,United States,-85.13900142,41.12187792,
gnometown-brewing-co,GnomeTown Brewing Co,brewpub,203 E Berry St Ste 104,,,Fort Wayne,Indiana,,46802,http://www.gnometownbrewing.com,2604220070,2018-07-24 01:33:22,2018-08-11 21:37:19,United States,,,
mad-anthony-brewing-co,Mad Anthony Brewing Co,micro,2002 Broadway,,,Fort Wayne,Indiana,,46802-3710,http://www.madbrew.com,2604262537,2018-07-24 01:33:22,2018-08-11 21:37:20,United States,,,
granite-city-food-and-brewery-#24,Granite City Food & Brewery (#24),brewpub,3809 Coldwater Rd,,,Fort Wayne,Indiana,,46805-1101,http://www.gcfb.net,2604713030,2018-07-24 01:33:22,2018-08-24 00:32:56,United States,-85.13581857,41.1113216,
hop-river-brewing-company,Hop River Brewing Company,micro,1515 N Harrison St,,,Fort Wayne,Indiana,,46808-2729,http://www.hopriverbrewing.com,,2018-07-24 01:33:22,2018-08-24 00:32:59,United States,-85.1434574,41.0882767,
junk-ditch-brewing-company,Junk Ditch Brewing Company,micro,1825 W Main St,,,Fort Wayne,Indiana,,46808-3715,http://junkditchbrewingco.com,2604600460,2018-07-24 01:33:22,2018-08-24 00:33:03,United States,-85.16690140000001,41.0779727,
summit-city-brwerks,Summit City Brwerks,brewpub,1501 E Berry #106,,,Fort Wayne,Indiana,,46803,http://www.summitcitybrewerks.com,2604150782,2018-07-24 01:33:23,2018-08-11 21:37:22,United States,,,
trubble-brewing,Trubble Brewing,micro,2725 Broadway,,,Fort Wayne,Indiana,,46807-1111,http://www.trubblebrewing.com,2602676082,2018-07-24 01:33:23,2018-08-11 21:37:22,United States,,,
brewery-in-planning-franklin,Brewery in Planning - Franklin,planning,,,,Franklin,Indiana,,46131-7078,,,2018-07-24 01:33:22,2018-08-11 21:37:18,United States,,,
opocofi-brewing-company,Opocofi Brewing Company,planning,,,,Franklin,Indiana,,46131-8901,,,2018-07-24 01:33:23,2018-08-11 21:37:21,United States,,,
18th-street-brewery,18th Street Brewery,micro,5725 Miller Ave,,,Gary,Indiana,,46403-2871,http://www.18thstreetbrewery.com,,2018-07-24 01:33:21,2018-08-24 00:32:26,United States,-87.26887786,41.59928343,
back-alley-brewing-co,Back Alley Brewing Co,micro,211 S Main St,,,Goshen,Indiana,,46526-3722,,5743704049,2018-07-24 01:33:21,2018-08-24 00:32:27,United States,-85.83457862,41.58461971,
goshen-brewing-company,Goshen Brewing Company,brewpub,315 W Washington St,,,Goshen,Indiana,,46526-3732,http://www.goshenbrewing.com,5749715324,2018-07-24 01:33:22,2018-08-24 00:32:54,United States,-85.8386783,41.585178000000006,
bare-hands-brewery,Bare Hands Brewery,micro,12804 Sandy Ct,,,Granger,Indiana,,46530-4309,http://www.barehandsbrewbrewery.com,5742772258,2018-07-24 01:33:21,2018-08-11 21:37:18,United States,,,
heavenly-goat-brewing-company,Heavenly Goat Brewing Company,brewpub,7321 Heritage Square Dr Ste 190,,,Granger,Indiana,,46530-5660,http://www.heavenlygoatbrew.com,5742178428,2018-07-24 01:33:22,2018-08-11 21:37:20,United States,,,
wasser-brewing-company,Wasser Brewing Company,brewpub,102 E Franklin St,,,Greencastle,Indiana,,46135-1220,http://www.wasserbrewing.com,7653019363,2018-07-24 01:33:23,2018-08-24 00:33:40,United States,-86.86331023,39.64467171,
wooden-bear-brewing-co,Wooden Bear Brewing Co,micro,21 W North St,,,Greenfield,Indiana,,46140-2171,http://www.woodenbearbrewing.com,3173181221,2018-07-24 01:33:23,2018-08-24 00:33:41,United States,-85.77122303,39.78597726,
mashcraft-brewing,MashCraft Brewing,micro,1140 N State Road 135 Ste M,,,Greenwood,Indiana,,46142-1016,http://www.mashcraft.com,3172154578,2018-07-24 01:33:22,2018-08-11 21:37:20,United States,,,
oaken-barrel-brewing-co,Oaken Barrel Brewing Co,brewpub,50 Airport Pkwy Ste L,,,Greenwood,Indiana,,46143-1438,http://www.oakenbarrel.com,3178872287,2018-07-24 01:33:23,2018-08-11 21:37:21,United States,,,
planetary-brewing-company,Planetary Brewing Company,micro,500 Polk St Ste 22,,,Greenwood,Indiana,,46143-1638,http://www.planetarybrewing.com,3172154941,2018-07-24 01:33:23,2018-08-11 21:37:21,United States,,,
pokro-brewing-company-the,"Pokro Brewing Company, The",micro,311 N Broad St,,,Griffith,Indiana,,46319-2222,http://www.pokrobrewing.com,2199247950,2018-07-24 01:33:23,2018-08-24 00:33:15,United States,-87.42755733,41.5266943,
new-oberpfalz-brewing,New Oberpfalz Brewing,brewpub,121 E Main St,,,Griffith,Indiana,,46319-2243,http://www.newoberpfalz.com,3127381308,2018-07-24 01:33:23,2018-08-24 00:33:10,United States,-87.42727571,41.52270212,
wildrose-brewing-company,Wildrose Brewing Company,brewpub,1104 E Main St,,,Griffith,Indiana,,46319-2826,http://www.wildrosebrewing.com,2195955054,2018-07-24 01:33:23,2018-08-24 00:33:40,United States,-87.4155241,41.52275923,
byway-brewing-company,Byway Brewing Company,brewpub,2825 Carlson Dr,,,Hammond,Indiana,,46323-1183,http://www.bywaybrewing.beer,2198445458,2018-07-24 01:33:22,2018-08-11 21:37:18,United States,,,
18th-street-brewery,18th Street Brewery,micro,5417 Oakley Ave,,,Hammond,Indiana,,46320-1817,,,2018-07-24 01:33:21,2018-08-24 00:32:26,United States,-87.517422,41.61556796,
metazoa-brewing-co,Metazoa Brewing Co.,micro,140 S College Ave,,,Indianapolis,Indiana,,46202-4004,http://www.metazoa.beer,3175082274,2018-07-24 01:33:22,2018-08-24 00:33:07,United States,-86.14585025,39.76455049,
ram-restaurant-and-brewery-indianapolis,RAM Restaurant and Brewery - Indianapolis,brewpub,140 S Illinois St,,,Indianapolis,Indiana,,46204,http://www.theram.com,3179559900,2018-07-24 01:33:23,2018-08-24 00:33:17,United States,-86.16050947,39.76475755,
blind-owl-brewery,Blind Owl Brewery,brewpub,5014 E 62nd St,,,Indianapolis,Indiana,,46220-5228,http://www.blindowlbrewery.com,3179241000,2018-07-24 01:33:21,2018-08-11 21:37:18,United States,,,
books-and-brews,Books & Brews,brewpub,9402 Uptown Dr Ste 1400,,,Indianapolis,Indiana,,46256-1076,http://www.booksnbrews.com,3172885136,2018-07-24 01:33:21,2018-08-11 21:37:18,United States,,,
brewery-in-planning-indianapolis,Brewery In Planning - Indianapolis,planning,,,,Indianapolis,Indiana,,46236,,3178230521,2018-07-24 01:33:22,2018-08-11 21:37:18,United States,,,
broad-ripple-brewing-co,Broad Ripple Brewing Co,brewpub,842 E 65th St,,,Indianapolis,Indiana,,46220-1674,,3172532739,2018-07-24 01:33:22,2018-08-11 21:37:18,United States,,,
brugge-brasserie,Brugge Brasserie,brewpub,1011A E Westfield Blvd,,,Indianapolis,Indiana,,46220-,http://www.bruggebrasserie.com,3172550978,2018-07-24 01:33:22,2018-08-11 21:37:18,United States,,,
chilly-water-brewing-company,Chilly Water Brewing Company,brewpub,719 Virginia Ave Ste 105,,,Indianapolis,Indiana,,46203-1976,http://www.chillywaterbrewing.com,3179640518,2018-07-24 01:33:22,2018-08-11 21:37:19,United States,,,
big-lug-canteen,Big Lug Canteen,brewpub,1435 E 86th St,,,Indianapolis,Indiana,,46240-1911,,,2018-07-24 01:33:21,2018-08-24 00:32:33,United States,-86.079957,39.91262800000001,
black-acre-brewing-co,Black Acre Brewing Co,brewpub,5632 E Washington St,,,Indianapolis,Indiana,,46219-6428,http://www.blackacrebrewing.com,3177973316,2018-07-24 01:33:21,2018-08-24 00:32:34,United States,-86.1452662,39.7668669,
black-circle-brewing-co,Black Circle Brewing Co,micro,2201 E 46th St,,,Indianapolis,Indiana,,46205,http://www.blackcirclebrewing.com,3174260143,2018-07-24 01:33:21,2018-08-24 00:32:35,United States,-86.123944,39.8398813,
cannon-ball-brewing-company,Cannon Ball Brewing Company,brewpub,1702 Bellefontaine St,,,Indianapolis,Indiana,,46202-1813,http://www.cannonballbrewingindy.com,3174265978,2018-07-24 01:33:22,2018-08-24 00:32:41,United States,-86.14245603,39.79046798,
centerpoint-brewing,Centerpoint Brewing,micro,1125 E Brookside Ave,,,Indianapolis,Indiana,,46202-3587,http://www.centerpointbrewing.com,3176028386,2018-07-24 01:33:22,2018-08-24 00:32:42,United States,-86.13740465,39.78129031,
central-state-brewing,Central State Brewing,micro,4001 E 26th St,,,Indianapolis,Indiana,,46218,http://centralstatebrewing.com,3174079855,2018-07-24 01:33:22,2018-08-24 00:32:42,United States,-86.09910500000002,39.805091,
deviate-brewing-co,Deviate Brewing Co,micro,4004 W 96th St,,,Indianapolis,Indiana,,46268-2909,http://www.deviatebrewing.com,,2018-07-24 01:33:22,2018-08-11 21:37:19,United States,,,
granite-city-food-and-brewery,Granite City Food & Brewery,brewpub,150 W 96th St,,,Indianapolis,Indiana,,46260-4802,,,2018-07-24 01:33:22,2018-08-11 21:37:19,United States,,,
granite-city-food-and-brewery-#27,Granite City Food & Brewery (#27),brewpub,150 W 96th St,,,Indianapolis,Indiana,,46260-4802,http://www.gcfb.net,3172187185,2018-07-24 01:33:22,2018-08-11 21:37:20,United States,,,
guggman-haus-brewing-co,Guggman Haus Brewing Co.,planning,,,,Indianapolis,Indiana,,46202-2158,http://www.guggmanhausbrewing.com,8122302554,2018-07-24 01:33:22,2018-08-11 21:37:20,United States,,,
liter-house,Liter House,planning,,,,Indianapolis,Indiana,,46220,,3176940580,2018-07-24 01:33:22,2018-08-11 21:37:20,United States,,,
daredevil-brewing-company,Daredevil Brewing Company,micro,1151 Main St,,,Indianapolis,Indiana,,46224-6976,http://www.daredevilbeer.com,,2018-07-24 01:33:22,2018-08-24 00:32:46,United States,-86.64726999999998,39.844367,
flat-12-bierwerks,Flat 12 Bierwerks,micro,414 Dorman St,,,Indianapolis,Indiana,,46202-3648,http://www.flat12.me,3174265851,2018-07-24 01:33:22,2018-08-24 00:32:50,United States,-86.13847,39.77261486,
fountain-square-brewing-co,Fountain Square Brewing Co,micro,1301 Barth Ave,,,Indianapolis,Indiana,,46203-1872,http://www.fountainsquarebrewing.com,3174931410,2018-07-24 01:33:22,2018-08-24 00:32:52,United States,-86.1404227,39.7496885,
indiana-city-brewing,Indiana City Brewing,micro,24 Shelby Street,,,Indianapolis,Indiana,,46202-3941,http://indianacitybeer.com,3176431103,2018-07-24 01:33:22,2018-08-24 00:33:01,United States,-86.141258,39.7661102,
redemption-alewerks,Redemption Alewerks,brewpub,7035 E 96th St Ste K,,,Indianapolis,Indiana,,46250-3303,http://www.redemptionalewerks.com,3173483330,2018-07-24 01:33:23,2018-08-11 21:37:21,United States,,,
round-town-brewery,Round Town Brewery,micro,950 S White River Pky West Dr Ste 100,,,Indianapolis,Indiana,,46221-1373,http://www.roundtownbrewery.com,3174931375,2018-07-24 01:33:23,2018-08-11 21:37:21,United States,,,
rock-bottom-brewery-indianapolis,Rock Bottom Brewery - Indianapolis,brewpub,10 W Washington St,,,Indianapolis,Indiana,,46204-3402,http://www.rockbottom.com,3176818180,2018-07-24 01:33:23,2018-08-24 00:33:19,United States,-86.15847049999998,39.76717025,
st-joseph-brewery-and-public-house,St. Joseph Brewery & Public House,brewpub,540 N College Ave,,,Indianapolis,Indiana,,46202-3504,http://www.saintjoseph.beer.com,3176025670,2018-07-24 01:33:23,2018-08-24 00:33:24,United States,-86.14491740000003,39.80956870000001,
sun-king-brewing-co,Sun King Brewing Co,regional,135 N College Ave,,,Indianapolis,Indiana,,46202-3801,,3176023702,2018-07-24 01:33:23,2018-08-24 00:33:26,United States,-86.14491740000003,39.80956870000001,
thr3e-wise-men-brewing-co,Thr3e Wise Men Brewing Co,brewpub,1021 Broad Ripple Ave,,,Indianapolis,Indiana,,46220-2034,,3172555151,2018-07-24 01:33:23,2018-08-11 21:37:22,United States,,,
traders-brewing-company,Traders Brewing Company,micro,8587  ZIONSVILLE ROAD,,,INDIANAPOLIS,Indiana,,46268,http://www.tradersbrewingcompany.com,3172807505,2018-07-24 01:33:23,2018-08-11 21:37:22,United States,,,
triton-brewing-company,Triton Brewing Company,micro,5764 Wheeler Rd,,,Indianapolis,Indiana,,46216-1038,http://www.tritonbrewing.com,3177352706,2018-07-24 01:33:23,2018-08-11 21:37:22,United States,,,
wabash-brewing,Wabash Brewing,micro,5328 W 79th St,,,Indianapolis,Indiana,,46268-1631,http://www.wabashbrew.com,3179384458,2018-07-24 01:33:23,2018-08-11 21:37:22,United States,,,
twenty-below-brewing-twenty-tap,Twenty Below Brewing @ Twenty Tap,brewpub,5406 N College Ave,,,Indianapolis,Indiana,,46220-3126,http://www.twentytap.com,3176028840,2018-07-24 01:33:23,2018-08-24 00:33:36,United States,-86.14491740000003,39.80956870000001,
twodeep-brewing,TwoDEEP Brewing,brewpub,714 N Capitol Ave,,,Indianapolis,Indiana,,46204-1114,http://www.twodeepbrewing.com,3176531884,2018-07-24 01:33:23,2018-08-24 00:33:36,United States,-86.161428,39.777426,
bier-brewery-and-taproom,Bier Brewery and Taproom,micro,5133 E 65th St,,,Indianapolis,Indiana,,46220-4816,http://www.bierbrewery.com,3176960200,2018-07-24 01:33:21,2018-08-11 21:37:18,United States,,,
schnitz-brewery,Schnitz Brewery,brewpub,2031 Newton St,,,Jasper,Indiana,,47546-1600,http://www.schnitzbrewery.com,8128482739,2018-07-24 01:33:23,2018-08-24 00:33:21,United States,-86.937703,38.405985,
basket-case-brewing-co,Basket Case Brewing Co,brewpub,1340 Mill St,,,Jasper,Indiana,,47546-2310,http://www.basketcasebeer.com,8124824345,2018-07-24 01:33:21,2018-08-24 00:32:31,United States,-86.92850063,38.39736355,
the-red-yeti,The Red Yeti,brewpub,256 Spring St,,,Jeffersonville,Indiana,,47130-3340,http://www.redyetijeff.com,8122885788,2018-07-24 01:33:23,2018-08-24 00:33:30,United States,-85.74015849999998,38.2718249,
10-56-brewing-company,10-56 Brewing Company,micro,400 Brown Cir,,,Knox,Indiana,,46534,,6308165790,2018-07-24 01:33:21,2018-08-24 00:32:25,United States,-86.627954,41.289715,
half-moon-restaurant-and-brewery,Half Moon Restaurant & Brewery,brewpub,4051 S Lafountain St,,,Kokomo,Indiana,,46902-6913,,7654552739,2018-07-24 01:33:22,2018-08-24 00:32:58,United States,-86.1281745,40.4362867,
tin-man-brewing-kokomo,Tin Man Brewing Kokomo,micro,500 N Buckeye St Ste A,,,Kokomo,Indiana,,46901-4544,,5125176164,2018-07-24 01:33:23,2018-08-11 21:37:22,United States,,,
back-road-brewery,Back Road Brewery,micro,308 Perry St,,,La Porte,Indiana,,46350-3216,http://www.backroadbrewery.com,2193627623,2018-07-24 01:33:21,2018-08-24 00:32:28,United States,-86.72649137,41.6118882,
lafayette-brewing-co,Lafayette Brewing Co,brewpub,622 Main St,,,Lafayette,Indiana,,47901-1451,http://www.lafayettebrewingco.com,7657422591,2018-07-24 01:33:22,2018-08-24 00:33:03,United States,-86.88994924,40.41921732,
teays-river-brewing,Teays River Brewing,brewpub,3000 S 9th St Ste A,,,Lafayette,Indiana,,47909-6702,http://www.teaysriverbrewing.com,7657466614,2018-07-24 01:33:23,2018-08-11 21:37:22,United States,,,
peoples-brewing-co,Peoples Brewing Co,micro,2006 N 9th Street Rd,,,Lafayette,Indiana,,47904-1036,http://www.peoplesbrew.com,7657924677,2018-07-24 01:33:23,2018-08-24 00:33:13,United States,-86.885995,40.43700688,
laotto-brewing-llc,LaOtto Brewing LLC,brewpub,202 S Main St,,,Laotto,Indiana,,46763-4800,,2608973360,2018-07-24 01:33:22,2018-08-11 21:37:20,United States,,,
pax-verum-brewing,Pax Verum Brewing,micro,908 N Main St,,,Lapel,Indiana,,46051-,http://www.paxverum.com,3172858819,2018-07-24 01:33:23,2018-08-24 00:33:13,United States,-85.84802957,40.06869879999999,
norris-english-pub,Norris English Pub,brewpub,202 E Seminary St,,,Liberty,Indiana,,47353-1206,http://www.norrisenglishpub.com,7652232337,2018-07-24 01:33:23,2018-08-24 00:33:11,United States,-84.92508133,39.6344325,
cedar-creek-brewing-co,Cedar Creek Brewing Co.,micro,3820 Leonard Rd,,,Martinsville,Indiana,,46151-5600,http://www.drinkatthecreek.com,7653429000,2018-07-24 01:33:22,2018-08-11 21:37:18,United States,,,
three-pints-brewpub,Three Pints Brewpub,brewpub,610 W Mitchell Ave,,,Martinsville,Indiana,,46151-2734,http://www.threepints.com,7653499888,2018-07-24 01:33:23,2018-08-11 21:37:22,United States,,,
scarlet-lane-brewing-company-llc,Scarlet Lane Brewing Company LLC,micro,7724 Depot St,,,McCordsville,Indiana,,46055-6173,http://www.scarletlanebrew.com,,2018-07-24 01:33:23,2018-08-24 00:33:20,United States,-85.92438159,39.89477286,
devils-trumpet-brewing-co,Devil's Trumpet Brewing Co,micro,8250 Utah St,,,Merrillville,Indiana,,46410-6578,http://www.thedevilstrumpet.com,2195767118,2018-07-24 01:33:22,2018-08-11 21:37:19,United States,,,
burnem-brewing,Burn'Em Brewing,brewpub,718 Freyer Rd,,,Michigan City,Indiana,,46360-1911,http://www.burnembrewing.com,2193938606,2018-07-24 01:33:22,2018-08-24 00:32:40,United States,-86.82979191,41.73849717,
shoreline-brewery,Shoreline Brewery,brewpub,208 Wabash St,,,Michigan City,Indiana,,46360-3244,http://www.shorelinebrewery.com,2198794677,2018-07-24 01:33:23,2018-08-24 00:33:21,United States,-86.90621968,41.71931311,
zorn-brew-works,Zorn Brew Works,micro,605 E 9th St,,,Michigan City,Indiana,,46360-3651,http://www.zornbrewworks.com,2193316322,2018-07-24 01:33:23,2018-08-24 00:33:42,United States,-86.89216786,41.714577,
evil-czech-brewery,Evil Czech Brewery,brewpub,3703 N Main St,,,Mishawaka,Indiana,,46545-3111,,,2018-07-24 01:33:22,2018-08-24 00:32:49,United States,-86.1823337,41.6939205,
granite-city-food-and-brewery-#26,Granite City Food & Brewery (#26),brewpub,6501 Grape Rd Ste 1000,,,Mishawaka,Indiana,,46545-1010,http://www.gcfb.net,5742430900,2018-07-24 01:33:22,2018-08-24 00:32:57,United States,-86.1923429,41.7177604,
new-corner-brewing-company,New Corner Brewing Company,micro,1900 W Mt Pleasant Blvd Ste G,,,Muncie,Indiana,,47302-9566,http://www.newcornerbrewing.com,7657304376,2018-07-24 01:33:23,2018-08-11 21:37:21,United States,,,
the-guardian-brewing-company,The Guardian Brewing Company,micro,514 E Jackson Street,,,Muncie,Indiana,,47305,http://www.theguardianbrewingco.com,7652738918,2018-07-24 01:33:23,2018-08-24 00:33:29,United States,-85.38148786,40.19281286,
three-floyds-brewing-co,Three Floyds Brewing Co,regional,9750 Indiana Pkwy,,,Munster,Indiana,,46321-4004,http://www.3floyds.com,2199223565,2018-07-24 01:33:23,2018-08-11 21:37:22,United States,,,
warpigs-usa-brewing-co,WarPigs USA Brewing Co.,contract,9750 Indiana Pkwy,,,Munster,Indiana,,46321-4004,http://warpigs.com,2199223565,2018-07-24 01:33:23,2018-08-11 21:37:22,United States,,,
quaff-on-brewing,Quaff On Brewing,micro,1934 State Road 135 N,,,Nashville,Indiana,,47448-8418,http://www.quaffon.com,8129886006,2018-07-24 01:33:23,2018-08-11 21:37:21,United States,,,
new-albanian-bank-street-brewhouse,New Albanian Bank Street Brewhouse,brewpub,415 Bank St,,,New Albany,Indiana,,47150-3407,http://www.newalbanian.com,8127259585,2018-07-24 01:33:22,2018-08-24 00:33:08,United States,-85.82220842,38.28656732,
donum-dei-brewery,Donum Dei Brewery,brewpub,3211 Grant Line Rd Ste 3,,,New Albany,Indiana,,47150-2175,,5025412950,2018-07-24 01:33:22,2018-08-11 21:37:19,United States,,,
new-albanian-brewing-co,New Albanian Brewing Co,brewpub,3312 Plaza Dr,,,New Albany,Indiana,,47150-2478,http://www.newalbanian.com,8129442577,2018-07-24 01:33:22,2018-08-11 21:37:21,United States,,,
floyd-county-brewing-company,Floyd County Brewing Company,brewpub,129 W Main St,,,New Albany,Indiana,,47150-5958,http://www.floydcountybrewing.com,4705882337,2018-07-24 01:33:22,2018-08-24 00:32:51,United States,-85.82429754,38.28289885,
raintree-brewing-company,Raintree Brewing Company,micro,500 Church Street,,,New Harmony,Indiana,,47631,http://www.raintreebrewing.com,,2018-07-24 01:33:23,2018-08-24 00:33:17,United States,-87.9348109,38.12992620000001,
deer-creek-brewery,Deer Creek Brewery,micro,17661 Cumberland Rd,,,Noblesville,Indiana,,46060-,http://www.deercreekbrewery.com,3176748266,2018-07-24 01:33:22,2018-08-24 00:32:47,United States,-85.9962796,40.04439779999999,
barley-island-brewing-co,Barley Island Brewing Co,brewpub,639 E Conner St,,,Noblesville,Indiana,,46060-2532,http://www.barleyisland.com,3177705280,2018-07-24 01:33:21,2018-08-11 21:37:18,United States,,,
brewery-in-planning-noblesville,Brewery in Planning - Noblesville,planning,,,,Noblesville,Indiana,,46062-6491,,,2018-07-24 01:33:22,2018-08-11 21:37:18,United States,,,
rebelle-brewing,Rebelle Brewing,planning,,,,Noblesville,Indiana,,46060,,,2018-07-24 01:33:23,2018-08-11 21:37:21,United States,,,
creek-bottom-brew-llc,Creek Bottom Brew LLC,planning,,,,Oldenburg,Indiana,,47036-9765,http://www.creekbottombrew.com,8122124817,2018-07-24 01:33:22,2018-08-11 21:37:19,United States,,,
brew-link-brewing,Brew Link Brewing,proprietor,212 E. Main,,,Plainfield,Indiana,,46168-9659,http://www.brewlinkbrewing.com,3172037788,2018-07-24 01:33:21,2018-08-11 21:37:18,United States,,,
black-swan-brewpub,Black Swan Brewpub,brewpub,2067 E Hadley Rd,,,Plainfield,Indiana,,46168-7484,http://www.blackswanbrewpub.com,3178387444,2018-07-24 01:33:21,2018-08-24 00:32:35,United States,-86.37414100000002,39.674729,
new-boswell-brewing-co,New Boswell Brewing Co,micro,410 N 10th St,,,Richmond,Indiana,,47374,http://www.newboswell.com,7655467856,2018-07-24 01:33:22,2018-08-24 00:33:09,United States,-84.88916811,39.83306544,
noble-order-brewing-company,Noble Order Brewing Company,brewpub,3407 National Rd W,,,Richmond,Indiana,,47374-4416,http://www.nobleorderbrewing.com,7659659463,2018-07-24 01:33:23,2018-08-24 00:33:11,United States,-84.94882319,39.82198694,
95ate5-brewpub,95ate5 Brewpub,brewpub,9585 N Industrial Dr,,,Saint John,Indiana,,46373,http://www.95ate5.com,2193656506,2018-07-24 01:33:21,2018-08-24 00:32:27,United States,-87.46380305,41.44400246,
st-john-malt-brothers-brewing,St John Malt Brothers Brewing,brewpub,9607 Wicker Ave,,,Saint John,Indiana,,46373-9487,http://www.sjmaltbros.com,2196274294,2018-07-24 01:33:23,2018-08-24 00:33:23,United States,-87.46998163,41.44507008,
studebaker-brewing-company,Studebaker Brewing Company,planning,,,,South Bend,Indiana,,46601,http://www.studebakerbrewingco.com,5742349077,2018-07-24 01:33:23,2018-08-11 21:37:22,United States,,,
south-bend-brew-werks,South Bend Brew Werks,brewpub,216 S Michigan St,,,South Bend,Indiana,,46601-2002,http://www.southbendbrewwerks.com,5743340356,2018-07-24 01:33:23,2018-08-24 00:33:22,United States,-86.25285572,41.62611855,
crooked-ewe-brewery-and-ale-house,Crooked Ewe Brewery & Ale House,brewpub,1047 Lincoln Way E,,,South Bend,Indiana,,46601-3726,http://www.crookedewe.com,5742170881,2018-07-24 01:33:22,2018-08-11 21:37:19,United States,,,
terre-haute-brewing-company,Terre Haute Brewing Company,brewpub,401 S 9th St,,,Terre Haute,Indiana,,47807-4417,http://www.terrehautebrewingcompany.com,8128143071,2018-07-24 01:33:23,2018-08-24 00:33:28,United States,-87.404517,39.462286,
figure-eight-brewing-co,Figure Eight Brewing Co,brewpub,150 Washington St,,,Valparaiso,Indiana,,46383-5507,http://www.figureeightbrewing.com,2194772000,2018-07-24 01:33:22,2018-08-11 21:37:19,United States,,,
four-fathers-brewing,Four Fathers Brewing,micro,1555 W Lincolnway Ste 105,,,Valparaiso,Indiana,,46385-3801,http://www.fourfathersbrewing.com,2194649712,2018-07-24 01:33:22,2018-08-24 00:32:53,United States,-87.07906572,41.47328343,
ironwood-brewing-co-llc,Ironwood Brewing Co LLC,micro,6 Roosevelt Rd,,,Valparaiso,Indiana,,46383-5136,http://www.ironwoodbrewing.beer,2194054644,2018-07-24 01:33:22,2018-08-24 00:33:02,United States,-87.04645699999998,41.46840633,
chapmans-brewing-company,Chapman's Brewing Company,planning,,,,Wabash,Indiana,,46992-3131,http://www.chapmansbrewing.com,,2018-07-24 01:33:22,2018-08-11 21:37:19,United States,,,
the-koontz-lake-brewing-company,The Koontz Lake Brewing Company,brewpub,7747 N State Road 23,,,Walkerton,Indiana,,46574-9360,,5745862019,2018-07-24 01:33:23,2018-08-11 21:37:22,United States,,,
white-raven-brewing,White Raven Brewing,planning,,,,Warsaw,Indiana,,46582-8089,http://www.whiteravenbrewing.com,5747030643,2018-07-24 01:33:23,2018-08-11 21:37:22,United States,,,
brokerage-brewing-company,Brokerage Brewing Company,micro,2516 Covington St,,,West Lafayette,Indiana,,47906-1404,http://www.brokeragebrewing.com,7652332767,2018-07-24 01:33:22,2018-08-24 00:32:39,United States,-86.91414689,40.45361124,
big-leaf-brewing,Big Leaf Brewing,micro,1320 Durkees Ferry Rd,,,West Terre Haute,Indiana,,47885-9626,,8122812187,2018-07-24 01:33:21,2018-08-11 21:37:18,United States,,,
field-brewing,Field Brewing,planning,,,,Westfield,Indiana,,46074-9494,http://www.fieldbrewing.com,3174300253,2018-07-24 01:33:22,2018-08-11 21:37:19,United States,,,
grand-junction-brewing-co,Grand Junction Brewing Co,brewpub,110 S Union St,,,Westfield,Indiana,,46074-9458,http://www.grandjunctionbrewing.com,3178045168,2018-07-24 01:33:22,2018-08-24 00:32:55,United States,-86.1275556,40.0424222,
hop-quest-brewing-company,Hop Quest Brewing Company,planning,,,,Wheatfield,Indiana,,46392,,2198636393,2018-07-24 01:33:22,2018-08-11 21:37:20,United States,,,
nailers-brewing-company,Nailers Brewing Company,brewpub,6001 N US Highway 31,,,Whiteland,Indiana,,46184,,3172813132,2018-07-24 01:33:22,2018-08-11 21:37:21,United States,,,
moontown-brewing,Moontown Brewing,brewpub,345 S Bowers St,,,Whitestown,Indiana,,46075,http://www.moontownbeer.com,5742503114,2018-07-24 01:33:22,2018-08-24 00:33:07,United States,-86.346903,39.99409929,
bulldog-brewing,Bulldog Brewing,brewpub,1409 119th St,,,Whiting,Indiana,,46394-1714,http://www.bulldogbrewingco.com,2196555284,2018-07-24 01:33:22,2018-08-24 00:32:40,United States,-87.49513509999998,41.679491,