id,name,brewery_type,street,address_2,address_3,city,state,county_province,postal_code,website_url,phone,created_at,updated_at,country,longitude,latitude,tags
hawaii-nui-brewing,Hawaii Nui Brewing,closed,275 E Kawili St,,,Hilo,Hawaii,,96720-5074,http://www.hawaiinuibrewing.com,8089348211,2018-07-24 01:33:17,2018-08-24 00:29:42,United States,-155.0697885,19.70587596,
hilo-brewing-co,Hilo Brewing Co,micro,275 E Kawili St,,,Hilo,Hawaii,,96720-5074,https://hilobrewingco.com,8089348211,2020-10-11 20:12:11,2020-10-11 20:12:11,United States,-155.0697885,19.70587596,
beer-lab-hi,Beer Lab HI,micro,1010 University Ave Ste B1,,,Honolulu,Hawaii,,96826-1537,http://www.beerlabhi.com,8088880913,2018-07-24 01:33:17,2018-08-24 00:29:40,United States,-157.8218784,21.29214406,
home-of-the-brave-brewing-company,Home of the Brave Brewing Company,closed,909 Waimanu St,,,Honolulu,Hawaii,,96814-3309,http://www.hotbbc.com,8083968112,2018-07-24 01:33:17,2020-10-11 18:14:11,United States,-157.8535966,21.29875689,
gordon-biersch-brewery-restaurant-honolulu,Gordon Biersch Brewery Restaurant - Honolulu,closed,1 Aloha Tower Dr Ste 1123,,,Honolulu,Hawaii,,96813-4815,http://www.gordonbiersch.com/restaurant,8085994877,2018-07-24 01:33:17,2020-10-11 20:16:30,United States,-157.86622,21.306704,
honolulu-beerworks,Honolulu BeerWorks,brewpub,328 Cooke St,,,Honolulu,Hawaii,,96813-5531,http://www.honolulubeerworks.com,8085892337,2018-07-24 01:33:17,2018-08-24 00:29:44,United States,-157.860634,21.29690603,
maui-brewing-co-waikiki,Maui Brewing Co - Waikiki,brewpub,2300 Kalakua Ave,,,Honolulu,Hawaii,,96815,https://www.mauibrewingco.com,8088432739,2020-10-11 18:36:12,2020-10-11 18:36:12,United States,-157.826624,21.278349,
stewbum,Stewbum,brewpub,96 N King St,,,Honolulu,Hawaii,,96817-5109,http://www.stewbumandstonewall.com,8086646684,2018-07-24 01:33:17,2018-08-24 00:29:49,United States,-157.86347619999995,21.31171513,
waikiki-brewing-company,Waikiki Brewing Company,brewpub,1945 Kalakaua Ave,,,Honolulu,Hawaii,,96815-1851,http://www.waikikibrewing.com,,2018-07-24 01:33:17,2018-08-24 00:29:50,United States,-157.8334964,21.2858755,
waikiki-brewing-company-kakaako,"Waikiki Brewing Company, Kaka'ako",micro,831 Queen St,,,Honolulu,Hawaii,,96813-5203,,,2018-07-24 01:33:17,2018-08-24 00:29:51,United States,-157.8559271,21.29964432,
aloha-beer-co,Aloha Beer Co,brewpub,700 Queen St,,,Honolulu,Hawaii,,96813-5110,http://www.alohabeer.com,8085455959,2018-07-24 01:33:17,2018-08-24 00:29:40,United States,-157.857248,21.301249,
ola-brew-co,Ola Brew Co.,micro,74-5598 Luhia St Ste A,,,Kailua Kona,Hawaii,,96740-3151,http://www.olabrewco.com,8083393565,2018-07-24 01:33:17,2018-08-11 21:37:05,United States,-155.99806,19.646861,
kona-brewing-co,Kona Brewing Co,regional,74-5612 Pawai Pl,,,Kailua Kona,Hawaii,,96740-1617,http://www.konabrewingco.com,8083341133,2018-07-24 01:33:17,2018-08-24 00:29:47,United States,-155.99766100000005,19.643069,
brewery-in-planning-honolulu-hi,Brewery In Planning - Honolulu HI,planning,,,,Kailua,Hawaii,,96734-4059,,,2018-07-24 01:33:17,2018-08-11 21:37:04,United States,,,
lanikai-brewing-co,Lanikai Brewing Co,micro,175-C Hamakua Dr,,,Kailua,Hawaii,,96734,https://www.lanikaibrewing.com,,2018-07-24 01:33:17,2020-10-11 20:25:12,United States,-157.74032659999997,21.39044286,
big-island-brewhaus,Big Island Brewhaus,brewpub,64-1066 Mamalahoa Hwy Unit 5,,,Kamuela,Hawaii,,96743-7309,http://www.bigislandbrewhaus.com,8088871717,2018-07-24 01:33:17,2018-08-11 21:37:04,United States,-155.661471,20.025552,
inu-island-ales,Inu Island Ales,micro,46-147 Kahuhipa St STE E,,,Kaneohe,Hawaii,,96744,http://www.inuislandales.com,4088888586,2018-07-24 01:33:17,2020-10-11 20:58:04,United States,-157.80541399999996,21.416279,
maui-brewing-co-kihei,Maui Brewing Co - Kihei,brewpub,605 Lipoa Pkwy,,,Kihei,Hawaii,,96753-6947,http://www.mauibrewingco.com,8082133002,2018-07-24 01:33:17,2018-08-24 00:29:48,United States,-156.44024109999995,20.74961566,
brewery-in-planning-kunia-hi,"Brewery in Planning - Kunia, HI",planning,,,,Kunia,Hawaii,,96759,,8082225728,2018-07-24 01:33:17,2018-08-11 21:37:04,United States,,,
kohola-brewery,Kohola Brewery,micro,910 Honoapiilani Hwy,,,Lahaina,Hawaii,,96761-1507,http://www.koholabrewery.com,8088683198,2018-07-24 01:33:17,2018-08-24 00:29:46,United States,-156.65396299999995,20.845329,
maui-brewing-co-lahai,Maui Brewing Co - Lahaina,brewpub,4405 Honoapiilani Hwy Ste 217,,,Lahaina,Hawaii,,96761-9272,http://www.mauibrewingco.com,8086693474,2018-07-24 01:33:17,2018-08-24 00:29:48,United States,-156.65396299999995,20.845329,
kauai-beer-company,Kauai Beer Company,brewpub,4265 Rice St,,,Lihue,Hawaii,,96766,http://www.kauaibeer.com,8082452337,2018-07-24 01:33:17,2018-08-24 00:29:45,United States,-159.3647876,21.9722854,
taps-and-apps,Taps and Apps,brewpub,95-1830 Meheula Pkwy Ste C-6,,,Mililani,Hawaii,,96789-6311,http://www.tapsandappsbrewpub.com,8086268277,2018-07-24 01:33:17,2020-10-11 20:41:30,United States,-158.002414,21.467355,
kauai-island-brewery,Kauai Island Brewery,brewpub,4350 Waialo Rd,,,Eleele,Hawaii,,96705,http://www.kauaiislandbrewing.com,8083350006,2018-07-24 01:33:17,2020-10-11 20:40:44,United States,-159.586522,21.901641,
hana-koa-brewing-company,Hana Koa Brewing Company,brewpub,962 Kawaiahao St,,,Honolulu,Hawaii,,96814,http://www.hanakoabrewing.com,8085912337,2020-10-23 00:00:00,2020-10-23 00:00:00,United States,-157.852894,21.297494,